postalCode,address,city,state,startHr,endHr,storeNumber
72756,2110 W Walnut St,Rogers,AR,00:00,24:00,1
72601,161 N Walmart Dr,Harrison,AR,00:00,24:00,2
30529,30983 Highway 441 S,Commerce,GA,00:00,24:00,3
72761,2901 Highway 412 E,Siloam Springs,AR,00:00,24:00,4
72032,1155 Hwy 65 North,Conway,AR,00:00,24:00,5
72120,9053 Highway 107,Sherwood,AR,00:00,24:00,7
72110,1621 North Business 9,Morrilton,AR,00:00,24:00,8
63801,1303 S Main St,Sikeston,MO,00:00,24:00,9
74464,2020 S Muskogee Ave,Tahlequah,OK,00:00,24:00,10
72653,65 Wal Mart Dr,Mountain Home,AR,00:00,24:00,11
74017,1500 S Lynn Riggs Blvd,Claremore,OK,00:00,24:00,12
64836,2705 Grand Ave,Carthage,MO,00:00,24:00,13
65536,1800 S Jefferson Ave,Lebanon,MO,00:00,24:00,14
65775,1310 Preacher Roe Blvd,West Plains,MO,00:00,24:00,15
72956,2214 Fayetteville Rd,Van Buren,AR,00:00,24:00,16
64850,3200 Lusk Dr,Neosho,MO,00:00,24:00,17
72112,1211 Highway 367 N,Newport,AR,06:00,23:00,18
63901,333 S Westwood Blvd,Poplar Bluff,MO,06:00,24:00,19
64735,1712 E Ohio St,Clinton,MO,00:00,24:00,20
65584,185 Saint Robert Blvd,Saint Robert,MO,00:00,24:00,21
74361,4901 S Mill St,Pryor,OK,00:00,24:00,22
71270,1201 N Service Rd E,Ruston,LA,00:00,24:00,23
72076,2000 John Harden Dr,Jacksonville,AR,00:00,24:00,24
65265,4820 S Clark St,Mexico,MO,00:00,24:00,25
66048,5000 10th Ave,Leavenworth,KS,00:00,24:00,26
65560,1101 W Highway 32,Salem,MO,06:00,01:00,27
74354,2415 N Main St,Miami,OK,00:00,24:00,28
65109,724 Stadium West Blv,Jefferson City,MO,00:00,24:00,29
63841,2025 W Business Us Highway 60,Dexter,MO,00:00,24:00,30
74953,3108 N Broadway St,Poteau,OK,00:00,24:00,31
65616,2050 W 76 Country Blvd,Branson,MO,06:00,01:00,32
64772,2250 Lincoln Ave,Nevada,MO,00:00,24:00,34
66502,101 Bluemont Ave,Manhattan,KS,00:00,24:00,35
72450,2802 W Kingshighway,Paragould,AR,00:00,24:00,36
63640,707 Walton Dr,Farmington,MO,00:00,24:00,37
74745,1907 Se Washington St,Idabel,OK,06:00,24:00,38
66701,2500 S Main St,Fort Scott,KS,06:00,01:00,39
65270,1301 E Highway 24,Moberly,MO,00:00,24:00,40
74006,4000 Se Green Country Rd,Bartlesville,OK,00:00,24:00,41
67337,1863 Cr 5300,Coffeyville,KS,06:00,01:00,42
66441,521 E Chestnut St,Junction City,KS,00:00,24:00,43
65026,1802 S Business 54,Eldon,MO,07:00,23:00,44
72401,1815 E Highland Dr,Jonesboro,AR,00:00,24:00,45
65613,2451 S Springfield Ave,Bolivar,MO,00:00,24:00,46
74955,1101 W Ruth Ave,Sallisaw,OK,00:00,24:00,47
65708,885 E Us Highway 60,Monett,MO,00:00,24:00,48
74743,1911 E Jackson St,Hugo,OK,06:00,24:00,49
74301,268 S 7th St,Vinita,OK,06:00,01:00,50
65251,1701 N Bluff St,Fulton,MO,06:00,01:00,51
71913,1601 Albert Pike Rd,Hot Springs,AR,00:00,24:00,52
72764,2004 S Pleasant St,Springdale,AR,00:00,24:00,54
72927,1400 East Main St,Booneville,AR,06:00,01:00,55
65608,1309 Nw 12th Ave,Ava,MO,06:00,01:00,56
72476,1600 W Main St,Walnut Ridge,AR,06:00,24:00,57
72802,2409 E Main St,Russellville,AR,00:00,24:00,58
64804,1501 S Range Line Rd,Joplin,MO,00:00,24:00,59
63379,101 Highway 47 E,Troy,MO,00:00,24:00,60
64093,301 E Cooper St,Warrensburg,MO,00:00,24:00,61
72315,3700 E Highway 18,Blytheville,AR,00:00,24:00,62
74467,410 S Dewey Ave,Wagoner,OK,06:00,01:00,63
38012,1100 S Dupree Ave,Brownsville,TN,06:00,01:00,64
63080,350 Park Ridge Rd,Sullivan,MO,00:00,24:00,65
72830,230 Market St.,Clarksville,AR,00:00,24:00,66
71953,600 Highway 71 N,Mena,AR,00:00,24:00,67
72396,800 Highway 64 E,Wynne,AR,00:00,24:00,68
63028,650 S Truman Blvd,Festus,MO,00:00,24:00,69
72301,798 W Service Rd,West Memphis,AR,00:00,24:00,70
72455,1415 Highway 67 S,Pocahontas,AR,00:00,24:00,71
66762,2710 N Broadway St,Pittsburg,KS,00:00,24:00,72
74066,1002 W Taft St,Sapulpa,OK,00:00,24:00,73
72370,2720 W Keiser Ave,Osceola,AR,06:00,24:00,74
71360,3636 Monroe Hwy,Pineville,LA,00:00,24:00,75
72616,1000 W Trimble Ave,Berryville,AR,00:00,24:00,76
76574,3701 N Main St,Taylor,TX,00:00,24:00,77
65706,14740 State Hwy #38,Marshfield,MO,00:00,24:00,78
64801,2623 W 7th St,Joplin,MO,00:00,24:00,79
65203,3001 W Broadway,Columbia,MO,00:00,24:00,80
74960,Rr 6 Box 1895,Stilwell,OK,00:00,24:00,81
63775,1750 S Perryville Blvd,Perryville,MO,00:00,24:00,82
71753,60 Highway 79 N,Magnolia,AR,00:00,24:00,83
72015,17309 Interstate 30 S,Benton,AR,00:00,24:00,85
65803,2825 N Kansas Expy,Springfield,MO,00:00,24:00,86
71055,1379 Homer Rd,Minden,LA,00:00,24:00,87
65711,2100 N Main Ave,Mountain Grove,MO,00:00,24:00,88
65020,94 Cecil St,Camdenton,MO,00:00,24:00,89
74344,2115 S Main St,Grove,OK,00:00,24:00,90
72335,205 Deadrick Rd,Forrest City,AR,06:00,01:00,91
65605,3020 S Elliott Ave,Aurora,MO,06:00,24:00,92
38019,201 Lanny Bridges Ave,Covington,TN,00:00,24:00,93
38053,8445 Us Highway 51 N,Millington,TN,00:00,24:00,94
63601,407 No. State St,Desloge,MO,00:00,24:00,95
64701,1700 N State Route 291,Harrisonville,MO,00:00,24:00,96
38063,628 Highway 51 N,Ripley,TN,00:00,24:00,97
71220,6091 Mer Rouge Rd,Bastrop,LA,00:00,24:00,98
63084,1445 E Central Ct,Union,MO,06:00,01:00,99
72712,406 S Walton Blvd,Bentonville,AR,00:00,24:00,100
65401,500 S Bishop Ave,Rolla,MO,00:00,24:00,101
72160,406 E 22nd St,Stuttgart,AR,06:00,01:00,102
74804,196 Shawnee Mall Dr,Shawnee,OK,00:00,24:00,103
38358,15427 S First St,Milan,TN,00:00,24:00,104
38834,2301 S Harper Rd,Corinth,MS,00:00,24:00,105
42041,1405 Middle Rd,Fulton,KY,06:00,01:00,106
38237,134 Courtright Rd,Martin,TN,00:00,24:00,107
73044,1608 S Division St,Guthrie,OK,00:00,24:00,108
64429,2000 N Walnut St,Cameron,MO,00:00,24:00,109
34787,16313 New Independence Parkway,Winter Garden,FL,00:00,24:00,110
66720,2700 S Santa Fe Ave,Chanute,KS,00:00,24:00,111
39759,1010 Highway 12 W,Starkville,MS,00:00,24:00,112
73018,2001 S 1st St,Chickasha,OK,00:00,24:00,113
38829,300 Walmart Cir,Booneville,MS,05:00,24:00,114
39773,5509 Highway 45 Alt S,West Point,MS,06:00,23:00,115
71082,929 S Pine St,Vivian,LA,07:00,21:00,116
74728,501 S Park Dr,Broken Bow,OK,06:00,24:00,117
38821,1515 Highway 278 E,Amory,MS,06:00,01:00,118
72501,3150 Harrison St,Batesville,AR,00:00,24:00,119
38343,2716 N Central Ave,Humboldt,TN,00:00,24:00,120
74447,1800 S Wood Dr,Okmulgee,OK,00:00,24:00,121
63755,3051 E Jackson Blvd,Jackson,MO,00:00,24:00,122
74868,1500 E Wrangler Blvd,Seminole,OK,00:00,24:00,123
72209,8801 Baseline Rd,Little Rock,AR,06:00,24:00,124
72901,2425 S Zero St,Fort Smith,AR,00:00,24:00,125
72205,2700 S Shackleford Rd,Little Rock,AR,06:00,24:00,126
72104,1910 Martin Luther King Blvd,Malvern,AR,06:00,01:00,127
72404,1911 W Parker Rd,Jonesboro,AR,00:00,24:00,128
73401,1715 N Commerce St,Ardmore,OK,00:00,24:00,129
74401,1000 W Shawnee St,Muskogee,OK,00:00,24:00,130
75455,2311 S Jefferson Ave,Mount Pleasant,TX,00:00,24:00,131
73750,200 Starlite Dr,Kingfisher,OK,00:00,24:00,132
71822,297 Hwy 32 By-pass E,Ashdown,AR,06:00,01:00,133
73644,210 Regional Dr,Elk City,OK,00:00,24:00,134
64601,1000 Graves St,Chillicothe,MO,00:00,24:00,135
74631,1219 W Doolin Ave,Blackwell,OK,07:00,22:00,136
74075,111 N Perkins Rd,Stillwater,OK,00:00,24:00,137
65803,1923 E Kearney St,Springfield,MO,06:00,24:00,138
73080,2015 S Green Ave,Purcell,OK,06:00,01:00,139
75904,2500 Daniel Mccall Dr,Lufkin,TX,00:00,24:00,140
72903,8301 Rogers Ave,Fort Smith,AR,00:00,24:00,141
42025,310 W 5th St,Benton,KY,00:00,24:00,143
72704,2875 W Mrtn Luther K,Fayetteville,AR,00:00,24:00,144
63334,3 Town Center Dr,Bowling Green,MO,06:00,01:00,145
75644,1102 Us Highway 271 North,Gilmer,TX,00:00,24:00,146
75020,401 N Us Highway 75,Denison,TX,00:00,24:00,147
75462,3855 Lamar Ave,Paris,TX,00:00,24:00,148
71251,184 Old Winnfield Rd,Jonesboro,LA,06:00,24:00,149
73801,3215 Williams Ave,Woodward,OK,00:00,24:00,150
74501,432 S George Nigh Expy,Mcalester,OK,00:00,24:00,151
63020,12862 State Route 21,De Soto,MO,00:00,24:00,152
38652,202 Park Plaza Dr,New Albany,MS,00:00,24:00,153
24211,16032 Fifteen Mile Boulevard,Abingdon,VA,00:00,24:00,154
38668,5219 Highway 51 N,Senatobia,MS,00:00,24:00,155
72143,3509 E Race Ave,Searcy,AR,00:00,24:00,157
75418,2021 N State Highway 121,Bonham,TX,06:00,01:00,158
65201,415 Conley Rd,Columbia,MO,06:00,24:00,159
72513,219 Highway 412,Ash Flat,AR,00:00,24:00,160
38344,180 Veterans Dr N,Huntingdon,TN,06:00,01:00,161
73005,1201 W Petree Rd,Anadarko,OK,07:00,23:00,162
75965,4810 North St,Nacogdoches,TX,00:00,24:00,163
38863,100 Mccord Rd,Pontotoc,MS,00:00,24:00,164
75654,2121 Us Highway 79 S,Henderson,TX,00:00,24:00,165
65483,1433 S Sam Houston Blvd,Houston,MO,06:00,23:00,166
71635,910 Unity Rd,Crossett,AR,06:00,01:00,167
74055,12101 E 96th St N,Owasso,OK,00:00,24:00,168
72086,322 Brownsville Loop,Lonoke,AR,06:00,24:00,169
71457,925 Keyser Ave,Natchitoches,LA,00:00,24:00,170
71701,950 California Ave Sw,Camden,AR,00:00,24:00,171
63090,1701 A Roy Dr,Washington,MO,00:00,24:00,172
63664,#1 Memorial Drive,Potosi,MO,06:00,24:00,173
32922,2700 Clearlake Rd,Cocoa,FL,00:00,24:00,174
38017,560 W Poplar Ave,Collierville,TN,00:00,24:00,175
38663,822 City Ave S,Ripley,MS,06:00,22:00,176
38242,1210 Mineral Wells Ave,Paris,TN,00:00,24:00,177
73717,914 E Oklahoma Blvd,Alva,OK,00:00,24:00,178
65807,3520 W Sunshine St,Springfield,MO,00:00,24:00,179
75766,1311 S Jackson St,Jacksonville,TX,00:00,24:00,180
75570,800 James Bowie Dr,New Boston,TX,00:00,24:00,181
38701,1831 Highway 1 S,Greenville,MS,00:00,24:00,182
39339,159 Highway 15 S,Louisville,MS,06:00,23:00,183
64014,600 Ne Coronado Dr,Blue Springs,MO,00:00,24:00,184
76240,1800 Lawrence St,Gainesville,TX,00:00,24:00,185
67042,301 S Village Rd,El Dorado,KS,06:00,01:00,186
63701,3439 William St,Cape Girardeau,MO,00:00,24:00,188
63501,2206 N Baltimore St,Kirksville,MO,00:00,24:00,189
63857,1500 1st St,Kennett,MO,00:00,24:00,190
38401,2200 Brookmeade Dr,Columbia,TN,00:00,24:00,192
77521,4900 Garth Rd,Baytown,TX,00:00,24:00,194
64024,2203 Patsy Ln,Excelsior Springs,MO,06:00,01:00,195
62901,1450 E Main St,Carbondale,IL,00:00,24:00,196
61455,1730 E Jackson St,Macomb,IL,00:00,24:00,197
62881,1870 W Main St,Salem,IL,00:00,24:00,198
62656,825 Malerich Dr,Lincoln,IL,00:00,24:00,199
62650,1941 W Morton Ave,Jacksonville,IL,00:00,24:00,200
62221,2608 Green Mount Commons Dr,Belleville,IL,00:00,24:00,201
75035,16066 State Highway 121,Frisco,TX,06:00,24:00,202
64628,937 Park Circle Dr,Brookfield,MO,06:00,01:00,203
42445,1500 Us Highway 62 W,Princeton,KY,00:00,24:00,204
39350,1002 W Beacon St,Philadelphia,MS,00:00,24:00,205
75069,2041 N Redbud Blvd,Mckinney,TX,00:00,24:00,206
74020,772 N Airport Rd,Cleveland,OK,06:00,01:00,207
72949,1516 N 18th St,Ozark,AR,06:00,22:00,209
74848,500 East Highway 270,Holdenville,OK,06:00,23:00,210
73069,333 N Interstate Dr,Norman,OK,00:00,24:00,212
62056,1205 W Ferdon St,Litchfield,IL,00:00,24:00,213
75951,800 W Gibson St,Jasper,TX,00:00,24:00,214
62959,2802 Outer Road Drive,Marion,IL,00:00,24:00,216
75067,801 W Main St,Lewisville,TX,00:00,24:00,217
38375,1017 Mulberry Ave,Selmer,TN,00:00,24:00,218
65301,3201 W Broadway Blvd,Sedalia,MO,00:00,24:00,219
76028,951 Sw Wilshire Blvd,Burleson,TX,00:00,24:00,220
73099,1200 Garth Brooks Blvd,Yukon,OK,00:00,24:00,221
62286,1410 N Market St,Sparta,IL,00:00,24:00,222
62864,110 Davidson Rd,Mount Vernon,IL,00:00,24:00,224
73086,2705 W Broadway Ave,Sulphur,OK,06:00,01:00,225
75551,201 Loop 59,Atlanta,TX,00:00,24:00,226
73036,2400 S Country Club Rd,El Reno,OK,00:00,24:00,227
76033,1616 W Henderson St,Cleburne,TX,00:00,24:00,228
72472,512 Industrial Park Dr,Trumann,AR,06:00,01:00,229
72855,1501 E Walnut St,Paris,AR,06:00,22:00,230
74820,1419 N Country Club Rd,Ada,OK,00:00,24:00,231
74525,1983 S Mississippi Ave,Atoka,OK,06:00,01:00,232
62906,300 Leigh Ave,Anna,IL,06:00,01:00,233
64158,8301 N Church Rd,Kansas City,MO,00:00,24:00,234
75835,1225 E Loop 304,Crockett,TX,06:00,23:00,236
62946,710 S Commercial St,Harrisburg,IL,00:00,24:00,237
38478,1655 W College St,Pulaski,TN,00:00,24:00,238
39090,220 Veterans Memorial Dr,Kosciusko,MS,06:00,23:00,239
75428,2701 State Highway 50,Commerce,TX,06:00,24:00,240
72758,4206 S Pleasant Crossing Blvd,Rogers,AR,05:00,24:00,241
66071,310 Hedge Ln,Paola,KS,06:00,01:00,242
63385,1971 Wentzville Pkwy,Wentzville,MO,00:00,24:00,243
71483,5940 Highway 167 N,Winnfield,LA,06:00,23:00,244
76036,1301 E. Fm 1187,Crowley,TX,05:00,24:00,245
74070,700 W Rogers Blvd,Skiatook,OK,00:00,24:00,246
74437,605 E Main St,Henryetta,OK,06:00,23:00,247
76667,1406 E Milam St,Mexia,TX,00:00,24:00,248
77327,831 Highway 59 S,Cleveland,TX,00:00,24:00,249
65355,103 W Polk St,Warsaw,MO,06:00,01:00,250
75773,135 Ne Loop 564,Mineola,TX,00:00,24:00,251
62832,215 E Grantway St,Du Quoin,IL,06:00,01:00,252
62052,1316 S State St,Jerseyville,IL,00:00,24:00,253
62450,1001 North West,Olney,IL,06:00,24:00,254
62034,400 Junction Dr,Glen Carbon,IL,00:00,24:00,256
42437,901 Us Highway 60 E,Morganfield,KY,06:00,01:00,257
38804,3929 N Gloster St,Tupelo,MS,00:00,24:00,258
75087,782 E Interstate 30,Rockwall,TX,00:00,24:00,259
75165,1200 N Highway 77,Waxahachie,TX,00:00,24:00,260
71913,4019 Central Ave,Hot Springs,AR,00:00,24:00,261
62812,919 Giacone Dr,Benton,IL,00:00,24:00,262
37055,175 Beasley Dr,Dickson,TN,00:00,24:00,264
75160,1900 W Moore Ave,Terrell,TX,00:00,24:00,265
76051,1601 W State Highway 114,Grapevine,TX,00:00,24:00,266
64870,1212 S Madison St,Webb City,MO,00:00,24:00,267
38372,175 Ji Bell Ln,Savannah,TN,00:00,24:00,268
73505,1002 Nw Sheridan Rd,Lawton,OK,00:00,24:00,269
76230,1341 Highway 287 N,Bowie,TX,06:00,24:00,271
37067,3600 Mallory Ln,Franklin,TN,00:00,24:00,272
38843,100 Interchange Dr,Fulton,MS,06:00,01:00,273
38852,1110 Battleground Dr,Iuka,MS,06:00,22:00,274
77351,1620 W Church St,Livingston,TX,00:00,24:00,275
74462,1312 E Main St,Stigler,OK,06:00,23:00,276
73160,501 Sw 19th St,Moore,OK,00:00,24:00,277
71105,1645 E Bert Kouns Industrial Loop,Shreveport,LA,00:00,24:00,278
71832,926 E Collin Raye Dr,De Queen,AR,06:00,01:00,279
76567,709 W Us Highway 79,Rockdale,TX,06:00,01:00,280
72543,1500 Hwy 25b,Heber Spgs,AR,00:00,24:00,281
42134,1550 Nashville Rd,Franklin,KY,00:00,24:00,282
77611,795 Texas Ave,Bridge City,TX,06:00,22:00,283
76063,930 N Walnut Creek Dr Ste 800,Mansfield,TX,00:00,24:00,284
77340,141 Interstate 45 S,Huntsville,TX,00:00,24:00,285
75119,700 E Ennis Ave,Ennis,TX,00:00,24:00,286
35501,1801 Highway 78 E,Jasper,AL,00:00,24:00,287
75979,115 Cobb Mill Rd,Woodville,TX,06:00,23:00,288
71654,Us 65 South,Mcgehee,AR,07:00,22:00,289
78629,1114 E. Sarah Dewitt Drive,Gonzales,TX,06:00,01:00,290
78644,1904 S Colorado St,Lockhart,TX,06:00,01:00,292
77868,1712 E Washington Ave,Navasota,TX,07:00,23:00,293
42330,1725 West Everely Br,Central City,KY,00:00,24:00,294
63025,131 Erka Twn Cntr Dr,Eureka,MO,00:00,24:00,295
72834,1172 N. State Hwy 7,Dardanelle,AR,06:00,01:00,296
77365,23561 Us Hwy 59,Porter,TX,00:00,24:00,297
35957,1972 Hwy 431,Boaz,AL,00:00,24:00,298
42104,150 Walton Ave,Bowling Green,KY,00:00,24:00,299
36265,1625 Pelham Rd S,Jacksonville,AL,00:00,24:00,300
35903,340 E Meighan Blvd,Gadsden,AL,00:00,24:00,301
62966,6495 Country Club Rd,Murphysboro,IL,06:00,01:00,302
38635,950 Mackie Dr,Holly Springs,MS,06:00,23:00,303
37172,3360 Tom Austin Hwy,Springfield,TN,00:00,24:00,304
39051,905 Highway 16 W,Carthage,MS,06:00,23:00,305
35016,1450 No. Brindlee Mt,Arab,AL,00:00,24:00,306
71291,1025 Glenwood Dr,West Monroe,LA,00:00,24:00,307
37355,2518 Hillsboro Blvd,Manchester,TN,00:00,24:00,308
70510,3005 Charity Street,Abbeville,LA,06:00,24:00,309
70526,729 Odd Fellows Rd,Crowley,LA,00:00,24:00,310
70538,200 Northwest Blvd,Franklin,LA,06:00,23:00,311
70586,891 E Lasalle St,Ville Platte,LA,06:00,24:00,312
63049,2700 Ridge Point Dr,High Ridge,MO,00:00,24:00,313
37334,1224 Huntsville Hwy,Fayetteville,TN,00:00,24:00,314
35121,2453 2nd Ave E,Oneonta,AL,00:00,24:00,315
35954,973 Gilbert Ferry Rd Se,Attalla,AL,00:00,24:00,316
62471,201 No. Mattes Avenu,Vandalia,IL,00:00,24:00,317
71923,109 Wp Malone Dr,Arkadelphia,AR,00:00,24:00,318
64083,2015 W Foxwood Dr,Raymore,MO,00:00,24:00,319
76661,600 S State Highway 6,Marlin,TX,06:00,23:00,320
77833,203 Us Loop 290 West,Brenham,TX,00:00,24:00,321
77802,2200 Briarcrest Dr,Bryan,TX,00:00,24:00,322
71052,7292 Hwy #509,Mansfield,LA,06:00,23:00,323
74010,105 W Highway 16,Bristow,OK,06:00,01:00,324
64085,908 Walton Way,Richmond,MO,06:00,24:00,325
64037,1180 W 19th St,Higginsville,MO,07:00,22:00,326
74346,1107 S Main St,Jay,OK,07:00,21:00,327
62298,961 N Market St,Waterloo,IL,00:00,24:00,328
36206,5560 Mcclellan Blvd,Anniston,AL,00:00,24:00,329
77904,9002 N Navarro St,Victoria,TX,00:00,24:00,330
70663,525 N Cities Service Hwy,Sulphur,LA,00:00,24:00,331
35806,6140a Univ Drive,Huntsville,AL,00:00,24:00,332
42320,1701 N Main St,Beaver Dam,KY,00:00,24:00,333
62626,18600 Shipman Blackt,Carlinville,IL,06:00,24:00,334
38305,2196 Emporium Dr,Jackson,TN,00:00,24:00,335
72150,1308 S Rock St,Sheridan,AR,00:00,24:00,336
63645,1025 Walton Dr,Fredericktown,MO,06:00,23:00,337
64759,29 Sw 1st Ln,Lamar,MO,06:00,24:00,338
71742,1123 Highway 79 167 Byp,Fordyce,AR,07:00,22:00,339
74426,131 Paul Carr Dr,Checotah,OK,00:00,24:00,340
66508,1174 Pony Express Hwy,Marysville,KS,06:00,01:00,341
66434,701 Hopi St,Hiawatha,KS,06:00,01:00,342
62568,1530 W Springfield Rd,Taylorville,IL,00:00,24:00,343
77437,3413 West Loop,El Campo,TX,06:00,01:00,344
75801,2223 S Loop 256,Palestine,TX,00:00,24:00,345
67010,719 W 7th Ave,Augusta,KS,00:00,24:00,346
38751,633 Highway 82 W,Indianola,MS,06:00,23:00,347
71655,427 Highway 425 N,Monticello,AR,00:00,24:00,348
68467,101 E David Dr,York,NE,00:00,24:00,350
77375,25800 Kuykendahl Rd,Tomball,TX,06:00,24:00,351
62233,Hwy 150/2206 State S,Chester,IL,06:00,24:00,352
76450,2121 State Highway 16 S,Graham,TX,00:00,24:00,353
65066,1888 Highway 28,Owensville,MO,06:00,01:00,354
36801,2900 Pepperell Pkwy,Opelika,AL,00:00,24:00,355
36832,1717 S College St,Auburn,AL,00:00,24:00,356
65084,1003 W Newton St,Versailles,MO,06:00,01:00,357
72921,367 W Cherry St,Alma,AR,00:00,24:00,358
72703,3919 No. Mall Ave,Fayetteville,AR,00:00,24:00,359
74023,3100 E Main St,Cushing,OK,06:00,01:00,360
62234,1040 Collinsville Crossing Blvd,Collinsville,IL,00:00,24:00,361
35594,2575 Us Highway 43,Winfield,AL,06:00,01:00,362
65340,855 Cherokee Dr,Marshall,MO,00:00,24:00,363
75935,765 Hurst Street,Center,TX,00:00,24:00,364
39208,5520 Highway 80 E,Pearl,MS,00:00,24:00,365
37354,4525 Highway 411,Madisonville,TN,00:00,24:00,366
67357,3201 No 16th St,Parsons,KS,06:00,01:00,368
67156,2202 Pike Rd,Winfield,KS,06:00,01:00,369
67152,2022 E 16th St,Wellington,KS,06:00,01:00,370
76048,735 E Highway 377,Granbury,TX,00:00,24:00,371
67801,1905 N 14th Ave,Dodge City,KS,00:00,24:00,372
72740,157 Gary Hatfield Way,Huntsville,AR,06:00,01:00,373
74429,11207 S State Highway 51,Coweta,OK,00:00,24:00,374
35801,3031 Memorial Pkwy Sw,Huntsville,AL,00:00,24:00,375
71111,2536 Airline Dr,Bossier City,LA,00:00,24:00,376
29150,343 Pinewood Rd,Sumter,SC,06:00,24:00,377
66436,427 S Arizona Ave,Holton,KS,06:00,01:00,378
65721,2004 W Marler Ln,Ozark,MO,00:00,24:00,379
76522,2720 E Highway 190,Copperas Cove,TX,00:00,24:00,381
66067,2101 S Princeton St,Ottawa,KS,00:00,24:00,382
77656,1100 Us Highway 96 N,Silsbee,TX,05:00,24:00,383
77657,100 No. Lhs Drive,Lumberton,TX,06:00,24:00,384
77954,1202 E Broadway St,Cuero,TX,00:00,24:00,385
70546,303 E Interstate Dr,Jennings,LA,00:00,24:00,386
74834,3100 E 1st St,Chandler,OK,06:00,01:00,387
72904,2100 No. 62nd St.,Fort Smith,AR,00:00,24:00,388
73034,1225 W I-35 Frontage,Edmond,OK,00:00,24:00,389
37185,275 Walton Dr,Waverly,TN,06:00,01:00,390
38801,2270 W Main St,Tupelo,MS,00:00,24:00,391
73096,1349 E Eagle Rd,Weatherford,OK,00:00,24:00,392
38301,2171 S Highland Ave,Jackson,TN,00:00,24:00,393
35650,15445 Highway 24,Moulton,AL,00:00,24:00,394
78572,2410 E Expressway 83,Mission,TX,00:00,24:00,395
29621,3812 Liberty Hwy,Anderson,SC,06:00,24:00,396
78503,1200 E Jackson Ave,Mcallen,TX,00:00,24:00,397
75605,515 E Loop 281,Longview,TX,00:00,24:00,398
75604,2440 Gilmer Rd,Longview,TX,00:00,24:00,399
77304,1407 N Loop 336 W,Conroe,TX,00:00,24:00,400
70764,59690 Belleview Dr,Plaquemine,LA,06:00,22:00,401
70517,1932 Rees St,Breaux Bridge,LA,06:00,23:00,402
35653,13675 Highway 43,Russellville,AL,00:00,24:00,403
78666,1015 Highway 80,San Marcos,TX,00:00,24:00,404
71446,2204 S 5th St,Leesville,LA,00:00,24:00,405
37167,570 Enon Springs Rd E,Smyrna,TN,00:00,24:00,406
76542,1400 Lowes Blvd,Killeen,TX,00:00,24:00,407
77640,8585 Memorial Blvd,Port Arthur,TX,06:00,24:00,408
35565,42466 Highway 195,Haleyville,AL,06:00,01:00,409
42071,809 N 12th St,Murray,KY,00:00,24:00,410
38851,660 E Madison St,Houston,MS,06:00,21:00,411
75751,1405 E Tyler St,Athens,TX,00:00,24:00,412
78578,1401 State Highway 100,Port Isabel,TX,06:00,24:00,413
76302,5131 Greenbriar Rd,Wichita Falls,TX,00:00,24:00,414
70518,123 Saint Nazaire Rd,Broussard,LA,00:00,24:00,415
37127,140 Joe B Jackson Parkway,Murfreesboro,TN,06:00,01:00,416
75482,1750 S Broadway St,Sulphur Springs,TX,00:00,24:00,417
68352,2831 Highway 15,Fairbury,NE,06:00,24:00,418
67124,2003 E 1st St,Pratt,KS,00:00,24:00,419
76306,2700 Central Fwy,Wichita Falls,TX,00:00,24:00,420
76234,800 S Highway 287,Decatur,TX,00:00,24:00,421
62454,1304 E Main St,Robinson,IL,05:00,24:00,422
35007,630 Colonial Promenade Pkwy,Alabaster,AL,06:00,24:00,423
35045,1415 7th St S,Clanton,AL,00:00,24:00,424
35034,10675 Highway 5,Brent,AL,06:00,23:00,425
75056,4691 State Highway 121,Colony,TX,00:00,24:00,426
75402,7401 Interstate Highway 30,Greenville,TX,00:00,24:00,427
70791,5801 Main St,Zachary,LA,00:00,24:00,428
78539,1724 W University Dr,Edinburg,TX,00:00,24:00,429
42066,1225 Paris Rd,Mayfield,KY,00:00,24:00,430
42003,3220 Irvin Cobb Dr,Paducah,KY,00:00,24:00,431
35160,214 Haynes St,Talladega,AL,06:00,24:00,432
35810,2200 Sparkman Dr Nw,Huntsville,AL,00:00,24:00,433
35803,11610 Memorial Pkwy Sw,Huntsville,AL,00:00,24:00,434
62249,12495 State Route 143,Highland,IL,00:00,24:00,435
62231,2591 12th St,Carlyle,IL,06:00,24:00,436
77474,310 Overcreek Way,Sealy,TX,00:00,24:00,437
76424,3800 W Walker St,Breckenridge,TX,06:00,01:00,438
78382,2401 Highway 35 N,Rockport,TX,06:00,24:00,440
78363,1133 General Cavazos Blvd,Kingsville,TX,00:00,24:00,442
78861,109 22nd St,Hondo,TX,06:00,01:00,443
65807,3315 S Campbell Ave,Springfield,MO,00:00,24:00,444
42754,1801 Elizabethtown Rd,Leitchfield,KY,00:00,24:00,445
77864,1620 E Main St,Madisonville,TX,06:00,23:00,446
78840,2410 Dodson Ave,Del Rio,TX,00:00,24:00,447
71129,6235 W Port Ave,Shreveport,LA,06:00,24:00,448
77642,4999 N Twin City Hwy,Port Arthur,TX,06:00,24:00,449
71118,9550 Mansfield Rd,Shreveport,LA,00:00,24:00,450
65201,1201 Grindstone Pkwy,Columbia,MO,00:00,24:00,451
78504,2800 W Nolana Ave,Mcallen,TX,00:00,24:00,452
63863,1007 N Douglass St,Malden,MO,07:00,22:00,453
62837,150 Commerce Drive,Fairfield,IL,06:00,24:00,454
78520,3500 W Alton Gloor Blvd,Brownsville,TX,00:00,24:00,456
77662,1360 North Main,Vidor,TX,06:00,24:00,457
78336,2501 W Wheeler Ave,Aransas Pass,TX,06:00,24:00,458
30014,10300 Industrial Blvd Ne,Covington,GA,00:00,24:00,459
78852,496 S Bibb Ave,Eagle Pass,TX,00:00,24:00,461
77511,400 Highway 35 Byp N,Alvin,TX,00:00,24:00,462
78102,502 E Fm 351,Beeville,TX,00:00,24:00,463
78410,3829 Us Highway 77,Corpus Christi,TX,00:00,24:00,464
78114,305 10th Street,Floresville,TX,06:00,01:00,465
38008,1604 W Market St,Bolivar,TN,06:00,01:00,466
76205,1515 S Loop 288,Denton,TX,00:00,24:00,467
71854,133 Arkansas Blvd,Texarkana,AR,00:00,24:00,468
70607,3415 Gerstner Memorial Blvd,Lake Charles,LA,00:00,24:00,469
78416,1821 S Padre Island Dr,Corpus Christi,TX,00:00,24:00,470
75146,150 N Interstate 35 E,Lancaster,TX,06:00,24:00,471
74012,2301 W Kenosha St,Broken Arrow,OK,00:00,24:00,472
78942,Us Hwy 290/2374 E Au,Giddings,TX,07:00,24:00,473
78664,2701 S Interstate 35,Round Rock,TX,00:00,24:00,475
76528,2805 S State Highway 36,Gatesville,TX,00:00,24:00,476
37379,9334 Dayton Pike,Soddy Daisy,TN,00:00,24:00,477
78061,819 N Oak St,Pearsall,TX,07:00,22:00,478
73521,2500 N Main St,Altus,OK,00:00,24:00,479
62363,151 Shetland Dr,Pittsfield,IL,07:00,22:00,480
61938,101 Dettro Dr,Mattoon,IL,00:00,24:00,481
77486,301 N Columbia Dr,West Columbia,TX,07:00,23:00,482
36066,1903 Cobbs Ford Rd,Prattville,AL,00:00,24:00,483
66046,3300 Iowa St,Lawrence,KS,00:00,24:00,484
70346,37000 Hwy 3089,Donaldsonville,LA,06:00,22:00,485
66012,12801 Kansas Ave,Bonner Springs,KS,06:00,01:00,486
32351,1940 Pat Thomas Pkwy,Quincy,FL,06:00,24:00,488
70401,2799 W Thomas St,Hammond,LA,05:00,23:00,489
78418,1250 Flour Bluff Dr,Corpus Christi,TX,00:00,24:00,490
42001,5130 Hinkleville Rd,Paducah,KY,00:00,24:00,491
47591,650 Kimmell Rd,Vincennes,IN,00:00,24:00,492
40361,305 Letton Dr,Paris,KY,00:00,24:00,493
30265,1025 Highway 34 E,Newnan,GA,00:00,24:00,494
39705,1913 Highway 45 N,Columbus,MS,00:00,24:00,495
40065,500 Taylorsville Rd,Shelbyville,KY,00:00,24:00,497
71342,3670 W Oak St,Jena,LA,06:00,23:00,498
73703,5505 W Owen K Garriott Rd,Enid,OK,00:00,24:00,499
79924,4530 Woodrow Bean,El Paso,TX,00:00,24:00,500
39440,1621 Highway 15 N,Laurel,MS,00:00,24:00,501
70345,16759 Highway 3235,Galliano,LA,00:00,24:00,502
78934,2103 Milam St,Columbus,TX,06:00,01:00,503
77551,6702 Seawall Blvd,Galveston,TX,06:00,24:00,504
70634,1125 N Pine St,Deridder,LA,00:00,24:00,505
62839,1540 N Worthey St,Flora,IL,06:00,24:00,506
40342,1000 Bypass N,Lawrenceburg,KY,00:00,24:00,507
78028,1216 Junction Hwy,Kerrville,TX,00:00,24:00,508
30504,400 Shallowford Rd Nw,Gainesville,GA,00:00,24:00,510
29150,1283 Broad St,Sumter,SC,00:00,24:00,511
79935,10727 Gateway Blvd W,El Paso,TX,00:00,24:00,512
79720,201 W Marcy Dr,Big Spring,TX,00:00,24:00,513
29803,2035 Whiskey Rd,Aiken,SC,00:00,24:00,514
28906,2330 Us 19,Murphy,NC,00:00,24:00,515
75156,1200 W Main St,Gun Barrel City,TX,00:00,24:00,516
73064,951 E State Highway 152,Mustang,OK,00:00,24:00,517
30114,1550 Riverstone Pkwy,Canton,GA,00:00,24:00,518
40330,591 Joseph Dr,Harrodsburg,KY,00:00,24:00,519
30680,440 Atlanta Hwy N.w.,Winder,GA,00:00,24:00,520
70601,2500 N Martin Luther King Hwy,Lake Charles,LA,00:00,24:00,521
77532,14215 Fm 2100 Rd,Crosby,TX,00:00,24:00,522
75633,4609 Nw Loop 436,Carthage,TX,06:00,01:00,523
78119,200 Business Park Blvd,Kenedy,TX,06:00,01:00,524
32746,825 Casa Verde Blvd,Lake Mary,FL,06:00,24:00,525
40241,3706 Diann Marie Rd,Louisville,KY,00:00,24:00,526
77515,1801 N Velasco St,Angleton,TX,00:00,24:00,527
34203,2911 53rd Ave E,Braden River,FL,00:00,24:00,528
77568,6410 Interstate 45,La Marque,TX,00:00,24:00,529
71730,2730 N West Ave,El Dorado,AR,00:00,24:00,530
70506,3142 Ambassador Caffery Pkwy,Lafayette,LA,00:00,24:00,531
70737,308 N Airline Hwy,Gonzales,LA,00:00,24:00,532
70560,1205 E Admiral Doyle Dr,New Iberia,LA,00:00,24:00,533
79606,4350 Southwest Dr,Abilene,TX,00:00,24:00,535
79601,1650 State Highway 351,Abilene,TX,00:00,24:00,536
79762,4210 John Ben Shephe,Odessa,TX,00:00,24:00,537
32653,5700 Nw 23rd St,Gainesville,FL,00:00,24:00,538
71301,2050 N Mall Dr,Alexandria,LA,06:00,24:00,539
70380,973 Highway 90 E,Morgan City,LA,00:00,24:00,540
70433,880 N Highway 190,Covington,LA,00:00,24:00,541
70360,1633 Martin Luther King Jr Blvd,Houma,LA,00:00,24:00,542
70570,1629 E Cresswell Ln,Opelousas,LA,00:00,24:00,543
73115,5401 Tinker Diagonal St,Del City,OK,00:00,24:00,544
40962,240 Manchester Square Shpg Ctr,Manchester,KY,06:00,24:00,545
77469,5330 Fm1640,Richmond,TX,00:00,24:00,546
33566,2602 James L Redman Pkwy,Plant City,FL,00:00,24:00,547
30046,630 Collins Hill Rd,Lawrenceville,GA,00:00,24:00,548
88240,3800 N Lovington Hwy,Hobbs,NM,00:00,24:00,549
62439,2610 W Haven Rd,Lawrenceville,IL,06:00,24:00,550
32177,1024 S State Road 19,Palatka,FL,00:00,24:00,551
41858,350 Whitesburg Plaza,Whitesburg,KY,06:00,24:00,552
70461,39142 Natchez Dr,Slidell,LA,00:00,24:00,553
78041,5610 San Bernardo Ave,Laredo,TX,00:00,24:00,554
31021,2423 Us Highway 80 W,Dublin,GA,06:00,24:00,555
31503,2425 Memorial Dr,Waycross,GA,00:00,24:00,556
66801,2301 Industrial Rd,Emporia,KS,00:00,24:00,557
67401,2900 S 9th St,Salina,KS,00:00,24:00,558
52761,3003 N Highway 61,Muscatine,IA,00:00,24:00,559
64506,4201 N Belt Hwy,Saint Joseph,MO,00:00,24:00,560
76448,1410 E Main St,Eastland,TX,06:00,01:00,561
35094,8551 Whitfield Ave,Leeds,AL,00:00,24:00,562
32763,2400 Veterans Memorial Pkwy,Orange City,FL,00:00,24:00,563
73127,6100 W Reno Ave,Oklahoma City,OK,06:00,24:00,564
75110,3801 W State Highway 31,Corsicana,TX,00:00,24:00,565
47601,1115 American Way,Boonville,IN,00:00,24:00,566
77836,475 State Highway 36 N,Caldwell,TX,06:00,23:00,567
37030,125 Myers St,Carthage,TN,06:00,01:00,568
42728,2988 Burkesville Rd,Columbia,KY,00:00,24:00,569
40324,112 Osbourne Way,Georgetown,KY,00:00,24:00,571
75662,1201 Stone St,Kilgore,TX,00:00,24:00,572
64086,1000 Ne Sam Walton Ln,Lees Summit,MO,00:00,24:00,573
29575,2751 Beaver Run Blvd,Surfside Beach,SC,00:00,24:00,574
30188,12182 Highway 92,Woodstock,GA,00:00,24:00,575
74112,207 S Memorial Dr,Tulsa,OK,06:00,24:00,576
66062,13600 S Alden St,Olathe,KS,00:00,24:00,577
37862,1414 Parkway,Sevierville,TN,00:00,24:00,578
32086,2355 Us Highway 1 S,St Augustine,FL,00:00,24:00,579
33830,1050 E Van Fleet Dr,Bartow,FL,00:00,24:00,580
50158,2802 S Center St,Marshalltown,IA,00:00,24:00,581
32127,1590 Dunlawton Ave,Port Orange,FL,00:00,24:00,582
37841,19740 Alberta St,Oneida,TN,06:00,01:00,583
41035,20 Ferguson Blvd,Dry Ridge,KY,00:00,24:00,584
29730,2377 Dave Lyle Blvd,Rock Hill,SC,06:00,24:00,585
29526,2709 Church St Ste A,Conway,SC,00:00,24:00,586
38583,202 Sam Walton Dr,Sparta,TN,00:00,24:00,587
31707,2825 Ledo Rd,Albany,GA,00:00,24:00,588
40229,11901 Standiford Plaza Dr,Louisville,KY,00:00,24:00,589
76132,6300 Oakmont Blvd,Fort Worth,TX,00:00,24:00,590
41031,805 Us Highway 27 S,Cynthiana,KY,00:00,24:00,591
67037,2020 N Nelson Dr,Derby,KS,00:00,24:00,592
31533,1450 Bowens Mill Rd Se,Douglas,GA,00:00,24:00,593
30214,125 Pavilion Pkwy,Fayetteville,GA,00:00,24:00,594
78552,1801 W Lincoln St,Harlingen,TX,00:00,24:00,595
62948,1713 S Park Ave,Herrin,IL,07:00,23:00,596
68847,5411 2nd Ave,Kearney,NE,00:00,24:00,598
37664,3200 Ft Henry Drive,Kingsport,TN,00:00,24:00,599
79065,2801 No. Charles St.,Pampa,TX,00:00,24:00,600
76904,5501 Sherwood Way,San Angelo,TX,00:00,24:00,601
77380,1025 Sawdust Rd,Spring,TX,00:00,24:00,602
61554,3320 Veterans Dr,Pekin,IL,00:00,24:00,603
36303,4310 Montgomery Hwy,Dothan,AL,00:00,24:00,604
31406,1955 E Montgomery Xrd,Savannah,GA,06:00,24:00,605
31410,4725 Us Highway 80 E,Savannah,GA,06:00,23:00,606
73651,923 W 11th St,Hobart,OK,07:00,21:00,607
79707,4517 N Midland Dr,Midland,TX,00:00,24:00,608
63401,3650 Stardust Dr,Hannibal,MO,00:00,24:00,609
76401,2765 W Washington St,Stephenville,TX,00:00,24:00,610
88201,4500 N Main St Ste A,Roswell,NM,00:00,24:00,611
61920,2250 Lincoln Ave,Charleston,IL,06:00,24:00,612
32174,1521 W Granada Blvd,Ormond Beach,FL,00:00,24:00,613
30240,803 New Franklin Rd,Lagrange,GA,00:00,24:00,614
30121,101 Market Place Blvd,Cartersville,GA,00:00,24:00,615
29118,2795 North Rd,Orangeburg,SC,06:00,24:00,616
47882,757 W Wolfe St,Sullivan,IN,07:00,24:00,617
30141,4166 Jimmy Lee Smith Pkwy,Hiram,GA,00:00,24:00,618
37321,3034 Rhea County Hwy,Dayton,TN,00:00,24:00,619
37620,220 Century Blvd,Bristol,TN,00:00,24:00,620
29560,900 Us 52 Hwy,Lake City,SC,00:00,24:00,621
73132,7800 N.w. Expressway,Oklahoma City,OK,00:00,24:00,622
33903,545 Pine Island Rd,North Fort Myers,FL,00:00,24:00,623
29108,2812 Main St,Newberry,SC,00:00,24:00,624
29440,1310 N Fraser St,Georgetown,SC,00:00,24:00,625
79360,2000 Hobbs Hwy,Seminole,TX,07:00,22:00,626
29536,805 Enterprise Rd,Dillon,SC,06:00,23:00,627
29485,9880 Dorchester Rd,Summerville,SC,00:00,24:00,628
29379,513 N Duncan Byp,Union,SC,07:00,24:00,629
29501,230 N Beltline Dr,Florence,SC,00:00,24:00,630
29640,115 Rolling Hills Cir,Easley,SC,00:00,24:00,631
29464,1481 N Highway 17,Mount Pleasant,SC,00:00,24:00,632
61443,730 Tenney St,Kewanee,IL,00:00,24:00,633
29020,2240 W Dekalb St,Camden,SC,00:00,24:00,634
31419,6000 Ogeechee Rd,Savannah,GA,00:00,24:00,635
61356,2111 Claude Bailey Pkwy,Princeton,IL,06:00,24:00,636
68850,200 Frontier St,Lexington,NE,00:00,24:00,637
29341,165 Walton Dr,Gaffney,SC,00:00,24:00,638
31525,150 Altama Connector,Brunswick,GA,06:00,24:00,639
29607,1451 Woodruff Rd,Greenville,SC,00:00,24:00,640
29611,6134 White Horse Rd,Greenville,SC,06:00,24:00,641
29520,1040 Chesterfield Hwy,Cheraw,SC,06:00,23:00,642
29572,10820 Kings Rd,Myrtle Beach,SC,00:00,24:00,643
29624,651 Highway 28 Byp,Anderson,SC,06:00,24:00,644
68701,2400 W Pasewalk Ave,Norfolk,NE,00:00,24:00,645
52205,101 115th St,Anamosa,IA,06:00,01:00,646
50112,415 Industrial Ave,Grinnell,IA,06:00,01:00,647
63304,1661 Jungermann Rd,Saint Peters,MO,00:00,24:00,648
32780,3175 Cheney Hwy,Titusville,FL,00:00,24:00,649
77706,4145 Dowlen Rd,Beaumont,TX,06:00,24:00,651
67846,3101 E Kansas Ave,Garden City,KS,00:00,24:00,652
42240,300 Clinic Dr,Hopkinsville,KY,00:00,24:00,653
42413,420 Factory Outlet Dr,Hanson,KY,00:00,24:00,655
37160,1880 N Main St,Shelbyville,TN,00:00,24:00,656
38501,768 S Jefferson Ave,Cookeville,TN,00:00,24:00,657
30165,2510 Redmond Cir Nw,Rome,GA,00:00,24:00,658
37209,7044 Charlotte Pike,Nashville,TN,06:00,01:00,659
35661,517 Avalon Ave,Muscle Shoals,AL,00:00,24:00,660
35611,1011 Us Highway 72 E,Athens,AL,00:00,24:00,661
35603,2800 Spring Avn. S.w,Decatur,AL,00:00,24:00,662
37303,1815 Decatur Pike,Athens,TN,00:00,24:00,663
67601,4301 Vine St,Hays,KS,00:00,24:00,664
42718,725 Campbellsville Byp,Campbellsville,KY,00:00,24:00,665
33870,3525 Us Highway 27 N,Sebring,FL,00:00,24:00,666
37388,2111 N Jackson St,Tullahoma,TN,00:00,24:00,667
37110,915 N Chancery St,Mcminnville,TN,00:00,24:00,668
30721,2545 E Walnut Ave,Dalton,GA,00:00,24:00,669
35055,626 Olive St Sw,Cullman,AL,00:00,24:00,670
37087,615 S Cumberland St,Lebanon,TN,00:00,24:00,671
37701,1030 Hunters Crossin,Alcoa,TN,00:00,24:00,672
37040,3050 Wilma Rudolph Blvd,Clarksville,TN,00:00,24:00,673
37066,1112 Nashville Pike,Gallatin,TN,00:00,24:00,674
38261,1601 W Reelfoot Ave,Union City,TN,00:00,24:00,675
37854,1102 No. Gateway Ave,Rockwood,TN,00:00,24:00,676
38024,2650 Lake Rd,Dyersburg,TN,00:00,24:00,677
37821,1075 Cosby Hwy,Newport,TN,00:00,24:00,678
37745,3755 E Andrew Johnson Hwy,Greeneville,TN,00:00,24:00,680
35976,11697 Us Highway 431,Guntersville,AL,00:00,24:00,681
37129,2000 Old Fort Pkwy,Murfreesboro,TN,00:00,24:00,682
38464,2130 N Locust Ave,Lawrenceburg,TN,00:00,24:00,683
38351,547 W Church St,Lexington,TN,00:00,24:00,684
37813,475 Crockett Trace Dr,Morristown,TN,00:00,24:00,685
31750,120 Benjamin H Hill Dr W,Fitzgerald,GA,00:00,24:00,686
38555,168 Obed Plz Ste 108,Crossville,TN,00:00,24:00,687
37211,5824 Nolensville Pike,Nashville,TN,06:00,01:00,688
42501,177 Washington Dr,Somerset,KY,00:00,24:00,689
37643,1001 Over Mountain Dr,Elizabethton,TN,00:00,24:00,690
35968,2001 Glenn Blvd Sw,Fort Payne,AL,00:00,24:00,691
40422,100 Walton Ave,Danville,KY,00:00,24:00,692
41339,1589 Kentucky / Hwy,Jackson,KY,06:00,24:00,693
42420,1195 Barrett Blvd,Henderson,KY,00:00,24:00,694
37115,2232 Gallatin Pike,Madison,TN,06:00,01:00,695
41653,477 Village Dr,Prestonsburg,KY,06:00,24:00,696
34471,2600 Sw 19th Avenue Rd,Ocala,FL,00:00,24:00,697
37312,4495 Keith St Nw,Cleveland,TN,00:00,24:00,698
38655,2530 Jackson Ave W,Oxford,MS,00:00,24:00,699
36703,1501 Al Highway 14 E,Selma,AL,06:00,24:00,700
42301,5031 Frederica St,Owensboro,KY,00:00,24:00,701
40391,1859 Bypass Rd,Winchester,KY,00:00,24:00,702
77375,27650 State Highway 249,Tomball,TX,00:00,24:00,703
32757,17030 Us Highway 441,Mount Dora,FL,00:00,24:00,705
33541,7631 Gall Blvd,Zephyrhills,FL,00:00,24:00,706
38614,1000 S State St,Clarksdale,MS,06:00,23:00,707
39180,2150 Iowa Blvd,Vicksburg,MS,00:00,24:00,708
42701,100 Walmart Dr,Elizabethtown,KY,00:00,24:00,709
37076,4424 Lebanon Pike,Hermitage,TN,00:00,24:00,710
42141,2345 Happy Valley Rd,Glasgow,KY,00:00,24:00,711
35768,24833 John T Reid Pkwy,Scottsboro,AL,00:00,24:00,712
33525,12650 Us Highway 301,Dade City,FL,07:00,22:00,713
72390,602 Shelia Street,Helena-west Helena,AR,00:00,24:00,714
35405,1501 Skyland Blvd E,Tuscaloosa,AL,00:00,24:00,715
38930,2202 Highway 82 W,Greenwood,MS,06:00,24:00,716
33823,2120 Us Highway 92 W,Auburndale,FL,00:00,24:00,718
40475,820 Eastern Byp,Richmond,KY,00:00,24:00,719
40601,301 Leonardwood Rd,Frankfort,KY,00:00,24:00,720
33948,19100 Murdock Cir,Port Charlotte,FL,00:00,24:00,721
30117,1735 S Highway 27,Carrollton,GA,00:00,24:00,722
36081,1420 Highway 231 S,Troy,AL,00:00,24:00,723
37760,630 E Broadway Blvd,Jefferson City,TN,00:00,24:00,724
33844,36205 Us Highway 27,Haines City,FL,00:00,24:00,725
35010,2643 Highway 280,Alexander City,AL,00:00,24:00,726
30125,1585 Rome Hwy,Cedartown,GA,06:00,24:00,727
29926,25 Pembroke Dr,Hilton Head Island,SC,00:00,24:00,728
40004,3795 E John Rowan Blvd,Bardstown,KY,00:00,24:00,729
35150,41301 Us Highway 280,Sylacauga,AL,00:00,24:00,730
36732,969 Us Highway 80 W,Demopolis,AL,06:00,01:00,731
36854,3501 20th Ave,Valley,AL,00:00,24:00,733
36330,600 Boll Weevil Cir,Enterprise,AL,00:00,24:00,734
37398,2675 Decherd Blvd,Winchester,TN,00:00,24:00,735
42276,120 Sam Walton Dr,Russellville,KY,06:00,01:00,736
37091,1334 No. Ellington P,Lewisburg,TN,00:00,24:00,737
38320,2200 Highway 641 N,Camden,TN,06:00,01:00,738
40965,Us Hwy 441 Hwy 25e,Middlesboro,KY,00:00,24:00,739
36360,1537 S Us Highway 231,Ozark,AL,00:00,24:00,740
37771,911 Highway 321 N,Lenoir City,TN,00:00,24:00,741
37660,2500 W Stone Dr,Kingsport,TN,00:00,24:00,742
73149,100 East I-240 Service Rd,Oklahoma City,OK,06:00,24:00,743
77346,6626 Fm 1960 Rd E,Humble,TX,00:00,24:00,744
30281,5600 N Henry Blvd,Stockbridge,GA,00:00,24:00,745
76502,3401 S 31st St,Temple,TX,00:00,24:00,746
62206,1511 Camp Jackson Rd,Cahokia,IL,07:00,24:00,747
50208,300 Iowa Speedway Dr,Newton,IA,06:00,01:00,748
50010,3105 Grand Ave,Ames,IA,06:00,01:00,749
50644,302 Enterprise Dr,Independence,IA,06:00,01:00,750
50219,1650 Washington St,Pella,IA,06:00,01:00,751
77505,5200 Fairmont Pkwy,Pasadena,TX,00:00,24:00,752
50613,525 Brandilynn Blvd,Cedar Falls,IA,00:00,24:00,753
30458,147 Northside Dr E,Statesboro,GA,00:00,24:00,754
79119,4610 S Coulter St,Amarillo,TX,00:00,24:00,755
30753,13427 Highway 27,Trion,GA,06:00,24:00,756
78064,2151 W Oaklawn Rd,Pleasanton,TX,00:00,24:00,757
31709,1711 E Lamar St,Americus,GA,00:00,24:00,758
33873,1480 Us Highway 17 N,Wauchula,FL,06:00,01:00,759
40143,1002 Old Us 60 E,Hardinsburg,KY,06:00,24:00,760
70394,4858 Highway 1,Raceland,LA,06:00,23:00,761
35206,9248 Parkway E,Birmingham,AL,06:00,24:00,762
35022,750 Academy Dr,Bessemer,AL,06:00,24:00,764
78247,16503 Nacogdoches Rd,San Antonio,TX,00:00,24:00,765
35630,3100 Hough Rd,Florence,AL,00:00,24:00,766
32055,2767 W Us Highway 90,Lake City,FL,00:00,24:00,767
77449,1313 N Fry Rd,Katy,TX,00:00,24:00,768
34293,4150 Tamiami Trl S,Venice,FL,00:00,24:00,769
67530,3503 10th St,Great Bend,KS,00:00,24:00,770
32952,1500 E Merritt Island Cswy,Merritt Island,FL,00:00,24:00,771
77082,3506 Highway 6 S,Houston,TX,00:00,24:00,772
70535,1538 Highway 190,Eunice,LA,00:00,24:00,773
68601,818 E 23rd St,Columbus,NE,00:00,24:00,774
61401,659 Knox Square Dr,Galesburg,IL,00:00,24:00,775
68025,3010 E 23rd St,Fremont,NE,00:00,24:00,776
77630,3115 Edgar Brown Dr,West Orange,TX,06:00,24:00,777
33950,5001 Taylor Rd,Punta Gorda,FL,00:00,24:00,778
33803,3501 S Florida Ave,Lakeland,FL,00:00,24:00,779
30655,2050 W Spring St,Monroe,GA,00:00,24:00,780
78654,2700 Us Highway 281,Marble Falls,TX,00:00,24:00,781
78801,3100 E Main St,Uvalde,TX,00:00,24:00,782
63552,705 E Briggs Dr,Macon,MO,07:00,22:00,783
52641,1045 N Grand Ave,Mount Pleasant,IA,00:00,24:00,784
39367,1350 Azalea Dr,Waynesboro,MS,06:00,23:00,785
60115,2300 Sycamore Rd,Dekalb,IL,00:00,24:00,786
30274,7050 Highway 85,Riverdale,GA,06:00,24:00,787
72031,1966 Highway 65 S,Clinton,AR,06:00,01:00,788
75149,200 Us Highway 80 E,Mesquite,TX,00:00,24:00,789
69001,1902 W B St,Mccook,NE,00:00,24:00,790
78332,2701 E Main St,Alice,TX,06:00,24:00,791
61231,1500 Se 5th St,Aledo,IL,06:00,24:00,792
79015,1701 N 23rd St,Canyon,TX,00:00,24:00,793
67501,1905 E 17th Ave,Hutchinson,KS,00:00,24:00,794
29812,11391 Dunbarton Blvd,Barnwell,SC,07:00,23:00,795
61354,5307 Rt. 251,Peru,IL,00:00,24:00,796
52655,324 W Agency Rd,West Burlington,IA,00:00,24:00,797
62441,108 Kyden Dr.,Marshall,IL,06:00,24:00,798
67901,250 E Tucker Rd,Liberal,KS,00:00,24:00,799
34748,2501 Citrus Blvd,Leesburg,FL,00:00,24:00,800
64468,1605 S Main St,Maryville,MO,00:00,24:00,801
53566,300 6th Ave West,Monroe,WI,00:00,24:00,802
70427,401 Ontario Ave,Bogalusa,LA,06:00,23:00,803
76067,601 No. Fm 1821,Mineral Wells,TX,00:00,24:00,804
63026,653 Gravois Bluffs Blvd,Fenton,MO,00:00,24:00,805
88001,571 Walton Blvd,Las Cruces,NM,00:00,24:00,806
76180,6401 Ne Loop 820,North Richland Hills,TX,00:00,24:00,807
77566,121 Highway 332 W,Lake Jackson,TX,00:00,24:00,808
36203,92 Plaza Ln,Oxford,AL,00:00,24:00,809
50401,4151 4th St Sw,Mason City,IA,00:00,24:00,810
34266,2725 Se Highway 70,Arcadia,FL,00:00,24:00,811
79029,2003 S Dumas Ave,Dumas,TX,00:00,24:00,812
76801,401 W Commerce St,Brownwood,TX,00:00,24:00,813
34974,2101 S Parrott Ave,Okeechobee,FL,00:00,24:00,814
65065,4252 Highway 54,Osage Beach,MO,00:00,24:00,815
39601,960 Brookway Blvd,Brookhaven,MS,00:00,24:00,816
34746,4444 W Vine St,Kissimmee,FL,00:00,24:00,817
32407,10270 Front Beach Rd,Panama City Beach,FL,00:00,24:00,818
33990,1619 Del Prado Blvd S,Cape Coral,FL,00:00,24:00,819
65233,2150 Main St,Boonville,MO,06:00,23:00,820
88101,3728 N Prince St,Clovis,NM,06:00,24:00,821
79103,3700 E Interstate 40,Amarillo,TX,06:00,24:00,822
74601,1101 E Prospect Ave,Ponca City,OK,00:00,24:00,823
87111,8000 Academy Rd Ne,Albuquerque,NM,06:00,24:00,824
40484,1283 Us Highway 27 N,Stanford,KY,06:00,01:00,825
87402,4600 E Main St,Farmington,NM,06:00,24:00,826
75103,603 E Highway 243,Canton,TX,00:00,24:00,827
46168,2373 E Main St,Plainfield,IN,00:00,24:00,828
87507,3251 Cerrillos Rd,Santa Fe,NM,06:00,24:00,829
61071,1901 1st Ave,Rock Falls,IL,06:00,24:00,830
87108,301 San Mateo Blvd Se,Albuquerque,NM,06:00,24:00,831
62821,1344 Illinois Hwy #1,Carmi,IL,06:00,01:00,833
64424,810 S 37th St,Bethany,MO,06:00,24:00,834
87123,400 Eubank Blvd Ne,Albuquerque,NM,06:00,24:00,835
31558,6586 Ga Highway 40 E,Saint Marys,GA,00:00,24:00,836
65791,333 E Walnut St,Thayer,MO,06:00,22:00,837
74063,220 S Highway 97,Sand Springs,OK,00:00,24:00,838
70815,9350 Cortana Pl,Baton Rouge,LA,06:00,24:00,839
31093,515 N Houston Rd,Warner Robins,GA,06:00,24:00,840
52772,1126 Highway 38 North,Tipton,IA,07:00,21:00,841
81008,4200 Dillon Dr,Pueblo,CO,06:00,24:00,842
31730,165 Us Highway 19 S,Camilla,GA,06:00,24:00,843
60450,333 E Us Route 6,Morris,IL,00:00,24:00,844
65622,1250 W Dallas St,Buffalo,MO,07:00,21:00,845
78945,1915 W. State Hwy. 71,La Grange,TX,06:00,01:00,846
53533,601 E Leffler St,Dodgeville,WI,06:00,01:00,847
38671,6811 Southcrest Pkwy,Southaven,MS,06:00,01:00,848
77373,155 Louetta Xing,Spring,TX,00:00,24:00,849
87110,2701 Carlisle Blvd Ne,Albuquerque,NM,06:00,24:00,850
88346,26180 Us Highway 70,Ruidoso Downs,NM,00:00,24:00,851
61350,4041 Veterans Dr,Ottawa,IL,00:00,24:00,852
36695,685 Schillinger Rd S,Mobile,AL,00:00,24:00,853
46041,2460 E Wabash St,Frankfort,IN,00:00,24:00,854
30291,4735 Jonesboro Rd,Union City,GA,06:00,01:00,855
30110,404 Hwy 27 No. Bypas,Bremen,GA,00:00,24:00,856
32773,3653 S Orlando Dr,Sanford,FL,00:00,24:00,857
39828,361 8th Ave Ne,Cairo,GA,06:00,01:00,858
33898,2000 State Road 60 E,Lake Wales,FL,00:00,24:00,859
32720,1699 N Woodland Blvd,Deland,FL,00:00,24:00,860
79423,4215 S Loop 289,Lubbock,TX,00:00,24:00,861
31313,751 W Oglethorpe Hwy,Hinesville,GA,00:00,24:00,862
36274,4180 Us Hwy 431,Roanoke,AL,06:00,24:00,863
30474,3109 E 1st St,Vidalia,GA,00:00,24:00,864
78130,1209 S Interstate 35,New Braunfels,TX,00:00,24:00,865
36619,5245 Rangeline Service Rd S,Mobile,AL,06:00,24:00,866
69361,3322 Avenue I,Scottsbluff,NE,00:00,24:00,867
88220,2401 S Canal St,Carlsbad,NM,00:00,24:00,868
81101,3333 Clark St,Alamosa,CO,00:00,24:00,869
47546,4040 N Newton St,Jasper,IN,00:00,24:00,870
65548,101 W Us Highway 60,Mountain View,MO,06:00,22:00,871
77581,1919 N Main St,Pearland,TX,00:00,24:00,872
87571,926 Paseo Del Pueblo Sur,Taos,NM,06:00,24:00,873
39120,314 Sgt. S. Prentiss,Natchez,MS,00:00,24:00,874
39157,815 S Wheatley St,Ridgeland,MS,00:00,24:00,875
71449,25800 Highway 171,Many,LA,06:00,23:00,876
28110,2406 W Roosevelt Blvd,Monroe,NC,00:00,24:00,877
30041,1500 Market Place Blvd,Cumming,GA,00:00,24:00,878
37083,419 Highway 52 Byp W,Lafayette,TN,06:00,01:00,879
75062,4100 W Airport Fwy,Irving,TX,06:00,24:00,880
29072,5556 Sunset Blvd,Lexington,SC,00:00,24:00,881
53821,38020 Us Highway 18,Prairie Du Chien,WI,00:00,24:00,882
46176,2500 Progress Pkwy,Shelbyville,IN,00:00,24:00,884
68434,1326 280th,Seward,NE,00:00,24:00,885
50501,3036 1st Ave S,Fort Dodge,IA,00:00,24:00,886
39465,36 Byrd Blvd,Petal,MS,00:00,24:00,887
64730,400 S Fran,Butler,MO,06:00,24:00,888
31757,15328 Us Highway 19 S,Thomasville,GA,00:00,24:00,889
32817,11250 E Colonial Dr,Orlando,FL,00:00,24:00,890
61081,4115 E Lincolnway,Sterling,IL,00:00,24:00,891
50021,1002 Se National Dr,Ankeny,IA,00:00,24:00,892
73052,401 Linwood Plz,Lindsay,OK,07:00,21:00,893
74133,6625 S Memorial Dr,Tulsa,OK,06:00,24:00,894
65453,100 Ozark Dr,Cuba,MO,07:00,21:00,895
75052,2225 W Interstate 20,Grand Prairie,TX,00:00,24:00,896
79735,2610 W Dickinson Blvd,Fort Stockton,TX,00:00,24:00,897
79772,1903 S Cedar St,Pecos,TX,06:00,24:00,898
31601,340 Norman Dr,Valdosta,GA,00:00,24:00,899
79201,2801 Avenue F Nw,Childress,TX,06:00,24:00,900
78155,550 South 123 Bypass,Seguin,TX,00:00,24:00,901
46135,1750 Indianapolis Rd,Greencastle,IN,00:00,24:00,902
39204,2711 Greenway Dr,Jackson,MS,00:00,24:00,903
36535,2200 S Mckenzie St,Foley,AL,00:00,24:00,904
80504,2285 East Ken Pratt Blvd,Longmont,CO,00:00,24:00,905
87301,1650 W Maloney Ave,Gallup,NM,00:00,24:00,906
31029,180 N Lee St,Forsyth,GA,06:00,01:00,907
32819,8101 S John Young Pkwy,Orlando,FL,00:00,24:00,908
70043,8101 W Judge Perez Dr,Chalmette,LA,06:00,22:00,909
53147,201 S Edwards Blvd,Lake Geneva,WI,00:00,24:00,910
70072,4810 Lapalco Blvd,Marrero,LA,06:00,23:00,911
70128,6000 Bullard Ave,New Orleans,LA,06:00,22:00,912
52101,1798 Old Stage Rd,Decorah,IA,00:00,24:00,913
65625,1401 Old Exeter Road,Cassville,MO,06:00,01:00,914
77477,11210 W Airport Blvd,Stafford,TX,00:00,24:00,915
39402,6072 U S Highway 98,Hattiesburg,MS,00:00,24:00,916
76825,2207 S Bridge St,Brady,TX,06:00,01:00,917
75670,1701 E End Blvd N,Marshall,TX,00:00,24:00,918
32547,748 Beal Pkwy Nw,Fort Walton Beach,FL,00:00,24:00,919
31088,3009 Russell Parkway,Warner Robins,GA,06:00,24:00,920
81201,7865 W Us Highway 50,Salida,CO,06:00,24:00,921
47112,2363 Highway 135 Nw,Corydon,IN,00:00,24:00,922
46060,16865 Clover Rd,Noblesville,IN,00:00,24:00,923
80751,1510 W Main St,Sterling,CO,00:00,24:00,924
33584,11720 E Dr Martin Luther King Jr Blvd,Seffner,FL,00:00,24:00,925
79072,1501 N Interstate 27,Plainview,TX,00:00,24:00,927
32259,845 Durbin Pavilion Drive,St. Johns,FL,00:00,24:00,928
34952,10855 So. Us Hwy #1,Port St Lucie,FL,00:00,24:00,929
36116,3801 Eastern Blvd,Montgomery,AL,06:00,23:00,930
32966,5555 20th St,Vero Beach,FL,00:00,24:00,931
30223,1569 N Expressway,Griffin,GA,00:00,24:00,932
61068,311 E Route 38,Rochelle,IL,06:00,01:00,933
36526,27520 Us Highway 98,Daphne,AL,00:00,24:00,934
70726,904 S Range Ave,Denham Springs,LA,00:00,24:00,935
62401,1204 Avenue Of Mid America,Effingham,IL,00:00,24:00,936
30066,2795 Chastain Meadows Pkwy,Marietta,GA,00:00,24:00,937
36117,6495 Atlanta Hwy,Montgomery,AL,06:00,24:00,938
76710,4320 Franklin Ave,Waco,TX,00:00,24:00,939
76114,6770 Westworth Blvd,Westworth Village,TX,00:00,24:00,940
33596,2140 Bloomingdale Avenue,Valrico,FL,00:00,24:00,941
34761,10500 W Colonial Dr,Ocoee,FL,00:00,24:00,942
32707,1239 State Road 436 Ste 101,Casselberry,FL,00:00,24:00,943
32536,3351 S Ferdon Blvd,Crestview,FL,00:00,24:00,944
79416,702 W Loop 289,Lubbock,TX,00:00,24:00,945
75092,401 E Us Highway 82,Sherman,TX,00:00,24:00,947
28602,2525 Us Highway 70 Se,Hickory,NC,00:00,24:00,948
38133,8400 Highway 64,Bartlett,TN,00:00,24:00,950
77445,625 Highway 290 E,Hempstead,TX,07:00,22:00,951
31788,641 Veterans Pkwy S,Moultrie,GA,00:00,24:00,952
80537,1325 Denver Ave,Loveland,CO,00:00,24:00,953
39083,527 Lake St,Hazlehurst,MS,06:00,23:00,954
32703,1700 S Org Blsmtrail,Apopka,FL,00:00,24:00,955
32937,1001 E Eau Gallie Blvd,Melbourne,FL,06:00,01:00,956
61254,125 E Bestor Dr,Geneseo,IL,06:00,24:00,957
53818,1800 Progressive Pkwy,Platteville,WI,00:00,24:00,958
33513,2163 W C 48,Bushnell,FL,00:00,24:00,959
34432,11012 No. Williams St,Dunnellon,FL,00:00,24:00,960
70068,1616 W Airline Hwy,La Place,LA,06:00,24:00,961
81082,2921 Toupal Dr,Trinidad,CO,06:00,24:00,962
76086,1836 S Main St,Weatherford,TX,00:00,24:00,963
79907,9441 Alameda Ave,El Paso,TX,00:00,24:00,964
54660,222 W Mccoy Blvd,Tomah,WI,00:00,24:00,965
81321,1835 E Main St,Cortez,CO,00:00,24:00,966
34606,1485 Commercial Way,Spring Hill,FL,00:00,24:00,967
33880,355 Cypress Gardens Blvd,Winter Haven,FL,00:00,24:00,968
39503,9350 Highway 49,Gulfport,MS,00:00,24:00,969
39466,235 Frontage Rd,Picayune,MS,00:00,24:00,970
54665,1133 N Main St,Viroqua,WI,06:00,24:00,971
76135,6360 Lake Worth Blvd,Lake Worth,TX,00:00,24:00,972
34947,5100 Okeechobee Rd,Fort Pierce,FL,00:00,24:00,973
32904,845 Palm Bay Rd Ne,West Melbourne,FL,00:00,24:00,974
74701,3712 W Main St,Durant,OK,00:00,24:00,975
71295,3360 Front St,Winnsboro,LA,00:00,24:00,976
32034,1385 Amelia Plz,Fernandina Beach,FL,07:00,22:00,977
67005,2701 N Summit St,Arkansas City,KS,06:00,01:00,978
54656,1600 W Wisconsin St,Sparta,WI,06:00,24:00,979
80631,3103 S 23rd Ave,Greeley,CO,06:00,24:00,980
39301,1733 2nd St S,Meridian,MS,00:00,24:00,981
55060,1130 W Frontage Rd,Owatonna,MN,06:00,24:00,982
80104,133 Sam Walton Lane,Castle Rock,CO,05:00,24:00,984
52556,2701 W Burlington Ave,Fairfield,IA,06:00,01:00,985
80443,840 Summit Blvd.,Frisco,CO,06:00,24:00,986
33912,14821 Ben C Pratt/6 Mile Cypress Pkwy,Fort Myers,FL,00:00,24:00,987
33549,1575 Land O Lakes Blvd,Lutz,FL,00:00,24:00,988
70003,8912 Veterans Memorial Blvd,Metairie,LA,06:00,24:00,989
32571,4965 Highway 90,Milton,FL,00:00,24:00,990
36606,101 E I65 Service Rd S,Mobile,AL,00:00,24:00,991
74137,2019 E 81st St,Tulsa,OK,00:00,24:00,992
67460,205 S Centennial Dr,Mcpherson,KS,00:00,24:00,993
34655,8745 State Road 54,New Port Richey,FL,00:00,24:00,994
46131,2125 N Morton St,Franklin,IN,00:00,24:00,995
47460,823 W State Highway 46,Spencer,IN,07:00,24:00,996
75023,6040 Coit Road,Plano,TX,05:00,23:00,997
66205,4701 Mission Rd,Westwood,KS,06:00,24:00,998
78242,7239 Sw Loop 410,San Antonio,TX,06:00,24:00,999
78521,2721 Boca Chica Blvd,Brownsville,TX,00:00,24:00,1000
81005,4080 W Northern Ave,Pueblo,CO,06:00,24:00,1001
47441,2251 E State Highway 54,Linton,IN,00:00,24:00,1002
60545,6800 W Us Highway 34,Plano,IL,00:00,24:00,1003
34210,5315 Cortez Rd W,Bradenton,FL,00:00,24:00,1004
50677,2700 4th St Sw,Waverly,IA,06:00,01:00,1005
31015,1215 E 16th Ave,Cordele,GA,00:00,24:00,1006
53581,2401 Us Hwy 14 E,Richland Center,WI,00:00,24:00,1007
80538,250 W 65th St,Loveland,CO,00:00,24:00,1008
65738,1150 Us Highway 60 E,Republic,MO,00:00,24:00,1009
28379,720 E Us Highway 74,Rockingham,NC,00:00,24:00,1010
31326,434 S Columbia Ave,Rincon,GA,00:00,24:00,1011
53916,120 Frances Ln,Beaver Dam,WI,00:00,24:00,1012
47842,1795 E State Road 163,Clinton,IN,07:00,24:00,1013
64055,4000 S Bolger Rd,Independence,MO,00:00,24:00,1014
79912,7555 N Mesa St,El Paso,TX,00:00,24:00,1015
70301,410 N Canal Blvd,Thibodaux,LA,00:00,24:00,1016
29102,2010 Paxville Hwy,Manning,SC,06:00,23:00,1017
31023,1099 Indian Dr,Eastman,GA,00:00,24:00,1018
81212,3105 E Us Highway 50,Canon City,CO,00:00,24:00,1019
56007,1550 Blake Ave,Albert Lea,MN,00:00,24:00,1020
63383,500 Warren County Ctr,Warrenton,MO,00:00,24:00,1021
75704,3820 State Highway 64 W,Tyler,TX,00:00,24:00,1022
24333,1140 E Stuart Dr,Galax,VA,00:00,24:00,1023
30401,414 S Main St,Swainsboro,GA,06:00,24:00,1024
39648,1608 Veterans Blvd,Mccomb,MS,00:00,24:00,1025
47421,3200 John Williams Blvd,Bedford,IN,00:00,24:00,1026
28027,150 Concord Commons Pl Sw,Concord,NC,00:00,24:00,1027
61611,401 River Rd,East Peoria,IL,00:00,24:00,1028
34446,6885 S Suncoast Blvd,Homosassa,FL,06:00,01:00,1029
29720,805 Hwy 9 Bypass Wes,Lancaster,SC,00:00,24:00,1030
32444,2101 S Highway 77,Lynn Haven,FL,00:00,24:00,1032
47274,1600 E Tipton St,Seymour,IN,00:00,24:00,1033
28152,705 E Dixon Blvd,Shelby,NC,00:00,24:00,1034
29301,141 Dorman Centre Dr,Spartanburg,SC,06:00,24:00,1035
28043,197 Plaza Dr,Forest City,NC,00:00,24:00,1036
29483,1317 N Main St Ste A1,Summerville,SC,00:00,24:00,1037
56093,2103 State St N,Waseca,MN,06:00,24:00,1038
27030,2241 Rockford St,Mount Airy,NC,00:00,24:00,1039
77095,15955 Fm 529 Rd,Houston,TX,00:00,24:00,1040
78599,1310 N Texas Blvd,Weslaco,TX,00:00,24:00,1041
78602,488 Highway 71 W,Bastrop,TX,00:00,24:00,1042
73075,2008 W Grant Ave,Pauls Valley,OK,06:00,01:00,1043
75707,5050 Troup Hwy,Tyler,TX,00:00,24:00,1044
80026,745 Us Highway 287,Lafayette,CO,00:00,24:00,1045
78834,2214 N 1st St,Carrizo Springs,TX,06:00,23:00,1046
30260,6065 Jonesboro Rd,Morrow,GA,06:00,01:00,1047
40769,589 W Highway 92,Williamsburg,KY,00:00,24:00,1048
79336,407 E State Road 114,Levelland,TX,06:00,01:00,1051
35555,3186 Highway 171 N,Fayette,AL,06:00,01:00,1052
40031,1015 New Moody Ln,La Grange,KY,00:00,24:00,1053
66002,1920 Highway 73,Atchison,KS,06:00,01:00,1054
75040,5302 N Garland Ave,Garland,TX,00:00,24:00,1055
73065,3300 Tri City Dr,Newcastle,OK,00:00,24:00,1056
36078,2190 Gilmer Avenue,Tallassee,AL,06:00,23:00,1057
81401,16750 S Townsend Ave,Montrose,CO,00:00,24:00,1058
39074,1309 Highway 35 S,Forest,MS,06:00,24:00,1059
28655,G120 Morganton Heights Blvd,Morganton,NC,00:00,24:00,1060
31539,136 E Jarman St,Hazlehurst,GA,06:00,01:00,1061
77546,150 W El Dorado Blvd,Friendswood,TX,00:00,24:00,1062
36340,1608 W Magnolia Ave,Geneva,AL,07:00,22:00,1063
28645,935 Blowing Rock Blvd,Lenoir,NC,00:00,24:00,1064
71801,2400 N Hervey St,Hope,AR,00:00,24:00,1065
39581,4253 Denny Ave,Pascagoula,MS,00:00,24:00,1066
77964,1506 N Texana St,Hallettsville,TX,06:00,01:00,1067
32958,2001 Us Highway #1,Sebastian,FL,00:00,24:00,1068
39345,231 Eastside Dr,Newton,MS,06:00,23:00,1069
30540,88 Highland Xing,East Ellijay,GA,00:00,24:00,1070
62095,610 Wesley Dr,Wood River,IL,00:00,24:00,1071
31793,1830 Us Highway 82 W,Tifton,GA,00:00,24:00,1072
76550,1710 Central Texas Expy,Lampasas,TX,06:00,23:00,1073
38901,1655 Sunset Dr,Grenada,MS,00:00,24:00,1074
37042,1680 Fort Campbell Blvd,Clarksville,TN,00:00,24:00,1075
31211,1401 Gray Hwy,Macon,GA,00:00,24:00,1076
32311,3535 Apalachee Pkwy,Tallahassee,FL,00:00,24:00,1077
76821,2005 Hutchins Ave,Ballinger,TX,07:00,22:00,1078
32168,3155 State Rd 44,New Smyrna Beach,FL,00:00,24:00,1079
37604,3111 Browns Mill Rd,Johnson City,TN,00:00,24:00,1080
32608,2900 Sw 42nd St,Gainesville,FL,00:00,24:00,1081
32223,10991 San Jose Blvd Ste 1,Jacksonville,FL,00:00,24:00,1082
32205,6830 Normandy Blvd,Jacksonville,FL,06:00,24:00,1083
32822,3838 S Semoran Blvd,Orlando,FL,00:00,24:00,1084
34668,8701 Us Highway 19,Port Richey,FL,06:00,24:00,1085
34769,4400 13th St,Saint Cloud,FL,00:00,24:00,1086
34997,4001 Se Federal Hwy,Stuart,FL,00:00,24:00,1087
39531,2681 Ct Switzer Sr Dr,Biloxi,MS,00:00,24:00,1088
37347,525 Kimball Crossing Dr,Kimball,TN,00:00,24:00,1089
32210,6767 103rd St,Jacksonville,FL,06:00,24:00,1090
36420,1991 M. L. King Jr.,Andalusia,AL,00:00,24:00,1091
61866,845 Broadmeadow Rd,Rantoul,IL,06:00,01:00,1093
64138,10300 E Highway 350,Raytown,MO,00:00,24:00,1094
81601,3010 Blake Ave,Glenwood Springs,CO,06:00,24:00,1095
27028,261 Cooper Creek Dr,Mocksville,NC,00:00,24:00,1096
28315,250 Turner St,Aberdeen,NC,00:00,24:00,1097
77979,400 Tiney Browning Blvd,Port Lavaca,TX,00:00,24:00,1098
67211,501 E Pawnee St,Wichita,KS,06:00,24:00,1099
35570,1706 Military St S,Hamilton,AL,06:00,01:00,1100
36092,4538 Us Highway 231,Wetumpka,AL,00:00,24:00,1101
70714,14507 Plank Rd,Baker,LA,06:00,24:00,1102
77068,3450 Fm 1960 Rd W,Houston,TX,06:00,24:00,1103
34453,2461 E Gulf To Lake Hwy,Inverness,FL,00:00,24:00,1104
72117,4450 E Mccain Blvd,North Little Rock,AR,06:00,24:00,1105
71373,4283 Carter St,Vidalia,LA,06:00,24:00,1106
71463,1900 Highway 165 S,Oakdale,LA,06:00,24:00,1107
71263,705 S Constitution Ave,Oak Grove,LA,06:00,01:00,1108
71269,1806 Julia St,Rayville,LA,00:00,24:00,1109
71241,833 Sterlington Hwy,Farmerville,LA,06:00,23:00,1110
30643,1572 Anderson Hwy,Hartwell,GA,00:00,24:00,1111
30286,855 N Church St,Thomaston,GA,00:00,24:00,1112
40741,1851 Highway 192 W,London,KY,00:00,24:00,1113
72560,409 Sylamore Ave,Mountain View,AR,06:00,24:00,1114
38462,612 E Main St,Hohenwald,TN,06:00,01:00,1115
73533,3393 N 81 Hwy,Duncan,OK,00:00,24:00,1116
75023,6001 N Central Expy,Plano,TX,00:00,24:00,1117
75180,12300 Lake June Rd,Balch Springs,TX,00:00,24:00,1118
34112,3451 Tamiami Trl E,Naples,FL,06:00,01:00,1119
64119,7207 N M1 Hwy,Gladstone,MO,00:00,24:00,1120
31061,2592 N Columbia St,Milledgeville,GA,00:00,24:00,1121
30538,3886 Highway 17 S,Toccoa,GA,00:00,24:00,1122
29678,1636 Sandifer Blvd,Seneca,SC,00:00,24:00,1123
35640,1201 Highway 31 Nw,Hartselle,AL,06:00,01:00,1124
61761,300 Greenbriar Dr,Normal,IL,00:00,24:00,1125
78006,1381 S Main St,Boerne,TX,00:00,24:00,1126
28170,2004 Us Highway 74 W,Wadesboro,NC,06:00,23:00,1127
71350,7162 Highway 1,Marksville,LA,00:00,24:00,1128
78717,13201 Ranch Road 620 N,Austin,TX,00:00,24:00,1129
29360,922 E Main St,Laurens,SC,00:00,24:00,1130
28681,901 Nc Highway 16 S,Taylorsville,NC,06:00,01:00,1131
27203,1226 E Dixie Dr,Asheboro,NC,00:00,24:00,1132
28001,781 Leonard Ave,Albemarle,NC,00:00,24:00,1133
32435,1226 Freeport Hwy,De Funiak Springs,FL,00:00,24:00,1134
29550,1150 S 4th St,Hartsville,SC,00:00,24:00,1135
70767,3255 La Highway 1 S,Port Allen,LA,00:00,24:00,1136
77015,13750 East Fwy,Houston,TX,06:00,24:00,1137
53719,7202 Watts Rd,Madison,WI,06:00,23:00,1138
40351,200 Walmart Way,Morehead,KY,00:00,24:00,1139
40353,499 Indian Mound Dr,Mount Sterling,KY,00:00,24:00,1140
46140,1965 N State St,Greenfield,IN,00:00,24:00,1141
47170,1618 W Mcclain Ave,Scottsburg,IN,00:00,24:00,1142
31082,1308 S Harris St,Sandersville,GA,06:00,24:00,1143
29745,970 E Liberty St,York,SC,00:00,24:00,1144
29461,511 N Highway 52,Moncks Corner,SC,00:00,24:00,1146
72634,168 Walmart Drive,Flippin,AR,06:00,24:00,1147
76308,3130 Lawrence Rd,Wichita Falls,TX,00:00,24:00,1148
85546,755 S 20th Ave,Safford,AZ,00:00,24:00,1149
77845,1815 Brothers Blvd,College Station,TX,00:00,24:00,1150
66109,10824 Parallel Pkwy,Kansas City,KS,06:00,24:00,1151
51250,255 - 16th St Sw,Sioux Center,IA,06:00,01:00,1152
31206,6020 Harrison Rd,Macon,GA,06:00,24:00,1153
78624,1435 E Main St,Fredericksburg,TX,00:00,24:00,1154
28358,5070 Fayetteville Rd,Lumberton,NC,00:00,24:00,1155
28117,169 Norman Station Blvd,Mooresville,NC,00:00,24:00,1156
47265,2410 N State Hwy 3,North Vernon,IN,00:00,24:00,1157
35214,2473 Hackworth Rd,Adamsville,AL,06:00,24:00,1158
37825,432 S Broad St,New Tazewell,TN,06:00,01:00,1159
47001,100 Sycamore Estates Dr,Aurora,IN,00:00,24:00,1160
63303,2897 Veterans Memorial Pkwy,Saint Charles,MO,00:00,24:00,1161
47501,1801 S State Road 57,Washington,IN,00:00,24:00,1162
70114,4001 Behrman Pl,New Orleans,LA,06:00,23:00,1163
29212,360 Harbison Blvd,Columbia,SC,00:00,24:00,1164
40160,1165 Walmart Way,Radcliff,KY,00:00,24:00,1165
28337,1347 W Broad St,Elizabethtown,NC,06:00,24:00,1166
53144,3500 Brumback Blvd,Kenosha,WI,00:00,24:00,1167
39429,1001 Highway 98 Byp,Columbia,MS,06:00,01:00,1168
71075,1920 S Arkansas St,Springhill,LA,07:00,22:00,1169
40272,10445 Dixie Hwy,Louisville,KY,00:00,24:00,1170
34243,8320 Lockwood Ridge Rd,Sarasota,FL,00:00,24:00,1171
32224,13490 Beach Blvd,Jacksonville,FL,00:00,24:00,1172
32216,8808 Beach Blvd,Jacksonville,FL,06:00,24:00,1173
36784,34301 Highway 43,Thomasville,AL,06:00,23:00,1174
86001,2750 S Woodlands Village Blvd,Flagstaff,AZ,06:00,24:00,1175
53589,2600 State Highway 138,Stoughton,WI,06:00,01:00,1176
63011,201 Highlands Boulevard Dr,Manchester,MO,00:00,24:00,1177
76021,4101 Highway 121,Bedford,TX,00:00,24:00,1178
28704,60 Airport Rd,Arden,NC,00:00,24:00,1179
47240,790 Greensburg Commons Ctr,Greensburg,IN,00:00,24:00,1180
30060,1785 Cobb Pkwy S,Marietta,GA,06:00,24:00,1181
32164,174 Cypress Point Pkwy,Palm Coast,FL,00:00,24:00,1182
29169,2401 Augusta Rd,West Columbia,SC,06:00,24:00,1183
30087,1825 Rockbridge Rd,Stone Mountain,GA,00:00,24:00,1184
78753,1030 Norwood Park Blvd,Austin,TX,06:00,24:00,1185
77575,2121 Highway 146 Byp,Liberty,TX,00:00,24:00,1186
66749,2200 N State St,Iola,KS,00:00,24:00,1187
63044,11900 St Charles Rock Rd,Bridgeton,MO,06:00,24:00,1188
40906,301 Parkway Plz,Barbourville,KY,06:00,24:00,1189
40403,120 Jill Dr,Berea,KY,00:00,24:00,1190
27278,501 Hampton Pointe B,Hillsborough,NC,00:00,24:00,1191
39111,1625 Simpson Hwy #49,Magee,MS,00:00,24:00,1192
71201,2701 Louisville Ave,Monroe,LA,00:00,24:00,1193
37830,373 S Illinois Ave,Oak Ridge,TN,00:00,24:00,1194
39576,460 Highway 90,Waveland,MS,00:00,24:00,1195
70760,460 Hospital Rd,New Roads,LA,06:00,24:00,1196
27804,1511 Benvenue Rd,Rocky Mount,NC,00:00,24:00,1197
78232,1515 N Loop 1604 E,San Antonio,TX,00:00,24:00,1198
81620,171 Yoder Avenue,Avon,CO,06:00,24:00,1199
80909,3201 E Platte Ave,Colorado Springs,CO,05:00,24:00,1200
35071,890 Odum Rd,Gardendale,AL,00:00,24:00,1201
54494,4331 8th St S,Wisconsin Rapids,WI,00:00,24:00,1202
33598,4928 State Road 674,Wimauma,FL,00:00,24:00,1203
70605,3451 Nelson Rd,Lake Charles,LA,00:00,24:00,1204
32063,9218 S State Road 228,Macclenny,FL,00:00,24:00,1205
70808,3132 College Dr,Baton Rouge,LA,06:00,24:00,1206
32404,725 No. Tyndall Pkwy,Callaway,FL,06:00,01:00,1207
28092,306 N Generals Blvd,Lincolnton,NC,00:00,24:00,1209
40356,1024 N Main St,Nicholasville,KY,00:00,24:00,1210
60033,21101 Mcguire Rd,Harvard,IL,06:00,24:00,1211
36571,1095 Industrial Pkwy,Saraland,AL,00:00,24:00,1212
34613,13300 Cortez Blvd,Brooksville,FL,00:00,24:00,1213
67701,115 W Willow St,Colby,KS,06:00,24:00,1214
30701,450 W Belmont Dr,Calhoun,GA,00:00,24:00,1215
75006,1213 E Trinity Mills Rd,Carrollton,TX,00:00,24:00,1216
28734,273 Commons Drive,Franklin,NC,00:00,24:00,1217
85122,1741 E Florence Blvd,Casa Grande,AZ,00:00,24:00,1218
32218,12100 Lem Turner Rd,Jacksonville,FL,06:00,23:00,1219
32811,2500 S Kirkman Rd,Orlando,FL,00:00,24:00,1220
67209,6110 W Kellogg Dr,Wichita,KS,06:00,01:00,1221
32534,8970 Pensacola Blvd,Pensacola,FL,00:00,24:00,1222
32312,5500 Thomasville Rd,Tallahassee,FL,00:00,24:00,1223
32504,2650 Creighton Rd,Pensacola,FL,00:00,24:00,1224
32065,899 Blanding Blvd,Orange Park,FL,00:00,24:00,1225
37015,1626 Highway 12 S,Ashland City,TN,06:00,01:00,1226
30907,260 Bobby Jones Expy,Augusta,GA,00:00,24:00,1227
60073,2680 N Il Route 83,Round Lake Beach,IL,00:00,24:00,1228
35244,2780 John Hawkins Pkwy,Hoover,AL,00:00,24:00,1229
85901,5401 S White Mountain Rd,Show Low,AZ,00:00,24:00,1230
80229,9901 Grant St,Thornton,CO,06:00,24:00,1231
76513,2604 N Main St,Belton,TX,00:00,24:00,1232
41240,470 No. Mayo Trail,Paintsville,KY,00:00,24:00,1233
42633,175 Walmart Plaza Dr,Monticello,KY,00:00,24:00,1234
78229,5025 Nw Loop 410,San Antonio,TX,00:00,24:00,1235
27534,1002 N Spence Ave,Goldsboro,NC,00:00,24:00,1236
28339,590 E Jackson Blvd,Erwin,NC,00:00,24:00,1237
28303,1550 Skibo Rd,Fayetteville,NC,06:00,24:00,1238
43078,1840 E Us Highway 36,Urbana,OH,00:00,24:00,1239
85635,500 N Highway 90 Byp,Sierra Vista,AZ,00:00,24:00,1240
52807,5811 Elmore Ave,Davenport,IA,00:00,24:00,1241
28792,250 Highlands Square Dr,Hendersonville,NC,00:00,24:00,1242
24112,976 Commonwealth Blvd,Martinsville,VA,00:00,24:00,1243
29687,3027 Wade Hampton Blvd,Taylors,SC,00:00,24:00,1244
33809,5800 Us Highway 98 N,Lakeland,FL,00:00,24:00,1245
41701,120 Daniel Boone Plz,Hazard,KY,00:00,24:00,1247
38125,7525 Winchester Rd,Memphis,TN,00:00,24:00,1248
76903,610 W 29th St,San Angelo,TX,00:00,24:00,1249
80130,6675 Business Center Dr,Highlands Ranch,CO,05:00,24:00,1252
78704,710 E Ben White Blvd,Austin,TX,00:00,24:00,1253
76705,1521 Interstate 35 N,Bellmead,TX,00:00,24:00,1254
28352,901 Us Highway 401 S,Laurinburg,NC,06:00,24:00,1255
60435,2424 W Jefferson St,Joliet,IL,00:00,24:00,1256
79553,2614 N Swenson Street,Stamford,TX,06:00,01:00,1257
40701,60 S Stewart Rd,Corbin,KY,00:00,24:00,1259
39452,11228 Old 63 S,Lucedale,MS,00:00,24:00,1260
28311,4601 Ramsey St,Fayetteville,NC,00:00,24:00,1261
47715,401 N Burkhardt Rd,Evansville,IN,00:00,24:00,1263
43311,2281 Us Highway 68 S,Bellefontaine,OH,00:00,24:00,1264
63136,10741 West Florissant Ave,Saint Louis,MO,07:00,22:00,1265
70816,2171 Oneal Ln,Baton Rouge,LA,00:00,24:00,1266
53590,1905 Mccoy Rd,Sun Prairie,WI,00:00,24:00,1267
28472,200 Columbus Corners Dr,Whiteville,NC,00:00,24:00,1268
29841,1201 Knox Ave,North Augusta,SC,00:00,24:00,1270
39307,2400 Highway 19 N,Meridian,MS,06:00,24:00,1271
79549,5110 College Ave,Snyder,TX,06:00,01:00,1272
80817,6310 S Us Highway 85-87,Fountain,CO,06:00,24:00,1273
53190,1362 W Main St,Whitewater,WI,06:00,24:00,1274
46052,2440 N Lebanon St,Lebanon,IN,00:00,24:00,1275
53081,3711 S Taylor Dr,Sheboygan,WI,00:00,24:00,1276
54615,611 State Highway 54,Black River Falls,WI,06:00,24:00,1277
77037,10411 N Freeway 45,Houston,TX,06:00,24:00,1279
81501,2881 North Ave,Grand Junction,CO,00:00,24:00,1280
29307,2151 E Main St,Spartanburg,SC,06:00,24:00,1281
66901,140 E College Dr,Concordia,KS,06:00,01:00,1282
32091,14500 Us Highway 301 S,Starke,FL,00:00,24:00,1283
36867,3700 Hwy 280/431 N.,Phenix City,AL,00:00,24:00,1284
52501,1940 Venture Dr,Ottumwa,IA,00:00,24:00,1285
29209,7520 Garners Ferry Rd,Columbia,SC,06:00,23:00,1286
27215,3141 Garden Rd,Burlington,NC,00:00,24:00,1287
27573,1049 Durham Rd Ste A,Roxboro,NC,06:00,24:00,1288
45177,2825 Progress Way,Wilmington,OH,06:00,01:00,1289
28697,1801 Us Highway 421,Wilkesboro,NC,00:00,24:00,1290
85710,7150 E Speedway Blvd,Tucson,AZ,00:00,24:00,1291
24073,2400 N Franklin St,Christiansburg,VA,00:00,24:00,1292
30906,3209 Deans Bridge Rd,Augusta,GA,06:00,24:00,1293
46953,3240 Southwestern,Marion,IN,00:00,24:00,1294
73446,1100 S 1st St,Madill,OK,06:00,01:00,1295
78586,1126 W Us Highway 77,San Benito,TX,00:00,24:00,1296
32626,2201 N Young Blvd,Chiefland,FL,00:00,24:00,1297
28546,2025 N Marine Blvd,Jacksonville,NC,00:00,24:00,1298
86326,2003 E Rodeo Dr,Cottonwood,AZ,00:00,24:00,1299
28562,3105 Dr M L King Jr Blvd,New Bern,NC,00:00,24:00,1300
24014,5350 Clearbrook Village Ln,Roanoke,VA,00:00,24:00,1301
24273,780 Commonwealth Dr,Norton,VA,00:00,24:00,1302
78628,620 S Interstate 35,Georgetown,TX,00:00,24:00,1303
46582,2501 Walton Blvd,Warsaw,IN,00:00,24:00,1304
53546,3800 Deerfield Dr,Janesville,WI,00:00,24:00,1305
88310,233 S New York Ave,Alamogordo,NM,00:00,24:00,1306
60914,2080 No. St. Route 50,Bradley,IL,00:00,24:00,1307
80123,7700 W Quincy Ave,Littleton,CO,06:00,24:00,1308
24153,1851 W Main St,Salem,VA,00:00,24:00,1309
47802,5555 S Us Hwy #41,Terre Haute,IN,00:00,24:00,1310
31909,5448 Whittlesey Blvd Ste B,Columbus,GA,00:00,24:00,1311
28390,670 Lillington Hwy,Spring Lake,NC,00:00,24:00,1312
78214,1200 Se Military Dr,San Antonio,TX,06:00,24:00,1313
30519,3795 Buford Dr,Buford,GA,00:00,24:00,1314
82009,2032 Dell Range Blvd,Cheyenne,WY,00:00,24:00,1315
54235,1536 Egg Harbor Rd,Sturgeon Bay,WI,06:00,24:00,1316
28805,125 Bleachery Blvd,Asheville,NC,06:00,24:00,1317
37912,6777 Clinton Hwy,Knoxville,TN,00:00,24:00,1318
37938,7550 Norris Fwy,Knoxville,TN,00:00,24:00,1319
37920,7420 Chapman Hwy,Knoxville,TN,00:00,24:00,1320
27577,1299 N Brightleaf Blvd,Smithfield,NC,00:00,24:00,1321
27292,160 Lowes Blvd,Lexington,NC,00:00,24:00,1322
61604,3315 N University St,Peoria,IL,07:00,22:00,1323
85621,100 W White Park Dr,Nogales,AZ,00:00,24:00,1324
85705,455 E Wetmore Rd,Tucson,AZ,06:00,24:00,1325
68803,2250 N Diers Ave,Grand Island,NE,00:00,24:00,1326
47250,567 Ivy Tech Dr,Madison,IN,00:00,24:00,1327
86047,700 Mikes Pike St,Winslow,AZ,07:00,23:00,1328
46947,240 Mall Rd,Logansport,IN,00:00,24:00,1329
45805,2450 Allentown Rd,Lima,OH,00:00,24:00,1330
45365,2400 Michigan St,Sidney,OH,00:00,24:00,1331
68776,1601 Cornhusker Dr,South Sioux City,NE,00:00,24:00,1332
45891,301 Town Center Blvd,Van Wert,OH,00:00,24:00,1333
85532,100 South Ragus Rd,Claypool,AZ,00:00,24:00,1334
24450,1233 N Lee Hwy,Lexington,VA,00:00,24:00,1335
24354,1193 N Main St,Marion,VA,06:00,24:00,1336
28621,548 Cc Camp Rd,Elkin,NC,00:00,24:00,1337
31903,3515 Victory Drive,Columbus,GA,05:00,24:00,1338
29223,10060 Two Notch Rd,Columbia,SC,00:00,24:00,1339
30038,5401 Fairington Rd,Lithonia,GA,06:00,24:00,1340
47712,335 S Red Bank Rd,Evansville,IN,00:00,24:00,1341
70065,300 W Esplanade Ave,Kenner,LA,00:00,24:00,1342
24401,1028 Richmond Avenue C.,Staunton,VA,00:00,24:00,1344
24592,3471 Old Halifax Rd,South Boston,VA,00:00,24:00,1345
39564,3911 Bienville Blvd,Ocean Springs,MS,00:00,24:00,1346
78209,1430 Austin Hwy,San Antonio,TX,00:00,24:00,1347
28412,5135 Carolina Beach Rd,Wilmington,NC,00:00,24:00,1348
33351,3306 North University Drive,Sunrise,FL,00:00,24:00,1349
24502,3900 Wards Rd,Lynchburg,VA,00:00,24:00,1350
25801,1330 No. Eisenhower Dr,Beckley,WV,06:00,24:00,1351
28466,5625 S Nc 41 Hwy,Wallace,NC,06:00,24:00,1352
70123,5110 Jefferson Hwy,Harahan,LA,06:00,23:00,1353
27889,570 Pamlico Plz,Washington,NC,00:00,24:00,1354
28557,300 Nc Highway 24,Morehead City,NC,00:00,24:00,1355
46151,410 Grand Valley Blvd,Martinsville,IN,00:00,24:00,1356
88061,2501 Highway 180 E,Silver City,NM,00:00,24:00,1357
29488,2110 Bells Hwy,Walterboro,SC,00:00,24:00,1358
29406,7400 Rivers Ave,North Charleston,SC,00:00,24:00,1359
25840,204 Town Center Rd,Fayetteville,WV,00:00,24:00,1360
51106,3400 Singing Hills Blvd,Sioux City,IA,00:00,24:00,1361
32541,15017 Emerald Coast Pkwy,Destin,FL,00:00,24:00,1362
30650,1681 Eatonton Rd,Madison,GA,06:00,24:00,1363
86404,5695 Highway 95 N,Lake Havasu City,AZ,06:00,23:00,1364
54016,2222 Crest View Dr,Hudson,WI,06:00,01:00,1365
54452,505 S. Pine Ridge Avenue,Merrill,WI,06:00,01:00,1366
31093,2720 Watson Blvd,Warner Robins,GA,00:00,24:00,1367
45693,11217 State Route 41,West Union,OH,06:00,01:00,1368
85541,300 N Beeline Hwy,Payson,AZ,00:00,24:00,1369
86442,2840 Highway 95,Bullhead City,AZ,00:00,24:00,1370
47201,735 Whitfield Dr,Columbus,IN,00:00,24:00,1371
27603,4500 Fayetteville Rd,Raleigh,NC,00:00,24:00,1372
30047,4004 Lawrenceville Hwy Nw,Lilburn,GA,00:00,24:00,1373
32714,200 S State Road 434,Altamonte Springs,FL,00:00,24:00,1374
32448,2255 Highway 71,Marianna,FL,06:00,24:00,1375
37075,204 No. Anderson Lane,Hendersonville,TN,00:00,24:00,1376
60050,3801 Running Brook Farms Blvd,Johnsburg,IL,00:00,24:00,1377
46526,2304 Lincolnway E,Goshen,IN,00:00,24:00,1378
27834,210 Greenville Blvd Sw,Greenville,NC,06:00,24:00,1379
87701,2609 7th St,Las Vegas,NM,06:00,24:00,1380
85120,2555 W Apache Trl,Apache Junction,AZ,00:00,24:00,1381
29649,508 Nw Bypass 72,Greenwood,SC,00:00,24:00,1382
29906,350 Robert Smalls Pkwy,Beaufort,SC,00:00,24:00,1383
81050,6 Conley Rd,La Junta,CO,00:00,24:00,1384
28056,3000 E Franklin Blvd,Gastonia,NC,00:00,24:00,1385
61764,1706 W Reynolds St,Pontiac,IL,00:00,24:00,1386
33067,3801 Turtle Creek Dr,Coral Springs,FL,00:00,24:00,1387
46755,2501 E North St,Kendallville,IN,00:00,24:00,1388
50036,1515 S.e. Marshall St,Boone,IA,06:00,01:00,1389
33781,8001 Us Highway 19 N,Pinellas Park,FL,00:00,24:00,1390
32119,1101 Beville Rd,Daytona Beach,FL,00:00,24:00,1391
28403,5226 Sigmon Rd,Wilmington,NC,00:00,24:00,1392
52577,2203 Avenue A West,Oskaloosa,IA,06:00,01:00,1393
53228,10600 W Layton Ave,Greenfield,WI,00:00,24:00,1394
62801,1212 W Mccord St,Centralia,IL,00:00,24:00,1395
53913,920 State Road 136,Baraboo,WI,00:00,24:00,1396
87114,10224 Coors Byp Nw,Albuquerque,NM,00:00,24:00,1397
33463,4545 Hypoluxo Rd,Lake Worth,FL,00:00,24:00,1398
24523,1126 E Lynchburg Salem Tpke,Bedford,VA,00:00,24:00,1399
30606,1911 Epps Bridge Pkwy,Athens,GA,00:00,24:00,1400
60564,2552 W. 75th St,Naperville,IL,00:00,24:00,1401
30531,250 Furniture Dr,Cornelia,GA,00:00,24:00,1403
60047,820 S Rand Rd,Lake Zurich,IL,00:00,24:00,1404
77414,4600 7th St,Bay City,TX,00:00,24:00,1405
22601,2350 S Pleasant Valley Rd,Winchester,VA,00:00,24:00,1406
45036,1530 Walmart Dr,Lebanon,OH,06:00,01:00,1407
32304,4400 W Tennessee St,Tallahassee,FL,00:00,24:00,1408
77043,10750 Westview Dr,Houston,TX,00:00,24:00,1409
45373,1801 W Main St,Troy,OH,00:00,24:00,1410
85614,18680 S Nogales Hwy,Sahuarita,AZ,00:00,24:00,1411
82070,4308 E Grand Ave,Laramie,WY,00:00,24:00,1412
60014,1205 S Il Route 31,Crystal Lake,IL,00:00,24:00,1413
87002,1 I 25 Bypass,Belen,NM,00:00,24:00,1414
51360,2200 17th St.,Spirit Lake,IA,06:00,01:00,1415
43545,1815 Scott St,Napoleon,OH,06:00,01:00,1416
86301,3050 E State Route 69,Prescott,AZ,00:00,24:00,1417
62269,1530 West Hwy 50,O Fallon,IL,00:00,24:00,1418
46825,5311 Coldwater Rd,Fort Wayne,IN,00:00,24:00,1419
60107,850 S Barrington Rd,Streamwood,IL,00:00,24:00,1420
61571,1980 Freedom Pkwy,Washington,IL,00:00,24:00,1421
48801,7700 N Alger Rd,Alma,MI,00:00,24:00,1422
48879,1165 Superior Dr,Saint Johns,MI,06:00,24:00,1423
23834,671 Southpark Blvd,Colonial Heights,VA,00:00,24:00,1424
46725,402 W Plaza Dr,Columbia City,IN,00:00,24:00,1425
41101,351 River Hill Dr,Ashland,KY,00:00,24:00,1426
43113,1470 S Court St,Circleville,OH,00:00,24:00,1427
48858,4730 Encore Blvd,Mount Pleasant,MI,00:00,24:00,1428
43420,2052 N State Route 53,Fremont,OH,00:00,24:00,1429
54904,351 S Washburn St,Oshkosh,WI,00:00,24:00,1430
52632,300 No. Park Drive,Keokuk,IA,00:00,24:00,1431
49601,8917 E 34 Rd,Cadillac,MI,00:00,24:00,1432
45822,1950 Havemann Rd,Celina,OH,00:00,24:00,1433
80905,707 S 8th St,Colorado Springs,CO,05:00,24:00,1434
50801,806 Laurel St,Creston,IA,06:00,01:00,1435
33415,6294 Forest Hill Blvd,Greenacres,FL,06:00,24:00,1436
73942,2600 N Highway 64,Guymon,OK,00:00,24:00,1437
84720,1330 S Providence Center Dr,Cedar City,UT,00:00,24:00,1438
84780,625 W Telegraph St,Washington,UT,00:00,24:00,1439
84074,99 W 1280 N,Tooele,UT,00:00,24:00,1440
45040,5303 Bowen Drive,Mason,OH,00:00,24:00,1441
86040,1017 West Haul Road,Page,AZ,06:00,24:00,1442
45245,4370 Eastgate Square Dr,Cincinnati,OH,00:00,24:00,1443
32225,9890 Hutchinson Park Dr,Jacksonville,FL,06:00,24:00,1444
43452,2826 East Harbor Rd,Port Clinton,OH,07:00,22:00,1445
54868,2501 West Ave,Rice Lake,WI,00:00,24:00,1446
54880,3705 Tower Ave,Superior,WI,00:00,24:00,1447
44805,1996 E Main St,Ashland,OH,00:00,24:00,1448
54220,4115 Calumet Ave,Manitowoc,WI,00:00,24:00,1449
25271,200 Academy Dr,Ripley,WV,00:00,24:00,1450
62618,100 Lincoln Ave,Beardstown,IL,06:00,24:00,1451
28226,3209 Pineville Matthews Rd,Charlotte,NC,06:00,01:00,1452
54303,2440 W Mason St,Green Bay,WI,00:00,24:00,1453
62305,5211 Broadway St,Quincy,IL,00:00,24:00,1454
76120,8401 Anderson Blvd,Fort Worth,TX,06:00,24:00,1455
82930,125 N 2nd St,Evanston,WY,00:00,24:00,1456
82501,1733 N Federal Blvd,Riverton,WY,06:00,24:00,1457
30742,3040 Battlefield Pkwy,Fort Oglethorpe,GA,00:00,24:00,1458
46227,7245 Us 31 S,Indianapolis,IN,06:00,24:00,1459
68901,3803 Osborne Dr W,Hastings,NE,00:00,24:00,1460
82901,201 Gateway Blvd,Rock Springs,WY,00:00,24:00,1461
36037,501 Willow Ln,Greenville,AL,00:00,24:00,1462
45385,70 Hospitality Dr,Xenia,OH,00:00,24:00,1463
28273,8180 S Tryon St,Charlotte,NC,06:00,24:00,1464
24540,515 Mount Cross Rd,Danville,VA,00:00,24:00,1465
37757,2824 Appalachian Hwy,Jacksboro,TN,00:00,24:00,1466
38556,539 E Central Ave,Jamestown,TN,06:00,01:00,1467
38606,205 House Carlson Dr,Batesville,MS,00:00,24:00,1468
37421,2020 Gunbarrel Rd Ste 250,Chattanooga,TN,00:00,24:00,1469
56201,700 19th Ave Se,Willmar,MN,00:00,24:00,1470
54961,1717 N Shawano St,New London,WI,07:00,23:00,1471
55033,1752 No. Frontage,Hastings,MN,00:00,24:00,1472
56001,1881 E Madison Ave,Mankato,MN,00:00,24:00,1473
85365,2900 S Pacific Ave,Yuma,AZ,00:00,24:00,1474
52353,2485 Highway 92,Washington,IA,00:00,24:00,1475
47129,1351 Veterans Pkwy,Clarksville,IN,00:00,24:00,1476
26651,200 Wal St,Summersville,WV,00:00,24:00,1477
45680,354 Private Drive 288,South Point,OH,00:00,24:00,1478
46383,2400 Morthland Dr,Valparaiso,IN,00:00,24:00,1479
47394,950 E Greenville Pike,Winchester,IN,06:00,24:00,1480
35209,209 Lakeshore Pkwy,Homewood,AL,00:00,24:00,1481
33634,7011 W Waters Ave,Tampa,FL,00:00,24:00,1482
57078,3001 Broadway Ave,Yankton,SD,00:00,24:00,1483
82718,2300 S Douglas Hwy,Gillette,WY,00:00,24:00,1485
23901,1800 Peery Dr,Farmville,VA,00:00,24:00,1486
46360,5780 Franklin St,Michigan City,IN,00:00,24:00,1487
30134,7001 Concourse Pkwy,Douglasville,GA,00:00,24:00,1488
60061,555 E Townline Rd,Vernon Hills,IL,06:00,24:00,1489
61108,7219 Walton St,Rockford,IL,00:00,24:00,1490
50125,1500 N Jefferson Way,Indianola,IA,00:00,24:00,1491
80012,14000 E Exposition Ave,Aurora,CO,06:00,22:00,1492
36460,3371 S Alabama Ave,Monroeville,AL,06:00,23:00,1493
78411,4109 S Staples St,Corpus Christi,TX,00:00,24:00,1494
45424,7680 Brandt Pike,Huber Heights,OH,00:00,24:00,1495
50702,1334 Flammang Dr,Waterloo,IA,00:00,24:00,1496
60471,22401 Central Avenue,Richton Park,IL,00:00,24:00,1497
27410,3738 Battleground Ave,Greensboro,NC,06:00,24:00,1498
24901,1976 Jefferson St N,Lewisburg,WV,00:00,24:00,1499
57201,1201 29th St Se,Watertown,SD,00:00,24:00,1500
33618,14941 N Dale Mabry Hwy,Tampa,FL,06:00,01:00,1501
27870,251 Premier Blvd,Roanoke Rapids,NC,00:00,24:00,1502
45459,6244 Wilmington Pike,Dayton,OH,00:00,24:00,1503
45458,8800 Kingsridge Dr,Dayton,OH,00:00,24:00,1504
41501,254 Cassidy Blvd,Pikeville,KY,00:00,24:00,1505
52057,1220 W Main St,Manchester,IA,06:00,01:00,1506
67226,3030 N Rock Rd,Wichita,KS,06:00,01:00,1507
82801,1695 Coffeen Ave,Sheridan,WY,04:00,24:00,1508
52060,103 E Carlisle,Maquoketa,IA,06:00,01:00,1509
41042,7625 Doering Dr,Florence,KY,00:00,24:00,1510
33025,1800 South University Drive,Miramar,FL,06:00,01:00,1511
85225,800 W Warner Rd,Chandler,AZ,00:00,24:00,1512
34684,35404 Us Highway 19 N,Palm Harbor,FL,00:00,24:00,1513
63010,2201 Michigan Ave,Arnold,MO,00:00,24:00,1514
53022,W190n9855 Appleton Ave,Germantown,WI,00:00,24:00,1515
79007,1501 Roosevelt,Borger,TX,00:00,24:00,1516
33064,5001 N Federal Highway,Pompano Beach,FL,00:00,24:00,1517
46268,3221 W 86th St,Indianapolis,IN,06:00,24:00,1518
45640,100 Walmart Dr,Jackson,OH,00:00,24:00,1519
57401,3820 7th Ave Se,Aberdeen,SD,00:00,24:00,1520
45239,8451 Colerain Ave,Cincinnati,OH,06:00,24:00,1521
26241,721 Beverly Pike,Elkins,WV,00:00,24:00,1522
23060,11400 West Broad Street Road,Glen Allen,VA,00:00,24:00,1523
23831,12000 Iron Bridge Rd,Chester,VA,06:00,23:00,1524
23111,7430 Bell Creek Rd,Mechanicsville,VA,00:00,24:00,1525
50588,1831 Lake Ave,Storm Lake,IA,00:00,24:00,1526
27909,101 Tanglewood Pkwy N,Elizabeth City,NC,00:00,24:00,1527
52402,2645 Blairs Ferry Rd Ne,Cedar Rapids,IA,00:00,24:00,1528
17402,2801 E Market St Bldg B,York,PA,00:00,24:00,1529
38732,710 N Davis Ave,Cleveland,MS,00:00,24:00,1530
60110,365 Lake Marian Road,Carpentersville,IL,00:00,24:00,1531
85308,5845 W Bell Rd,Glendale,AZ,06:00,24:00,1532
85345,7975 W Peoria Ave,Peoria,AZ,06:00,24:00,1533
58504,2717 Rock Island Pl,Bismarck,ND,00:00,24:00,1534
57106,3209 S Louise Ave,Sioux Falls,SD,00:00,24:00,1535
33708,10237 Bay Pines Blvd,St Petersburg,FL,00:00,24:00,1536
17325,1270 York Rd,Gettysburg,PA,06:00,01:00,1537
57006,2233 6th St.,Brookings,SD,00:00,24:00,1538
44906,359 N Lexington Springmill Rd,Ontario,OH,00:00,24:00,1539
49090,201 73rd St,South Haven,MI,06:00,01:00,1540
33411,9990 Belvedere Rd,West Palm Beach,FL,00:00,24:00,1541
49735,950 Edelweiss Parkway,Gaylord,MI,00:00,24:00,1542
57783,2825 1st Ave,Spearfish,SD,00:00,24:00,1543
26301,550 Emily Dr,Clarksburg,WV,00:00,24:00,1544
58201,2551 32nd Ave S,Grand Forks,ND,00:00,24:00,1545
50126,840 S Oak St,Iowa Falls,IA,07:00,24:00,1546
47905,4205 Commerce Dr,Lafayette,IN,00:00,24:00,1547
60970,1790 E Walnut St,Watseka,IL,06:00,24:00,1548
85035,2020 N 75th Ave,Phoenix,AZ,06:00,24:00,1549
81230,900 N Main St,Gunnison,CO,06:00,22:00,1550
53132,6701 S 27th St,Franklin,WI,00:00,24:00,1551
28144,323 S Arlington St,Salisbury,NC,00:00,24:00,1552
60108,314 West Army Trail Road,Bloomingdale,IL,00:00,24:00,1553
95212,3223 E Hammer Ln,Stockton,CA,06:00,24:00,1554
92243,2150 N Waterman Ave,El Centro,CA,06:00,01:00,1555
60487,9265 159th St,Orland Hills,IL,00:00,24:00,1556
46037,8300 E 96th St,Fishers,IN,00:00,24:00,1557
27288,304 E Arbor Ln,Eden,NC,00:00,24:00,1558
89110,201 N Nellis Blvd,Las Vegas,NV,06:00,24:00,1559
89119,6005 S Eastern Ave,Las Vegas,NV,06:00,24:00,1560
38128,3950 Austin Peay Hwy,Memphis,TN,06:00,24:00,1561
55448,13020 Riverdale Dr Nw,Coon Rapids,MN,00:00,24:00,1562
93536,44665 Valley Central Way,Lancaster,CA,06:00,24:00,1563
45662,4490 Gallia St,New Boston,OH,00:00,24:00,1564
58801,4001 2nd Ave W,Williston,ND,00:00,24:00,1565
46526,4024 Elkhart Rd,Goshen,IN,00:00,24:00,1566
58601,2456 3rd Ave W,Dickinson,ND,00:00,24:00,1567
16148,1275 N Hermitage Rd,Hermitage,PA,00:00,24:00,1568
41056,240 Wal Mart Way,Maysville,KY,00:00,24:00,1569
46706,505 Touring Dr,Auburn,IN,00:00,24:00,1570
53149,250 Wolf Run,Mukwonago,WI,00:00,24:00,1571
84078,1851 W Highway 40,Vernal,UT,06:00,24:00,1572
84501,255 S Highway 55,Price,UT,00:00,24:00,1573
93307,6225 Colony St,Bakersfield,CA,06:00,24:00,1574
95965,465 Cal Oak Rd,Oroville,CA,06:00,24:00,1575
46375,1555 Us Highway 41,Schererville,IN,06:00,01:00,1576
55313,1315 Highway 25 N,Buffalo,MN,00:00,24:00,1577
30076,970 Mansell Rd,Roswell,GA,06:00,24:00,1578
27565,1015 Lewis St,Oxford,NC,06:00,24:00,1579
46229,10617 E Washington St,Indianapolis,IN,06:00,24:00,1580
58103,4731 13th Ave S,Fargo,ND,00:00,24:00,1581
93637,1977 W Cleveland Ave,Madera,CA,07:00,23:00,1583
89103,3615 S Rainbow Blvd,Las Vegas,NV,06:00,24:00,1584
69101,1401 S Dewey St,North Platte,NE,00:00,24:00,1585
30106,1133 Ew Connector Sw,Austell,GA,00:00,24:00,1586
95350,2225 Plaza Pkwy,Modesto,CA,06:00,22:00,1587
92392,11896 Amargosa Rd,Victorville,CA,05:00,24:00,1588
33484,16205 S Military Trl,Delray Beach,FL,00:00,24:00,1589
33015,5851 Nw 177th St,Hialeah,FL,00:00,24:00,1590
17111,6535 Grayson Rd,Harrisburg,PA,06:00,24:00,1591
48413,901 N Van Dyke Rd,Bad Axe,MI,06:00,24:00,1592
49036,800 E Chicago St,Coldwater,MI,06:00,01:00,1593
43056,911 Hebron Rd,Heath,OH,00:00,24:00,1594
43040,555 Colemans Crossing Blvd,Marysville,OH,00:00,24:00,1595
60440,200 South Bolingbrook Drive,Bolingbrook,IL,00:00,24:00,1596
74133,10938 S Memorial Dr,Tulsa,OK,00:00,24:00,1597
85032,4617 E Bell Rd,Phoenix,AZ,00:00,24:00,1598
66210,11701 Metcalf Ave,Overland Park,KS,06:00,24:00,1599
93555,201 East Bowman Road,Ridgecrest,CA,06:00,24:00,1600
46033,2001 E 151st St,Carmel,IN,00:00,24:00,1601
62704,3401 Freedom Dr,Springfield,IL,00:00,24:00,1602
29706,1691 J A Cochran Bypass,Chester,SC,07:00,24:00,1603
57701,1200 N Lacrosse St,Rapid City,SD,00:00,24:00,1604
32506,4600 Mobile Hwy Ste 122,Pensacola,FL,06:00,24:00,1605
37343,5764 Highway 153,Hixson,TN,00:00,24:00,1606
17044,10180 Us Highway 522 S,Lewistown,PA,00:00,24:00,1607
96080,608 Luther Road,Red Bluff,CA,06:00,24:00,1608
55744,100 Se 29th St,Grand Rapids,MN,00:00,24:00,1609
14626,100 Elmridge Center Dr,Greece,NY,07:00,23:00,1610
48059,4845 24th Ave,Fort Gratiot,MI,00:00,24:00,1611
85746,1650 W Valencia Rd,Tucson,AZ,06:00,01:00,1612
27263,2628 S Main St,High Point,NC,00:00,24:00,1613
27704,1525 Glenn School Rd,Durham,NC,06:00,24:00,1614
94565,2203 Loveridge Rd,Pittsburg,CA,07:00,24:00,1615
96130,2900 Main St,Susanville,CA,06:00,22:00,1616
82609,4400 E 2nd St,Casper,WY,00:00,24:00,1617
46410,2936 E 79th Ave,Merrillville,IN,00:00,24:00,1618
14623,1200 Marketplace Dr,Rochester,NY,06:00,24:00,1619
36426,2578 Douglas Ave,Brewton,AL,06:00,01:00,1620
52544,23148 Hwy 5,Centerville,IA,06:00,01:00,1621
44883,2801 W State Route 18,Tiffin,OH,00:00,24:00,1622
18702,2150 Wilkes Barre Twnsp Mktpl,Wilkes Barre,PA,06:00,24:00,1623
93306,2601 Fashion Place,Bakersfield,CA,06:00,24:00,1624
51031,1111 Holton Dr,Le Mars,IA,06:00,01:00,1625
73134,2000 W Memorial Rd,Oklahoma City,OK,06:00,24:00,1626
56529,415 34th St N,Dilworth,MN,00:00,24:00,1627
44870,5500 Milan Rd Ste 200,Sandusky,OH,00:00,24:00,1628
47834,2150 E National Ave,Brazil,IN,07:00,24:00,1629
96097,1906 Fort Jones Rd,Yreka,CA,06:00,24:00,1630
23666,1900 Cunningham Dr,Hampton,VA,00:00,24:00,1631
56308,4611 State Highway 29 S,Alexandria,MN,00:00,24:00,1632
56377,21 County Road 120,Sartell,MN,00:00,24:00,1633
56345,15091 18th St Ne,Little Falls,MN,00:00,24:00,1634
53189,2000 S West Ave,Waukesha,WI,00:00,24:00,1635
58701,3900 S Broadway,Minot,ND,00:00,24:00,1636
68134,6304 N 99th St,Omaha,NE,06:00,24:00,1637
36027,3176 S Eufaula Ave,Eufaula,AL,06:00,24:00,1638
46975,2395 Main St,Rochester,IN,06:00,01:00,1639
16803,1665 N Atherton St,State College,PA,00:00,24:00,1640
27892,1529 Washington St,Williamston,NC,06:00,24:00,1641
48813,1680 Packard Hwy,Charlotte,MI,00:00,24:00,1642
54937,377 N Rolling Meadows Dr,Fond Du Lac,WI,00:00,24:00,1643
17837,120 Ajk Blvd,Lewisburg,PA,00:00,24:00,1644
93230,250 S 12th Ave,Hanford,CA,06:00,01:00,1645
85206,6131 E Southern Ave,Mesa,AZ,00:00,24:00,1646
46733,1700 S 13th St,Decatur,IN,00:00,24:00,1647
89705,3770 Us Highway 395 S,Carson City,NV,00:00,24:00,1648
58401,921 25th St Sw,Jamestown,ND,00:00,24:00,1649
53080,825 E Green Bay Ave,Saukville,WI,06:00,01:00,1650
94503,7011 Main St,American Canyon,CA,00:00,24:00,1651
24084,5225 Alexander Rd,Dublin,VA,00:00,24:00,1652
26452,110 Berlin Rd,Weston,WV,06:00,24:00,1653
56425,7295 Glory Rd,Baxter,MN,00:00,24:00,1654
47933,1835 S Us Highway 231,Crawfordsville,IN,00:00,24:00,1655
16335,16086 Conneaut Lake Rd,Meadville,PA,00:00,24:00,1656
55021,150 Western Ave Nw,Faribault,MN,00:00,24:00,1657
30824,2205 Harrison Rd Se,Thomson,GA,00:00,24:00,1658
80601,60 W Bromley Ln,Brighton,CO,00:00,24:00,1659
93551,40130 10th St W,Palmdale,CA,06:00,24:00,1660
28504,4101 W Vernon Ave,Kinston,NC,06:00,24:00,1661
28625,1116 Crossroads Dr,Statesville,NC,00:00,24:00,1662
28786,135 Town Center Loop,Waynesville,NC,00:00,24:00,1663
27893,2500 Forest Hills Rd W,Wilson,NC,00:00,24:00,1664
47304,4801 W Clara Ln,Muncie,IN,00:00,24:00,1665
28205,3850 E Independence Blvd,Charlotte,NC,06:00,23:00,1666
46992,1601 No. Cass St,Wabash,IN,00:00,24:00,1667
60031,6590 Grand Ave,Gurnee,IL,00:00,24:00,1668
54701,3915 Gateway Dr,Eau Claire,WI,00:00,24:00,1669
19610,1135 Berkshire Blvd,Wyomissing,PA,06:00,24:00,1670
68133,8525 S 71st Plz,Papillion,NE,00:00,24:00,1671
54806,2500 Lake Shore Dr E,Ashland,WI,06:00,01:00,1672
14424,4238 Recreation Dr,Canandaigua,NY,00:00,24:00,1673
21740,17850 Garland Groh Blvd,Hagerstown,MD,00:00,24:00,1674
40033,2136 Campbellsville Rd,Lebanon,KY,00:00,24:00,1675
47586,730 Us Highway 66 E,Tell City,IN,00:00,24:00,1676
13413,4765 Commercial Dr,New Hartford,NY,00:00,24:00,1677
53018,2863 Heritage Dr,Delafield,WI,07:00,24:00,1678
54650,3107 Market Pl,Onalaska,WI,00:00,24:00,1679
33196,15885 Sw 88th St,Kendall,FL,00:00,24:00,1680
60056,930 Mount Prospect Plz,Mount Prospect,IL,00:00,24:00,1681
23321,2448 Chesapeake Square Ring Rd,Chesapeake,VA,00:00,24:00,1682
51601,705 S Fremont Street,Shenandoah,IA,06:00,01:00,1683
15537,72 Bedford Sq,Everett,PA,06:00,01:00,1684
57501,1730 N Garfield Ave,Pierre,SD,06:00,01:00,1685
84123,5469 S Redwood Rd,Taylorsville,UT,05:00,24:00,1686
23434,1200 N Main St,Suffolk,VA,00:00,24:00,1687
23452,657 Phoenix Dr,Virginia Beach,VA,00:00,24:00,1688
80015,5650 S Chambers Rd,Aurora,CO,06:00,24:00,1689
62526,4224 N Prospect St,Decatur,IL,00:00,24:00,1690
66204,7701 Frontage Rd,Overland Park,KS,06:00,24:00,1691
92324,1120 S Mount Vernon Ave,Colton,CA,06:00,24:00,1692
92373,2050 W Redlands Blvd,Redlands,CA,05:00,24:00,1693
28752,2875 Sugar Hill Rd,Marion,NC,00:00,24:00,1694
58301,1424 Hwy 2 E,Devils Lake,ND,06:00,01:00,1695
56537,3300 State Highway 210 W,Fergus Falls,MN,06:00,01:00,1696
95758,8465 Elk Grove Blvd,Elk Grove,CA,06:00,24:00,1697
3106,3 Commerce Dr,Hooksett,NH,06:00,24:00,1698
84041,745 W Hill Field Rd,Layton,UT,00:00,24:00,1699
92064,13425 Community Road,Poway,CA,00:00,24:00,1700
30635,955 Elbert St,Elberton,GA,06:00,22:00,1701
32935,1000 North Wickham R,Melbourne,FL,00:00,24:00,1702
25401,800 Foxcroft Ave,Martinsburg,WV,06:00,24:00,1703
95687,1501 Helen Power Dr,Vacaville,CA,06:00,24:00,1704
13165,1860 N Road,Waterloo,NY,00:00,24:00,1705
43920,16280 Dresden Ave,East Liverpool,OH,00:00,24:00,1707
84405,4848 S 900 W,Riverdale,UT,00:00,24:00,1708
46703,2016 N Wayne St,Angola,IN,00:00,24:00,1709
39056,950 Highway 80 E,Clinton,MS,00:00,24:00,1710
35210,1600 Montclair Rd,Birmingham,AL,06:00,24:00,1711
33770,990 Missouri Ave N,Largo,FL,00:00,24:00,1712
61520,2071 N Main St,Canton,IL,00:00,24:00,1713
26554,32 Tygart Mall Loop,Fairmont,WV,00:00,24:00,1714
21601,8155 Elliott Rd,Easton,MD,06:00,24:00,1715
20678,150 Solomons Island Rd N,Prince Frederick,MD,06:00,24:00,1716
20601,11930 Acton Ln,Waldorf,MD,06:00,24:00,1717
45840,2500 Tiffin Ave,Findlay,OH,00:00,24:00,1718
49307,21400 Perry Ave,Big Rapids,MI,00:00,24:00,1719
30078,1550 Scenic Hwy N,Snellville,GA,00:00,24:00,1720
52246,919 Highway 1 W,Iowa City,IA,00:00,24:00,1721
56258,1221 E Main St,Marshall,MN,00:00,24:00,1722
50320,5101 Se 14th St,Des Moines,IA,00:00,24:00,1723
44654,1640 S Washington St,Millersburg,OH,00:00,24:00,1724
22801,171 Burgess Road,Harrisonburg,VA,00:00,24:00,1726
54923,861 County Road F,Berlin,WI,06:00,01:00,1727
46013,2321 Charles St,Anderson,IN,00:00,24:00,1728
47331,4200 Western Ave,Connersville,IN,00:00,24:00,1729
22560,1660 Tappahannock Blvd,Tappahannock,VA,00:00,24:00,1730
14456,990 State Route 5 And 20,Geneva,NY,06:00,24:00,1731
51442,510 Avenue C,Denison,IA,00:00,24:00,1732
48867,1621 E M 21,Owosso,MI,00:00,24:00,1733
61822,2610 N Prospect Ave,Champaign,IL,06:00,24:00,1734
60090,1455 E Lake Cook Rd,Wheeling,IL,00:00,24:00,1735
19901,36 Jerome Drive,Dover,DE,00:00,24:00,1736
60181,900 South Route 83,Villa Park,IL,00:00,24:00,1737
55350,1300 Highway 15 S,Hutchinson,MN,00:00,24:00,1738
15301,30 Trinity Point Dr,Washington,PA,00:00,24:00,1739
61032,2545 Il Route 26 S,Freeport,IL,00:00,24:00,1740
19963,939 N Dupont Blvd,Milford,DE,00:00,24:00,1741
8012,3501 Route 42,Turnersville,NJ,00:00,24:00,1742
40831,201 Walton Road,Harlan,KY,06:00,24:00,1743
14580,1990 Brandt Point Drive,Webster,NY,06:00,23:00,1744
47374,3601 E Main St,Richmond,IN,00:00,24:00,1745
85284,1380 W Elliot Rd,Tempe,AZ,06:00,24:00,1746
92571,1800 N Perris Blvd,Perris,CA,06:00,24:00,1747
29414,3951 W Ashley Cir,Charleston,SC,00:00,24:00,1748
3878,59 Waltons Way,Somersworth,NH,06:00,24:00,1749
43302,1546 Marion-mt. Gilead Road,Marion,OH,00:00,24:00,1750
27612,6600 Glenwood Ave,Raleigh,NC,06:00,24:00,1751
48706,3921 Wilder Rd,Bay City,MI,00:00,24:00,1752
3038,11 Ashleigh Drive,Derry,NH,06:00,24:00,1753
48843,3850 E Grand River Ave,Howell,MI,00:00,24:00,1754
94928,4625 Redwood Dr,Rohnert Park,CA,06:00,23:00,1755
92335,17251 Foothill Blvd,Fontana,CA,06:00,23:00,1756
55811,4740 Mall Dr,Hermantown,MN,00:00,24:00,1757
47362,3167 S State Road 3,New Castle,IN,00:00,24:00,1758
23061,6819 Walton Ln,Gloucester,VA,00:00,24:00,1759
95630,1018 Riley St,Folsom,CA,00:00,24:00,1760
62040,379 W Pontoon Rd,Granite City,IL,06:00,24:00,1761
3874,700 Lafayette Road Unit #1,Seabrook,NH,07:00,22:00,1762
24605,4001 College Ave,Bluefield,VA,00:00,24:00,1763
50324,1001 73rd St,Des Moines,IA,00:00,24:00,1764
15501,2028 N Center Ave,Somerset,PA,00:00,24:00,1765
30062,3100 Johnson Ferry Rd,Marietta,GA,06:00,24:00,1766
28470,4540 Main St. B 3079,Shallotte,NC,00:00,24:00,1767
84058,1355 Sandhill Rd,Orem,UT,00:00,24:00,1768
15801,20 Industrial Dr,Du Bois,PA,00:00,24:00,1769
16066,20245 Route 19,Cranberry Township,PA,00:00,24:00,1770
49091,1500 S Centerville Rd,Sturgis,MI,00:00,24:00,1771
97603,3600 Washburn Way,Klamath Falls,OR,00:00,24:00,1772
23602,12401 Jefferson Ave,Newport News,VA,06:00,24:00,1773
27332,3310 Nc Highway 87 S,Sanford,NC,00:00,24:00,1774
97355,3290 S Santiam Hwy,Lebanon,OR,07:00,22:00,1775
53094,1901 Market Way,Watertown,WI,00:00,24:00,1776
19606,5900 Perkiomen Ave,Reading,PA,00:00,24:00,1777
82414,321 Yellowstone Ave,Cody,WY,06:00,24:00,1778
60455,10260 S Harlem Ave,Bridgeview,IL,06:00,24:00,1779
22901,975 Hilton Heights Rd,Charlottesville,VA,00:00,24:00,1780
13045,819 Bennie Rd,Cortland,NY,00:00,24:00,1781
26105,701 Grand Central Ave,Vienna,WV,00:00,24:00,1782
47670,2700 W Broadway St,Princeton,IN,00:00,24:00,1783
97305,3025 Lancaster Dr Ne,Salem,OR,06:00,24:00,1784
3051,254 Lowell Rd,Hudson,NH,06:00,24:00,1785
55123,1360 Town Centre Dr,Eagan,MN,00:00,24:00,1786
51401,2014 Kittyhawk Rd,Carroll,IA,06:00,01:00,1787
4074,500 Gallery Blvd,Scarborough,ME,06:00,24:00,1788
95242,1601 S Lower Sacramento Rd,Lodi,CA,00:00,24:00,1789
48162,2150 N Telegraph Rd,Monroe,MI,00:00,24:00,1790
49412,7083 W 48th St,Fremont,MI,00:00,24:00,1791
15857,1102 Million Dollar Hwy,Saint Marys,PA,00:00,24:00,1792
97071,3002 Stacey Allison Way,Woodburn,OR,00:00,24:00,1793
17815,100 Lunger Dr,Bloomsburg,PA,00:00,24:00,1794
28768,177 Forest Gate Dr,Pisgah Forest,NC,07:00,24:00,1795
3031,85 State Route 101a,Amherst,NH,06:00,23:00,1796
4861,55 Thomaston Commons Way,Thomaston,ME,06:00,24:00,1797
48723,1121 E Caro Rd,Caro,MI,00:00,24:00,1798
53901,2950 New Pinery Rd,Portage,WI,00:00,24:00,1799
75041,1801 Marketplace Dr,Garland,TX,00:00,24:00,1800
76017,4801 S Cooper St,Arlington,TX,00:00,24:00,1801
66604,1501 Sw Wanamaker Rd,Topeka,KS,00:00,24:00,1802
78217,4331 Thousand Oaks Drive,San Antonio,TX,06:00,24:00,1803
46804,1710 Apple Glen Blvd,Fort Wayne,IN,00:00,24:00,1804
92253,79295 Us Hwy 111,La Quinta,CA,06:00,24:00,1805
12078,329 S Kingsboro Ave Ext,Gloversville,NY,00:00,24:00,1806
8091,265 N Route 73,West Berlin,NJ,00:00,24:00,1807
80487,1805 Central Park Drive,Steamboat Springs,CO,06:00,22:00,1808
49250,701 Olds St,Jonesville,MI,00:00,24:00,1809
12524,26 W Merritt Blvd,Fishkill,NY,00:00,24:00,1810
23502,1170 N Military Hwy,Norfolk,VA,00:00,24:00,1811
44691,3883 Burbank Rd,Wooster,OH,00:00,24:00,1812
14513,6788 State Route 31 E,Newark,NY,06:00,24:00,1813
60123,1100 S Randall Rd,Elgin,IL,00:00,24:00,1814
93722,4080 W Shaw Ave,Fresno,CA,07:00,23:00,1815
27545,7106 Knightdale Blvd,Knightdale,NC,07:00,24:00,1816
97838,1350 N 1st St,Hermiston,OR,05:00,01:00,1817
54751,180 Cedar Falls Rd,Menomonie,WI,00:00,24:00,1819
16201,1 Hilltop Plz,Kittanning,PA,00:00,24:00,1820
28227,9101 Albemarle Rd,Charlotte,NC,06:00,23:00,1821
738,150 Carr 940 Ste 180,Fajardo,PR,08:00,20:00,1822
17331,495 Eisenhower Dr,Hanover,PA,00:00,24:00,1823
48197,2515 Ellsworth Rd,Ypsilanti,MI,06:00,01:00,1824
20109,8386 Sudley Rd,Manassas,VA,00:00,24:00,1825
93292,1819 E Noble Ave,Visalia,CA,06:00,23:00,1826
84098,6545 Landmark Dr,Park City,UT,06:00,24:00,1827
54467,250 Crossroads Dr,Plover,WI,00:00,24:00,1828
29574,305 Commerce Dr,Marion,SC,06:00,24:00,1829
13021,297 Grant Ave,Auburn,NY,00:00,24:00,1830
13090,8770 Dell Center Drive,Liverpool,NY,00:00,24:00,1831
92264,5601 E Ramon Rd,Palm Springs,CA,06:00,24:00,1832
22401,1800 Carl D Silver Pkwy,Fredericksburg,VA,00:00,24:00,1833
97526,135 Ne Terry Ln,Grants Pass,OR,00:00,24:00,1834
13850,2405 Vestal Pkwy E,Vestal,NY,00:00,24:00,1835
49221,1601 E Us Highway 223,Adrian,MI,00:00,24:00,1836
77338,9451 Fm 1960 Bypass,Humble,TX,06:00,24:00,1837
89108,3041 N Rainbow Blvd,Las Vegas,NV,06:00,24:00,1838
44053,4380 Leavitt Rd,Lorain,OH,00:00,24:00,1839
95337,1205 S Main St,Manteca,CA,06:00,24:00,1840
23320,1521 Sams Cir,Chesapeake,VA,00:00,24:00,1841
27407,4424 W Wendover Ave,Greensboro,NC,00:00,24:00,1842
97128,2375 Ne Highway 99w,Mcminnville,OR,06:00,24:00,1843
8755,950 Route 37 W,Toms River,NJ,07:00,24:00,1844
33330,4700 S Flamingo Rd,Cooper City,FL,00:00,24:00,1845
85607,199 W 5th St,Douglas,AZ,00:00,24:00,1846
34470,4980 E Silver Springs Blvd,Ocala,FL,00:00,24:00,1847
60137,3s100 Route 53,Glen Ellyn,IL,00:00,24:00,1848
27105,320 E Hanes Mill Rd,Winston Salem,NC,00:00,24:00,1849
17202,1730 Lincoln Way E.,Chambersburg,PA,00:00,24:00,1850
33068,7900 W Mcnab Rd,North Lauderdale,FL,06:00,24:00,1851
22192,14000 Worth Ave,Woodbridge,VA,00:00,24:00,1852
92545,1231 S Sanderson Ave,Hemet,CA,06:00,24:00,1853
659,Plaza Del Mar Shopping Center,Hatillo,PR,08:00,20:00,1854
55344,12195 Singletree Ln,Eden Prairie,MN,00:00,24:00,1855
4401,900 Stillwater Ave,Bangor,ME,06:00,24:00,1856
44060,9303 Mentor Ave,Mentor,OH,00:00,24:00,1857
56265,3001 E Highway 7,Montevideo,MN,06:00,01:00,1858
92231,2540 Rockwood Ave,Calexico,CA,00:00,24:00,1859
21921,1000 E Pulaski Hwy,Elkton,MD,00:00,24:00,1860
55082,5815 Norell Ave N,Oak Park Heights,MN,00:00,24:00,1861
92376,1366 S Riverside Ave,Rialto,CA,06:00,24:00,1862
44095,33752 Vine St,Eastlake,OH,00:00,24:00,1863
55445,8000 Lakeland Ave N,Brooklyn Park,MN,06:00,24:00,1864
56283,1410 E Bridge St,Redwood Falls,MN,06:00,01:00,1865
4938,615 Wilton Rd,Farmington,ME,06:00,24:00,1866
21157,280 Woodward Rd,Westminster,MD,06:00,24:00,1867
4210,100 Mount Auburn Ave,Auburn,ME,06:00,24:00,1868
8053,150 E Route 70,Marlton,NJ,07:00,24:00,1869
99163,1690 Se Harvest Dr,Pullman,WA,00:00,24:00,1870
13601,20823 State Route 3,Watertown,NY,00:00,24:00,1871
59601,2750 Prospect Ave,Helena,MT,00:00,24:00,1872
2921,1776 Plainfield Pike,Cranston,RI,07:00,23:00,1873
34224,2931 S Mccall Rd,Englewood,FL,00:00,24:00,1874
21144,407 George Claus Blvd,Severn,MD,00:00,24:00,1875
97031,2700 Wasco St,Hood River,OR,06:00,24:00,1876
93257,1250 W Henderson Ave,Porterville,CA,07:00,23:00,1877
83440,1450 North 2nd East,Rexburg,ID,06:00,24:00,1878
92311,301 Montara Rd,Barstow,CA,06:00,24:00,1879
97420,2051 Newmark Ave,Coos Bay,OR,00:00,24:00,1880
95843,7901 Watt Ave,Antelope,CA,07:00,23:00,1881
93662,3400 Floral Ave,Selma,CA,06:00,01:00,1882
15061,3942 Brodhead Road,Monaca,PA,00:00,24:00,1883
18519,900 Commerce Blvd,Dickson City,PA,00:00,24:00,1884
16001,400 Butler Cmns,Butler,PA,00:00,24:00,1885
17050,6520 Carlisle Pike Ste 550,Mechanicsburg,PA,00:00,24:00,1886
17754,1015 N Loyalsock Ave,Montoursville,PA,00:00,24:00,1887
84341,1550 N Main St,North Logan,UT,00:00,24:00,1888
97850,11619 Island Ave,Island City,OR,06:00,24:00,1889
21801,2702 N Salisbury Blvd,Salisbury,MD,00:00,24:00,1890
6042,420 Buckland Hills Dr,Manchester,CT,06:00,24:00,1891
60525,9450 Joliet Rd,Hodgkins,IL,00:00,24:00,1892
20716,3300 Crain Hwy,Bowie,MD,06:00,24:00,1893
44256,4141 Pearl Rd,Medina,OH,00:00,24:00,1894
44333,3750 W Market St,Fairlawn,OH,06:00,24:00,1895
80920,8250 Razorback Rd,Colorado Springs,CO,00:00,24:00,1896
60007,801 Meacham Rd,Elk Grove Village,IL,00:00,24:00,1897
60174,150 Smith Rd,Saint Charles,IL,06:00,01:00,1898
92507,6250 Valley Springs Pkwy,Riverside,CA,06:00,24:00,1899
83318,385 N Overland Ave,Burley,ID,06:00,01:00,1900
59701,3901 Harrison Ave,Butte,MT,00:00,24:00,1901
83406,1201 S 25th E,Ammon,ID,06:00,24:00,1902
95993,1150 Harter Rd,Yuba City,CA,06:00,01:00,1903
20175,19360 Compass Creek Parkway,Leesburg,VA,00:00,24:00,1904
83221,565 Jensen Grove Dr,Blackfoot,ID,06:00,24:00,1905
2719,42 Fairhaven Commons Way,Fairhaven,MA,07:00,22:00,1906
3451,724 Brattleboro Rd,Hinsdale,NH,07:00,22:00,1907
54311,2292 Main St,Green Bay,WI,00:00,24:00,1908
14304,1540 Military Rd,Niagara Falls,NY,00:00,24:00,1909
95531,900 E Washington Blvd,Crescent City,CA,06:00,24:00,1910
44312,2887 S Arlington Rd,Akron,OH,06:00,24:00,1911
92879,479 N Mckinley St,Corona,CA,06:00,24:00,1912
43402,131 W Gypsy Lane Rd,Bowling Green,OH,00:00,24:00,1913
92346,4210 East Highland Avenue,Highland,CA,06:00,23:00,1914
92284,58501 29 Palms Hwy,Yucca Valley,CA,06:00,24:00,1915
33073,5571 W Hillsboro Blvd,Coconut Creek,FL,00:00,24:00,1916
92071,170 Town Center Parkway,Santee,CA,06:00,24:00,1917
2019,250 Hartford Ave,Bellingham,MA,07:00,22:00,1918
4457,250 W Broadway,Lincoln,ME,07:00,21:00,1919
97306,5250 Commercial St Se,Salem,OR,06:00,24:00,1920
8050,525 Route 72 W,Manahawkin,NJ,07:00,24:00,1921
91739,12549 Foothill Blvd,Rancho Cucamonga,CA,06:00,24:00,1922
49321,3999 Alpine Ave Nw,Comstock Park,MI,00:00,24:00,1923
4769,781 Main St,Presque Isle,ME,06:00,24:00,1924
97365,160 Nw 25th St,Newport,OR,06:00,24:00,1925
13126,341 State Route 104,Oswego,NY,00:00,24:00,1926
44056,8160 Macedonia Commons Blvd,Macedonia,OH,00:00,24:00,1927
48532,4313 Corunna Rd,Flint,MI,06:00,24:00,1928
55720,1308 Highway 33 S,Cloquet,MN,00:00,24:00,1929
3865,58 Plaistow Rd,Plaistow,NH,07:00,22:00,1930
54501,2121 Lincoln St,Rhinelander,WI,00:00,24:00,1931
4605,17 Myrick St,Ellsworth,ME,06:00,24:00,1932
60164,137 W North Ave,Northlake,IL,06:00,24:00,1933
23970,315 Furr St,South Hill,VA,06:00,24:00,1934
15904,150 Town Centre Dr,Johnstown,PA,00:00,24:00,1935
49783,3763 I-75 Business Spur,Sault Sainte Marie,MI,00:00,24:00,1936
43812,23605 Airport Rd,Coshocton,OH,00:00,24:00,1937
60638,7050 S Cicero Ave,Bedford Park,IL,06:00,24:00,1938
4011,15 Tibbetts Dr,Brunswick,ME,06:00,24:00,1939
12144,279 Troy Rd,East Greenbush,NY,00:00,24:00,1940
91740,1950 Auto Center Drive,Glendora,CA,06:00,24:00,1941
49424,2629 N Park Dr,Holland,MI,00:00,24:00,1942
68521,4700 N 27th St,Lincoln,NE,00:00,24:00,1943
16933,1169 S Main St,Mansfield,PA,00:00,24:00,1945
13662,43 Stephenville St,Massena,NY,00:00,24:00,1946
98841,902 Engh Rd,Omak,WA,00:00,24:00,1947
26062,400 Three Springs Dr,Weirton,WV,00:00,24:00,1948
14063,10401 Bennett Rd,Fredonia,NY,00:00,24:00,1949
27910,2150 Us 13 South,Ahoskie,NC,07:00,22:00,1950
97914,1775 E Idaho Ave,Ontario,OR,05:00,24:00,1951
55432,8450 University Ave Ne,Fridley,MN,06:00,24:00,1952
27549,705 Retail Way,Louisburg,NC,06:00,24:00,1953
4073,1930 Main St,Sanford,ME,06:00,24:00,1954
61114,3849 Northridge Dr,Rockford,IL,00:00,24:00,1955
59102,2525 King Ave W,Billings,MT,00:00,24:00,1956
34110,11225 Tamiami Trl N,Naples,FL,00:00,24:00,1957
78582,4534 E Us Highway 83,Rio Grande City,TX,06:00,24:00,1958
10940,470 Route 211 E,Middletown,NY,00:00,24:00,1959
33607,1505 N Dale Mabry Hwy,Tampa,FL,00:00,24:00,1960
41001,6711 Alexandria Pike,Alexandria,KY,00:00,24:00,1961
46901,1920 E Markland Ave,Kokomo,IN,00:00,24:00,1962
95380,2111 Fulkerth Rd,Turlock,CA,06:00,24:00,1963
2891,258 Post Rd,Westerly,RI,00:00,24:00,1964
51501,3201 Manawa Centre Dr,Council Bluffs,IA,06:00,24:00,1965
14454,4235 Veteran Dr,Geneseo,NY,00:00,24:00,1966
1119,1105 Boston Rd,Springfield,MA,07:00,22:00,1967
21001,645 S Philadelphia Blvd,Aberdeen,MD,00:00,24:00,1968
23113,900 Walmart Way,Midlothian,VA,00:00,24:00,1969
1749,280 Washington St,Hudson,MA,06:00,23:00,1970
55901,3400 55th St Nw,Rochester,MN,00:00,24:00,1971
94551,2700 Las Positas Rd,Livermore,CA,06:00,24:00,1972
14750,350 E Fairmount Ave,Lakewood,NY,00:00,24:00,1973
4730,17 Ludlow Rd,Houlton,ME,07:00,21:00,1974
3743,14 Bowen St,Claremont,NH,06:00,24:00,1975
14845,1400 County Rd 64,Horseheads,NY,00:00,24:00,1976
8724,1872 Route 88,Brick,NJ,00:00,24:00,1977
46563,2505 N Oak Dr,Plymouth,IN,00:00,24:00,1978
95422,15960 Dam Rd,Clearlake,CA,06:00,23:00,1979
6260,625 School St,Putnam,CT,00:00,24:00,1980
20619,45485 Miramar Way,California,MD,00:00,24:00,1981
54913,955 Mutual Way,Appleton,WI,00:00,24:00,1982
95307,1670 Mitchell Rd,Ceres,CA,06:00,24:00,1983
1247,1415 Curran Memorial Hwy,North Adams,MA,06:00,24:00,1984
20724,3549 Russett Grn,Laurel,MD,06:00,24:00,1985
44857,340 Westwind Dr,Norwalk,OH,00:00,24:00,1986
48446,555 E Genesee St,Lapeer,MI,00:00,24:00,1987
95678,900 Pleasant Grove Blvd,Roseville,CA,00:00,24:00,1988
93436,701 W Central Ave,Lompoc,CA,05:00,01:00,1989
43015,1760 Columbus Pike,Delaware,OH,06:00,23:00,1990
47403,3313 W State Rd 45,Bloomington,IN,00:00,24:00,1991
91786,1540 W Foothill Blvd,Upland,CA,06:00,24:00,1992
14420,6265 Brockport Spencerport Rd,Brockport,NY,00:00,24:00,1993
12901,25 Consumer Sq,Plattsburgh,NY,00:00,24:00,1994
83202,4240 Yellowstone Ave,Chubbuck,ID,06:00,24:00,1995
33009,2551 E Hallandale Beach Blvd,Hallandale Beach,FL,00:00,24:00,1996
12110,800 Loudon Road,Latham,NY,06:00,24:00,1997
60076,3626 Touhy Ave,Skokie,IL,00:00,24:00,1998
55304,1851 Bunker Lake Blvd Nw,Andover,MN,06:00,23:00,1999
27949,5400 N Croatan Hwy Ste 100,Kitty Hawk,NC,00:00,24:00,2000
93727,5125 East Kings Canyon Rd,Fresno,CA,06:00,22:00,2001
95020,7150 Camino Arroyo,Gilroy,CA,06:00,24:00,2002
8902,979 Route #1 South,North Brunswick,NJ,00:00,24:00,2003
52003,4200 Dodge St,Dubuque,IA,00:00,24:00,2004
28083,2420 Supercenter Dr Ne,Kannapolis,NC,00:00,24:00,2005
99403,306 5th St,Clarkston,WA,00:00,24:00,2006
98837,1005 N Stratford Rd,Moses Lake,WA,06:00,24:00,2007
16127,1566 W Main Street Ext,Grove City,PA,06:00,01:00,2008
21009,401 Constant Friendship Blvd,Abingdon,MD,06:00,24:00,2009
49120,2107 S 11th St,Niles,MI,00:00,24:00,2010
1537,742 Main St,North Oxford,MA,06:00,24:00,2012
4901,80 Waterville Commons Dr,Waterville,ME,06:00,24:00,2013
48629,2129 W Houghton Lake Dr,Houghton Lake,MI,00:00,24:00,2014
22033,13059 Fair Lakes Parkway,Fairfax,VA,00:00,24:00,2015
99114,810 North Highway,Colville,WA,00:00,24:00,2016
15401,355 Walmart Dr,Uniontown,PA,00:00,24:00,2019
47978,905 S College Ave,Rensselaer,IN,07:00,24:00,2020
2767,36 Paramount Dr,Raynham,MA,00:00,24:00,2021
6256,474 Boston Post Rd,North Windham,CT,00:00,24:00,2022
17046,1355 E Lehman St,Lebanon,PA,00:00,24:00,2023
18657,808 Hunter Hwy,Tunkhannock,PA,00:00,24:00,2024
95304,3010 W Grant Line Rd,Tracy,CA,06:00,24:00,2025
728,3305 Ave.baramaya Suite 100,Ponce,PR,08:00,20:00,2026
21502,12500 Country Club Mall Rd,Lavale,MD,00:00,24:00,2027
92503,5200 Van Buren Blvd,Riverside,CA,06:00,24:00,2028
95370,1101 Sanguinetti Road,Sonora,CA,00:00,24:00,2030
94587,30600 Dyer St,Union City,CA,06:00,24:00,2031
93036,2001 N Rose Ave,Oxnard,CA,06:00,23:00,2032
58554,1000 Old Red Trl Nw,Mandan,ND,00:00,24:00,2033
45331,1501 Wagner Avenue,Greenville,OH,00:00,24:00,2035
25309,2700 Mountaineer Blvd,South Charleston,WV,00:00,24:00,2036
98520,909 E Wishkah St,Aberdeen,WA,00:00,24:00,2037
20166,45415 Dulles Crossing Plz,Sterling,VA,00:00,24:00,2038
95348,3055 Loughborough Dr,Merced,CA,07:00,22:00,2039
8016,2106 Mount Holly Rd,Burlington,NJ,00:00,24:00,2040
8070,709 S Broadway,Pennsville,NJ,07:00,24:00,2041
14569,2348 Route #19,Warsaw,NY,06:00,22:00,2043
95928,2044 Forest Ave,Chico,CA,06:00,24:00,2044
21236,8118 Perry Hills Ct,Nottingham,MD,00:00,24:00,2045
4330,201 Civic Center Dr,Augusta,ME,06:00,24:00,2046
4965,1573 Main St,Palmyra,ME,06:00,22:00,2047
94533,2701 N Texas St,Fairfield,CA,07:00,23:00,2048
16601,2600 Plank Road Commons,Altoona,PA,00:00,24:00,2049
89015,300 E Lake Mead Pkwy,Henderson,NV,06:00,24:00,2050
86409,3396 Stockton Hill Rd,Kingman,AZ,06:00,24:00,2051
95482,1155 Airport Park Blvd,Ukiah,CA,06:00,23:00,2052
95988,470 N Airport Rd,Willows,CA,06:00,01:00,2053
95642,10355 Wicklow Way,Jackson,CA,07:00,23:00,2054
3301,344 Loudon Rd,Concord,NH,06:00,24:00,2055
12866,16 Old Gick Rd,Saratoga Springs,NY,00:00,24:00,2056
3461,750 Us Hwy 202,Rindge,NH,07:00,22:00,2057
27609,1725 New Hope Church Rd,Raleigh,NC,06:00,24:00,2058
15601,2200 Greengate Centre Cir,Greensburg,PA,00:00,24:00,2059
49080,412 Oaks Xing,Plainwell,MI,06:00,01:00,2061
49022,1400 Mall Dr,Benton Harbor,MI,06:00,01:00,2062
44515,6001 Mahoning Ave,Austintown,OH,00:00,24:00,2063
18337,220 Route 6 & 209,Milford,PA,00:00,24:00,2064
37923,8445 Walbrook Dr,Knoxville,TN,00:00,24:00,2065
77063,2727 Dunvale Rd,Houston,TX,00:00,24:00,2066
680,975 Ave Hostos Ste 2100,Mayaguez,PR,08:00,20:00,2067
19055,180 Levittown Ctr,Levittown,PA,00:00,24:00,2068
97501,1360 Center Dr,Medford,OR,06:00,24:00,2069
99503,3101 A St,Anchorage,AK,06:00,24:00,2070
99515,8900 Old Seward Hwy,Anchorage,AK,06:00,24:00,2071
784,Ave. Los Veteranos Km 134.7,Guayama,PR,08:00,20:00,2072
44130,10000 Brookpark Rd,Cleveland,OH,06:00,24:00,2073
99654,1350 S Seward Meridian Pkwy,Wasilla,AK,05:00,01:00,2074
97702,20120 Pinebrook Blvd,Bend,OR,00:00,24:00,2075
92532,31700 Grape St,Lake Elsinore,CA,06:00,23:00,2077
45750,804 Pike St,Marietta,OH,00:00,24:00,2078
49855,3225 Us Highway 41 W,Marquette,MI,00:00,24:00,2079
49014,6020 B Dr N,Battle Creek,MI,00:00,24:00,2080
33765,23106 Us Highway 19 N,Clearwater,FL,00:00,24:00,2081
90703,12701 Towne Center Dr,Cerritos,CA,06:00,24:00,2082
26508,75 Retail Circle,Morgantown,WV,00:00,24:00,2083
59715,1500 N 7th Ave,Bozeman,MT,00:00,24:00,2084
662,3535 Ave Militar Ste 193,Isabela,PR,08:00,20:00,2085
75093,1700 Dallas Pkwy,Plano,TX,00:00,24:00,2086
55127,850 East County Rd E,Vadnais Heights,MN,07:00,23:00,2087
14020,4133 Veterans Memorial Dr,Batavia,NY,00:00,24:00,2088
24202,21531 Market Center,Bristol,VA,00:00,24:00,2089
7416,230 State Highway,Franklin,NJ,07:00,24:00,2090
33126,8651 Nw 13th Ter,Doral,FL,00:00,24:00,2091
13669,3000 Ford Street Ext,Ogdensburg,NY,06:00,23:00,2092
13502,710 Horatio St,Utica,NY,00:00,24:00,2093
92083,1800 University Dr,Vista,CA,06:00,24:00,2094
2571,15 Tobey Rd,Wareham,MA,07:00,22:00,2095
18974,100 E Street Rd,Warminster,PA,06:00,01:00,2096
12534,460 Fairview Ave,Hudson,NY,00:00,24:00,2097
43219,3900 Morse Rd,Columbus,OH,00:00,24:00,2098
93446,180 Niblick Rd,Paso Robles,CA,07:00,22:00,2099
49721,1150 S Main St,Cheboygan,MI,00:00,24:00,2100
99337,2720 S Quillan St,Kennewick,WA,00:00,24:00,2101
49431,4854 W Us Highway 10,Ludington,MI,00:00,24:00,2102
2081,550 Providence Hwy,Walpole,MA,06:00,24:00,2103
12550,1201 Route 300,Newburgh,NY,00:00,24:00,2104
75244,4122 Lbj Freeway,Dallas,TX,00:00,24:00,2105
89502,2425 E 2nd St,Reno,NV,06:00,24:00,2106
14094,5735 South Transit Road,Lockport,NY,00:00,24:00,2107
8330,4620 Black Horse Pike,Mays Landing,NJ,00:00,24:00,2108
8332,2291 N 2nd St,Millville,NJ,07:00,24:00,2109
90723,14501 Lakewood Blvd,Paramount,CA,06:00,24:00,2110
35242,5335 Highway 280,Birmingham,AL,00:00,24:00,2111
85251,4915 N Pima Rd,Scottsdale,AZ,06:00,24:00,2112
85015,1607 W Bethany Home Rd,Phoenix,AZ,06:00,24:00,2113
32428,1621 Main St,Chipley,FL,00:00,24:00,2114
44663,231 Bluebell Dr Sw,New Philadelphia,OH,00:00,24:00,2115
12804,891 Route #9,Queensbury,NY,00:00,24:00,2116
93635,1575 West Pacheco Blvd,Los Banos,CA,06:00,24:00,2117
1462,301 Massachusetts Ave,Lunenburg,MA,07:00,22:00,2118
95035,301 Ranch Dr,Milpitas,CA,06:00,24:00,2119
13815,5396 State Highway 12,Norwich,NY,00:00,24:00,2120
98584,100 E Wallace Kneeland Blvd,Shelton,WA,00:00,24:00,2121
2322,30 Memorial Dr,Avon,MA,07:00,22:00,2122
75501,4000 New Boston Rd,Texarkana,TX,06:00,24:00,2123
45431,3360 Pentagon Blvd,Beavercreek,OH,00:00,24:00,2124
80214,7455 W Colfax Ave,Lakewood,CO,06:00,24:00,2125
96789,95-550 Lanikuhana Ave,Mililani,HI,00:00,24:00,2126
54401,4300 Rib Mountain Dr,Wausau,WI,00:00,24:00,2127
2338,295 Plymouth St,Halifax,MA,07:00,21:30,2128
16830,100 Supercenter Dr,Clearfield,PA,00:00,24:00,2129
3801,2460 Lafayette Rd,Portsmouth,NH,07:00,22:00,2130
66611,1301 Sw 37th St,Topeka,KS,00:00,24:00,2131
70809,10606 N Mall Dr,Baton Rouge,LA,00:00,24:00,2132
78735,5017 W Highway 290,Austin,TX,00:00,24:00,2133
28262,7735 N Tryon St,Charlotte,NC,06:00,24:00,2134
12043,139 Merchant Pl,Cobleskill,NY,00:00,24:00,2135
22701,801 James Madison Hwy,Culpeper,VA,00:00,24:00,2136
27707,5450 New Hope Commons Dr,Durham,NC,06:00,24:00,2137
3784,285 Plainfield Rd,West Lebanon,NH,07:00,22:00,2138
1905,780 Lynnway,Lynn,MA,07:00,22:00,2139
3860,46 N South Rd,North Conway,NH,06:00,22:00,2140
19148,1675 S Christopher Columbus Blvd,Philadelphia,PA,06:00,24:00,2141
3079,326 N Broadway,Salem,NH,07:00,23:00,2142
4976,60 Fairgrounds Mkt Pl,Skowhegan,ME,06:00,22:00,2143
6790,970 Torringford St,Torrington,CT,07:00,23:00,2144
18052,2601 Macarthur Rd Relocation,Whitehall,PA,06:00,00:30,2145
12010,101 Sanford Farms Shopping Ctr,Amsterdam,NY,00:00,24:00,2146
59804,4000 Hwy 93 South,Missoula,MT,06:00,24:00,2147
43050,1575 Coshocton Ave,Mount Vernon,OH,00:00,24:00,2149
92154,710 Dennery Road,San Diego,CA,06:00,24:00,2150
33323,12555 W Sunrise Blvd,Sunrise,FL,00:00,24:00,2151
12205,141 Washington Ave Extension,Albany,NY,06:00,24:00,2152
4005,50 Boulder Way,Biddeford,ME,06:00,24:00,2153
30096,2635 Pleasant Hill Rd,Duluth,GA,00:00,24:00,2154
1440,677 Timpany Blvd,Gardner,MA,07:00,24:00,2155
11953,750 Middle Country Rd,Middle Island,NY,07:00,22:00,2156
2747,506 State Rd,North Dartmouth,MA,07:00,23:00,2157
1532,200 Otis St,Northborough,MA,06:00,24:00,2158
14760,1869 Plaza Dr,Olean,NY,00:00,24:00,2159
23805,3500 S Crater Rd,Petersburg,VA,06:00,24:00,2160
94588,4501 Rosewood Dr,Pleasanton,CA,06:00,24:00,2161
6484,465 Bridgeport Ave,Shelton,CT,07:00,22:00,2163
14141,317 S Cascade Dr,Springville,NY,00:00,24:00,2164
13057,6438 Basile Rowe,East Syracuse,NY,06:00,23:00,2166
19341,270 Indian Run St,Exton,PA,07:00,24:00,2167
18235,1731 Blakeslee Boulevard Dr E,Lehighton,PA,00:00,24:00,2169
6360,220 Salem Tpke,Norwich,CT,07:00,22:00,2170
8540,101 Nassau Park Blvd,Princeton,NJ,07:00,24:00,2171
1085,141 Springfield Rd,Westfield,MA,06:00,24:00,2174
65737,18401 State Hwy 13,Branson West,MO,00:00,24:00,2175
33458,2144 W Indiantown Rd,Jupiter,FL,00:00,24:00,2176
92123,3382 Murphy Canyon Road,San Diego,CA,00:00,24:00,2177
4619,379 South St,Calais,ME,06:00,22:00,2178
1923,55 Brooksby Village Way,Danvers,MA,07:00,22:00,2180
92203,82-491 Avenue 42,Indio,CA,06:00,24:00,2181
4270,1240 Main St,Oxford,ME,06:00,24:00,2183
2771,1180 Fall River Ave,Seekonk,MA,07:00,22:00,2184
17870,980 N Susquehanna Trl,Selinsgrove,PA,00:00,24:00,2185
98801,2000 N Wenatchee Ave,Wenatchee,WA,00:00,24:00,2187
99577,18600 Eagle River Rd,Eagle River,AK,05:00,01:00,2188
89509,4855 Kietzke Ln,Reno,NV,06:00,24:00,2189
95776,1720 E Main St,Woodland,CA,06:00,24:00,2190
43506,1215 S Main St,Bryan,OH,00:00,24:00,2191
49931,995 Razorback Dr,Houghton,MI,00:00,24:00,2192
43952,100 Mall Dr,Steubenville,OH,00:00,24:00,2193
22315,5885 Kingstowne Blvd,Alexandria,VA,06:00,24:00,2194
7731,4900 U.s. Hwy #9,Howell,NJ,00:00,24:00,2195
98362,3411 E Kolonels Way,Port Angeles,WA,00:00,24:00,2196
44410,2016 Millennium Blvd,Cortland,OH,00:00,24:00,2197
55420,700 American Blvd E,Bloomington,MN,06:00,01:00,2198
43950,50739 Valley Plaza Dr,Saint Clairsville,OH,00:00,24:00,2199
6340,150 Gold Star Hwy,Groton,CT,07:00,22:00,2200
4062,30 Landing Rd,Windham,ME,06:00,24:00,2202
72712,702 Sw 8th St Pharmacy,Bentonville,AR,07:00,18:00,2203
60130,1300 Des Plaines Ave,Forest Park,IL,06:00,24:00,2204
17408,1000 Town Center Drive,York,PA,00:00,24:00,2205
92677,27470 Alicia Pkwy,Laguna Niguel,CA,06:00,23:00,2206
84047,7250 Union Park Ave,Midvale,UT,06:00,23:30,2207
18840,1887 Elmira St,Sayre,PA,00:00,24:00,2208
43701,2850 Maple Ave,Zanesville,OH,00:00,24:00,2209
14226,3290 Sheridan Dr,Amherst,NY,06:00,01:00,2210
44514,1300 Doral Dr,Poland,OH,00:00,24:00,2211
63125,3270 Telegraph Rd,Saint Louis,MO,00:00,24:00,2213
29206,5420 Forest Dr,Columbia,SC,06:00,23:00,2214
60561,2189 75th St,Darien,IL,00:00,24:00,2215
92610,26502 Towne Centre Dr,Foothill Ranch,CA,06:00,23:00,2218
65804,2021 E Independence St,Springfield,MO,00:00,24:00,2221
1876,333 Main St,Tewksbury,MA,06:00,24:00,2222
80031,9499 Sheridan Blvd,Westminster,CO,06:00,24:00,2223
5495,863 Harvest Ln,Williston,VT,07:00,22:00,2224
2896,7 Dowling Village Blvd,North Smithfield,RI,06:00,24:00,2225
90503,19340 Hawthorne Blvd,Torrance,CA,06:00,24:00,2226
2351,777 Brockton Ave,Abington,MA,07:00,22:00,2227
1201,555 Hubbard Ave Ste 12,Pittsfield,MA,07:00,24:00,2228
16801,373 Benner Pike,State College,PA,00:00,24:00,2230
61265,3930 44th Avenue Dr,Moline,IL,00:00,24:00,2231
6405,120 Commercial Pkwy,Branford,CT,06:00,24:00,2232
21704,7400 Guilford Dr,Frederick,MD,00:00,24:00,2233
13440,5815 Rome Taberg Rd,Rome,NY,00:00,24:00,2234
19438,651 Main St,Harleysville,PA,07:00,22:00,2236
33971,2523 Lee Blvd,Lehigh Acres,FL,06:00,24:00,2237
49444,1879 E Sherman Blvd,Muskegon,MI,00:00,24:00,2238
78245,8923 W Military Dr,San Antonio,TX,00:00,24:00,2239
791,Plz Paima Real Pr #3 Km 77.6,Humacao,PR,08:00,20:00,2240
98944,2675 E Lincoln Ave,Sunnyside,WA,05:00,24:00,2241
92801,440 N Euclid St,Anaheim,CA,06:00,24:00,2242
97756,300 Nw Oaktree Ln,Redmond,OR,00:00,24:00,2243
25705,3333 Us Route 60,Huntington,WV,00:00,24:00,2244
92057,705 College Blvd,Oceanside,CA,06:00,24:00,2245
27518,2010 Kildaire Farm Rd,Cary,NC,06:00,24:00,2247
21228,6205 Baltimore National Pike,Catonsville,MD,06:00,24:00,2248
98532,1601 Nw Louisiana Ave,Chehalis,WA,00:00,24:00,2249
45227,4000 Red Bank Rd,Cincinnati,OH,00:00,24:00,2250
91745,17150 Gale Ave,City Of Industry,CA,06:00,24:00,2251
18045,3722 Easton Nazareth Hwy,Easton,PA,00:00,24:00,2252
92021,13487 Camino Canada,El Cajon,CA,06:00,24:00,2253
8037,55 S White Horse Pike,Hammonton,NJ,07:00,24:00,2254
18202,761 Airport Rd,Hazle Township,PA,06:00,01:00,2255
27536,200 N Cooper Dr,Henderson,NC,06:00,24:00,2256
77040,13484 Northwest Fwy,Houston,TX,06:00,24:00,2257
22306,7910 Richmond Hwy,Alexandria,VA,06:00,24:00,2258
59901,170 Hutton Ranch Rd,Kalispell,MT,00:00,24:00,2259
2852,1031 Ten Rod Rd,North Kingstown,RI,07:00,24:00,2261
13820,5054 State Highway 23,Oneonta,NY,00:00,24:00,2262
19464,233 Shoemaker Rd,Pottstown,PA,00:00,24:00,2263
12303,1320 Altamont Ave,Schenectady,NY,07:00,22:00,2264
29680,3950 Grandview Dr,Simpsonville,SC,00:00,24:00,2265
44136,8585 Pearl Rd,Strongsville,OH,00:00,24:00,2266
1583,137 W Boylston St,West Boylston,MA,07:00,22:00,2267
98901,1600 E Chestnut Ave,Yakima,WA,06:00,24:00,2269
81303,1155 S Camino Del Rio,Durango,CO,00:00,24:00,2270
54166,1244 East Green Bay,Shawano,WI,00:00,24:00,2271
21613,2775 Dorchester Sq,Cambridge,MD,06:00,24:00,2272
48509,5323 E Court St N,Burton,MI,00:00,24:00,2273
55025,200 12th St Sw,Forest Lake,MN,00:00,24:00,2274
45056,5720 College Corner Pike,Oxford,OH,06:00,01:00,2275
46350,333 Boyd Blvd,La Porte,IN,00:00,24:00,2276
93612,323 W Shaw Ave,Clovis,CA,07:00,23:00,2277
16509,1825 Downs Dr,Erie,PA,00:00,24:00,2278
21060,6721 Chesapeake Center Dr,Glen Burnie,MD,06:00,24:00,2279
94040,600 Showers Dr,Mountain View,CA,07:00,22:00,2280
15122,2351 Century Dr,West Mifflin,PA,00:00,24:00,2281
6088,44 Prospect Hill Road,East Windsor,CT,00:00,24:00,2282
2816,650 Centre Of New England Blvd,Coventry,RI,00:00,24:00,2283
6770,1100 New Haven Rd,Naugatuck,CT,00:00,24:00,2284
13350,103 N Caroline St,Herkimer,NY,00:00,24:00,2285
11720,161 Centereach Mall,Centereach,NY,07:00,23:00,2286
16101,2501 W State St,New Castle,PA,00:00,24:00,2287
91766,80 Rio Rancho Rd,Pomona,CA,06:00,24:00,2288
5201,210 Northside Dr,Bennington,VT,06:00,24:00,2289
21117,9750 Reistertown Road A,Owings Mills,MD,06:00,24:00,2290
91910,75 North Broadway,Chula Vista,CA,06:00,24:00,2291
91722,1275 N Azusa Ave,Covina,CA,06:00,24:00,2292
80439,952 Swede Gulch Rd,Evergreen,CO,06:00,23:00,2293
8822,152 Route 31 North,Flemington,NJ,07:00,24:00,2294
23227,7901 Brook Rd,Richmond,VA,00:00,24:00,2295
91381,25450 The Old Rd,Stevenson Ranch,CA,07:00,24:00,2297
6416,161 Berlin Rd,Cromwell,CT,00:00,24:00,2299
15275,250 Summit Park Dr,Pittsburgh,PA,00:00,24:00,2300
617,Carr. #2 Km. 56.6,Barceloneta,PR,08:00,20:00,2302
35476,5710 Mcfarland Blvd,Northport,AL,00:00,24:00,2306
84095,11328 S Jordan Gtwy,South Jordan,UT,05:00,24:00,2307
96766,3-3300 Kuhio Hwy,Lihue,HI,06:00,24:00,2308
45069,8288 Cincinnati Dayton Rd,West Chester,OH,00:00,24:00,2309
37924,3051 Kinzel Way,Knoxville,TN,06:00,24:00,2310
46750,2800 Wal Mart Dr,Huntington,IN,00:00,24:00,2311
24012,4807 Valley View Blvd Nw,Roanoke,VA,06:00,01:00,2312
44241,905 Singletary Dr,Streetsboro,OH,00:00,24:00,2313
96797,94-595 Kupuohi St,Waipahu,HI,05:00,01:00,2314
97338,321 Ne Kings Valley Hwy,Dallas,OR,07:00,22:00,2315
44070,24801 Brookpark Rd,North Olmsted,OH,00:00,24:00,2316
98311,6797 State Highway 303 Ne,Bremerton,WA,06:00,23:00,2317
15701,3100 Oakland Ave,Indiana,PA,00:00,24:00,2318
98277,1250 Sw Erie St,Oak Harbor,WA,06:00,01:00,2319
97424,901 Row River Rd,Cottage Grove,OR,06:00,24:00,2320
96740,75-1015 Henry St,Kailua Kona,HI,06:00,24:00,2321
38018,577 N Germantown Pkwy,Cordova,TN,00:00,24:00,2322
44224,3520 Hudson Dr,Stow,OH,00:00,24:00,2323
98366,3497 Bethel Rd Se,Port Orchard,WA,00:00,24:00,2325
14843,1000 State Route 36,Hornell,NY,07:00,22:00,2326
29615,2014 Wade Hampton Blvd,Greenville,SC,06:00,24:00,2328
1364,555 E Main St,Orange,MA,07:00,24:00,2329
3867,116 Farmington Rd,Rochester,NH,06:00,23:00,2330
6385,155 Waterford Parkway No.,Waterford,CT,00:00,24:00,2331
5478,700 Tuckers Way,Saint Albans,VT,06:00,22:00,2332
92307,20251 Hwy 18,Apple Valley,CA,06:00,22:00,2333
17602,2034 Lincoln Hwy E,Lancaster,PA,00:00,24:00,2334
53714,4198 Nakoosa Trl,Madison,WI,06:00,23:00,2335
2360,300 Colony Place Rd,Plymouth,MA,00:00,24:00,2336
24151,550 Old Franklin Tpke,Rocky Mount,VA,00:00,24:00,2337
49684,2640 Crossing Cir,Traverse City,MI,00:00,24:00,2338
47906,2801 Northwestern Ave,West Lafayette,IN,00:00,24:00,2339
17522,890 E Main St,Ephrata,PA,00:00,24:00,2340
2169,301 Falls Blvd,Quincy,MA,07:00,22:00,2341
949,Carr #2 Sector La Virgencita Inter,Toa Baja,PR,06:00,24:00,2346
29412,1231 Folly Rd,Charleston,SC,00:00,24:00,2348
43567,485 Airport Hwy,Wauseon,OH,00:00,24:00,2350
12414,30 Catskill Cmns,Catskill,NY,00:00,24:00,2351
55008,2101 2nd Ave Se,Cambridge,MN,00:00,24:00,2352
48309,2500 S Adams Rd,Rochester Hills,MI,00:00,24:00,2354
14221,5033 Transit Rd,Williamsville,NY,00:00,24:00,2355
20876,20910 Frederick Rd,Germantown,MD,06:00,24:00,2357
49707,1180 M 32 W,Alpena,MI,00:00,24:00,2358
44004,3551 N Ridge Rd E,Ashtabula,OH,00:00,24:00,2359
30338,4725 Ashford Dunwoody Rd,Dunwoody,GA,06:00,24:00,2360
44720,4572 Mega St Nw,North Canton,OH,00:00,24:00,2361
44121,1868 Warrensville Center Rd,South Euclid,OH,06:00,24:00,2362
18344,3271 Route 940,Mount Pocono,PA,06:00,24:00,2365
2760,1470 S Washington St,North Attleboro,MA,06:00,24:00,2366
55063,950 11th St Sw,Pine City,MN,00:00,24:00,2367
18301,355 Lincoln Ave,East Stroudsburg,PA,06:00,24:00,2368
3276,33 Sherwood Drive,Tilton,NH,06:00,24:00,2369
12180,760 Hoosick Rd,Troy,NY,06:00,24:00,2370
6492,844 N Colony Rd,Wallingford,CT,00:00,24:00,2371
2888,840 Post Rd,Warwick,RI,07:00,22:00,2373
98001,762 Outlet Collection Way,Auburn,WA,00:00,24:00,2385
1082,352 Palmer Rd,Ware,MA,06:00,24:00,2386
33511,11110 Causeway Blvd,Brandon,FL,06:00,24:00,2387
47371,950 W Votaw St,Portland,IN,06:00,01:00,2388
34654,8745 Little Road,New Port Richey,FL,06:00,24:00,2391
34239,3560 Bee Ridge Rd,Sarasota,FL,00:00,24:00,2392
73160,640 Se 4th St,Moore,OK,06:00,24:00,2393
73119,1500 Sw 59th St,Oklahoma City,OK,00:00,24:00,2394
74137,9411 S Delaware Ave,Tulsa,OK,06:00,24:00,2395
33436,12700 S Military Trl,Boynton Beach,FL,06:00,23:00,2396
76063,2951 Matlock Rd,Mansfield,TX,06:00,24:00,2397
3801,2200 Woodbury Ave,Newington,NH,07:00,24:00,2398
3103,725 Gold St,Manchester,NH,06:00,24:00,2399
45601,85 River Trace Lane,Chillicothe,OH,00:00,24:00,2400
91010,1600 Mountain Ave,Duarte,CA,06:00,24:00,2401
89801,2944 Mountain City Hwy,Elko,NV,05:00,24:00,2402
98374,310 31st Ave Se,Puyallup,WA,00:00,24:00,2403
78216,8500 Jones Maltsberger Rd,San Antonio,TX,00:00,24:00,2404
14075,5360 Southwestern Blvd,Hamburg,NY,00:00,24:00,2405
33483,3155 South Federal Highway,Delray Beach,FL,06:00,24:00,2406
21043,3200 North Ridge Rd,Ellicott City,MD,00:00,24:00,2412
27513,973 N Harrison Ave,Cary,NC,06:00,24:00,2414
49770,1850 Anderson Rd,Petoskey,MI,00:00,24:00,2417
95667,4300 Missouri Flat Rd,Placerville,CA,06:00,24:00,2418
19971,18922 Rehoboth Mall Blvd,Rehoboth Beach,DE,06:00,24:00,2419
15012,100 Sara Way,Belle Vernon,PA,00:00,24:00,2420
54024,2212 Glacier Dr,Saint Croix Falls,WI,00:00,24:00,2421
97051,2295 Gable Rd,Saint Helens,OR,00:00,24:00,2422
987,Parque Escorial,Carolina,PR,00:00,24:00,2423
12883,1134 Wicker St,Ticonderoga,NY,06:00,01:00,2424
62234,1101 Belt Line Rd,Collinsville,IL,06:00,24:00,2425
43228,5200 West Pointe Plaza,Columbus,OH,06:00,24:00,2426
75243,9301 Forest Ln,Dallas,TX,00:00,24:00,2427
67114,1701 S Kansas Rd,Newton,KS,00:00,24:00,2428
45504,2100 N Bechtle Ave,Springfield,OH,00:00,24:00,2429
72143,1330 W Beebe Capps Expy,Searcy,AR,06:00,24:00,2431
68512,2500 Jamie Ln,Lincoln,NE,06:00,01:00,2432
75040,101 W Buckingham Rd,Garland,TX,06:00,24:00,2433
49801,1920 S Stephenson Ave,Iron Mountain,MI,00:00,24:00,2434
21222,2399 North Point Blvd,Dundalk,MD,06:00,24:00,2435
21784,"6400a Ridge Road, Suite 1",Sykesville,MD,06:00,24:00,2436
20186,700 James Madison Hwy,Warrenton,VA,00:00,24:00,2437
22554,217 Garrisonville Rd,Stafford,VA,00:00,24:00,2438
77523,8700 N Highway 146,Baytown,TX,00:00,24:00,2439
28779,210 Walmart Plz,Sylva,NC,00:00,24:00,2440
45013,1505 Main St,Hamilton,OH,06:00,24:00,2441
64119,5261 North Antioch Road,Kansas City,MO,06:00,24:00,2442
57108,7821 South Minnesota Avenue,Sioux Falls,SD,00:00,24:00,2443
13421,2024 Genesee St,Oneida,NY,00:00,24:00,2444
19440,1515 Bethlehem Pike,Hatfield,PA,00:00,24:00,2445
18951,195 N West End Blvd,Quakertown,PA,00:00,24:00,2446
45238,2322 Ferguson Rd,Cincinnati,OH,07:00,23:00,2447
55016,9300 East Point Douglas Rd S,Cottage Grove,MN,00:00,24:00,2448
725,Rafael Cordero Ave #301,Caguas,PR,08:00,20:00,2449
98226,4420 Meridian St,Bellingham,WA,06:00,24:00,2450
87110,4700 Cutler Ave Ne,Albuquerque,NM,06:00,24:00,2451
53212,401 E Capitol Dr,Milwaukee,WI,06:00,24:00,2452
89406,2333 Reno Hwy,Fallon,NV,00:00,24:00,2453
59404,701 Smelter Ave Ne,Great Falls,MT,00:00,24:00,2455
95670,10655 Folsom Blvd,Rancho Cordova,CA,06:00,24:00,2457
93906,1800 N Main,Salinas,CA,06:00,24:00,2458
34233,4381 Cattlemen Rd,Sarasota,FL,00:00,24:00,2459
19973,22899 Sussex Hwy,Seaford,DE,00:00,24:00,2460
75034,355 Stonebrook Pkwy,Frisco,TX,06:00,01:00,2463
95832,8270 Delta Shores Circle,Sacramento,CA,06:00,24:00,2464
30815,3697 Windsor Spring Rd,Hephzibah,GA,00:00,24:00,2465
76017,4851 S Cooper Street,Arlington,TX,05:00,24:00,2466
94928,901 Golf Course Drive,Rohnert Park,CA,06:00,23:00,2468
98632,540 7th Ave,Longview,WA,06:00,24:00,2469
43016,5900 Britton Pkwy,Dublin,OH,06:00,01:00,2471
27103,4550 Kester Mill Rd,Winston Salem,NC,00:00,24:00,2472
96720,325 E Makaala St,Hilo,HI,05:00,24:00,2473
26726,R.r. #4 Box 82,Keyser,WV,00:00,24:00,2474
30013,1436 Dogwood Dr Se,Conyers,GA,00:00,24:00,2475
99324,1700 Se Meadowbrook Blvd,College Place,WA,05:00,01:00,2476
97471,2125 Nw Stewart Pkwy,Roseburg,OR,00:00,24:00,2477
92115,3412 College Ave,San Diego,CA,06:00,23:00,2479
18431,723a Old Willow Ave,Honesdale,PA,00:00,24:00,2480
17866,9300 State Route 61,Coal Township,PA,00:00,24:00,2481
85201,857 N Dobson Rd,Mesa,AZ,06:00,01:00,2482
89178,6973 Blue Diamond Rd,Las Vegas,NV,06:00,24:00,2483
33440,1005 W Sugarland Hwy,Clewiston,FL,00:00,24:00,2484
83852,476999 Highway 95,Ponderay,ID,00:00,24:00,2485
95129,4080 Stevens Creek Blvd,San Jose,CA,06:00,23:00,2486
92882,1560 West Sixth Street,Corona,CA,06:00,24:00,2487
35601,1203 6th Ave Se,Decatur,AL,00:00,24:00,2488
66205,5150 Roe Blvd,Roeland Park,KS,07:00,23:00,2490
61834,4101 N Vermilion St Ste A,Danville,IL,00:00,24:00,2491
97801,2203 Sw Court Ave,Pendleton,OR,06:00,24:00,2492
49546,5859 28th St Se,Grand Rapids,MI,06:00,01:00,2493
92054,2100 Vista Way,Oceanside,CA,06:00,23:00,2494
92683,13331 Beach Blvd,Westminster,CA,06:00,23:00,2495
28607,200 Watauga Village Dr,Boone,NC,00:00,24:00,2496
8865,1300 Us Highway 22,Phillipsburg,NJ,00:00,24:00,2497
32835,8801 Conroy Windermere Rd,Orlando,FL,06:00,24:00,2499
961,501 Ave West Main,Bayamon,PR,08:00,20:00,2501
15650,100 Colony Ln,Latrobe,PA,00:00,24:00,2502
7840,1885 State Route 57 Ste 100,Hackettstown,NJ,06:00,01:00,2503
12401,601 Frank Stottile Blvd,Kingston,NY,00:00,24:00,2504
77459,5501 Highway 6,Missouri City,TX,00:00,24:00,2505
44266,2600 State Route 59,Ravenna,OH,00:00,24:00,2506
93455,2220 S Bradley Rd,Santa Maria,CA,07:00,23:00,2507
83709,8300 W Overland Rd,Boise,ID,05:00,24:00,2508
53014,810 S Irish Rd,Chilton,WI,06:00,01:00,2509
54548,8760 Northridge Way,Minocqua,WI,00:00,24:00,2510
84003,949 W Grassland Dr,American Fork,UT,00:00,24:00,2511
85023,1825 W Bell Rd,Phoenix,AZ,06:00,24:00,2512
30533,270 Walmart Way,Dahlonega,GA,00:00,24:00,2513
21851,2132 Old Snow Hill Rd,Pocomoke City,MD,06:00,24:00,2514
85018,3721 E Thomas Rd,Phoenix,AZ,06:00,24:00,2515
98057,743 Rainier Avenue South,Renton,WA,06:00,24:00,2516
92704,3600 W Mcfadden Ave,Santa Ana,CA,06:00,24:00,2517
8691,700 Marketplace Blvd,Hamilton,NJ,07:00,24:00,2518
17361,698 Shrewsbury Commons Ave,Shrewsbury,PA,00:00,24:00,2519
22405,125 Washington Square Plz,Fredericksburg,VA,00:00,24:00,2520
49829,601 N Lincoln Rd,Escanaba,MI,00:00,24:00,2522
92821,2595 E Imperial Hwy,Brea,CA,07:00,23:00,2523
91326,19821 Rinaldi St,Porter Ranch,CA,06:00,24:00,2526
92673,951 Avenida Pico,San Clemente,CA,06:00,23:00,2527
17751,167 Hogan Blvd,Mill Hall,PA,00:00,24:00,2528
23456,2021 Lynnhaven Pkwy,Virginia Beach,VA,00:00,24:00,2529
5701,90 Shopping Plz,Rutland,VT,07:00,22:00,2530
10547,3133 E Main St,Mohegan Lake,NY,07:00,24:00,2531
53511,2785 Milwaukee Rd,Beloit,WI,00:00,24:00,2532
32563,3767 Gulf Breeze Pkwy,Gulf Breeze,FL,00:00,24:00,2533
36301,3300 S Oates St,Dothan,AL,00:00,24:00,2534
17970,500 Terry Rich Blvd,Saint Clair,PA,00:00,24:00,2535
93274,1110 E Prosperity Ave,Tulare,CA,07:00,23:00,2536
96003,1515 Dana Dr,Redding,CA,06:00,24:00,2537
97408,1040 Green Acres Rd,Eugene,OR,06:00,22:00,2538
99037,15727 E Broadway Ave,Spokane Valley,WA,00:00,24:00,2539
16214,63 Perkins Rd,Clarion,PA,00:00,24:00,2540
44601,2700 W State St,Alliance,OH,00:00,24:00,2541
45875,1720 N Perry St,Ottawa,OH,07:00,24:00,2542
18640,390 Route 315 Hwy,Pittston,PA,00:00,24:00,2543
46368,6087 Us Highway 6,Portage,IN,00:00,24:00,2544
54143,2900 Roosevelt Rd,Marinette,WI,00:00,24:00,2545
92865,2300 N Tustin St,Orange,CA,06:00,23:00,2546
12701,41 Anawana Lake Rd,Monticello,NY,00:00,24:00,2547
41503,28402 Us Highway 119,South Williamson,KY,00:00,24:00,2548
99218,9212 N Colton St,Spokane,WA,00:00,24:00,2549
98664,221e Ne 104th Ave,Vancouver,WA,00:00,24:00,2550
21771,209 E Ridgeville Blvd,Mount Airy,MD,06:00,24:00,2551
97266,4200 Se 82nd Ave,Portland,OR,06:00,24:00,2552
95492,6650 Hembree Ln,Windsor,CA,06:00,24:00,2553
85392,13055 W Rancho Santa Fe Blvd,Avondale,AZ,06:00,24:00,2554
19720,117 Wilton Blvd,New Castle,DE,07:00,23:00,2555
93420,1168 W Branch St,Arroyo Grande,CA,07:00,22:00,2556
93312,8400 Rosedale Hwy,Bakersfield,CA,06:00,24:00,2557
48314,44575 Mound Rd,Sterling Heights,MI,06:00,01:00,2558
48312,33201 Van Dyke Ave,Sterling Heights,MI,00:00,24:00,2559
21811,11416 Ocean Gtwy,Berlin,MD,00:00,24:00,2560
16506,5350 W. Ridge Rd,Erie,PA,00:00,24:00,2561
67735,2160 C0mmerce Road,Goodland,KS,06:00,24:00,2562
47454,735 N Gospel St,Paoli,IN,06:00,01:00,2563
22835,1036 Us Highway 211 W,Luray,VA,06:00,01:00,2564
24572,197 Madison Heights Sq,Madison Heights,VA,00:00,24:00,2565
25414,96 Patrick Henry Way,Charles Town,WV,00:00,24:00,2566
49418,4542 Kenowa Ave Sw,Grandville,MI,00:00,24:00,2567
91402,8333 Van Nuys Blvd,Panorama City,CA,07:00,23:00,2568
98003,1900 S 314th St,Federal Way,WA,06:00,24:00,2571
45690,990 W Emmitt Ave,Waverly,OH,06:00,01:00,2572
17013,60 Noble Blvd,Carlisle,PA,00:00,24:00,2574
72034,3900 Dave Ward Dr,Conway,AR,00:00,24:00,2575
25313,100 Nitro Market Pl,Cross Lanes,WV,00:00,24:00,2576
21030,1 Frankel Way,Cockeysville,MD,00:00,24:00,2577
69337,510 Linden St,Chadron,NE,06:00,01:00,2579
28328,1415 Sunset Ave,Clinton,NC,00:00,24:00,2580
13031,5399 W Genesee St,Camillus,NY,00:00,24:00,2581
8809,Route 513 And I-78,Clinton,NJ,06:00,22:00,2582
11553,1123 Jerusalem Ave,Uniondale,NY,07:00,23:00,2583
30084,4375 Lawrenceville Hwy,Tucker,GA,06:00,24:00,2584
6614,150 Barnum Avenue Cutoff,Stratford,CT,07:00,22:00,2585
14225,2500 Walden Ave,Cheektowaga,NY,06:00,24:00,2586
72023,304 S Rockwood Dr,Cabot,AR,00:00,24:00,2587
15137,100 Walmart Dr,North Versailles,PA,00:00,24:00,2588
97006,7650 Ne Shaleen Street,Hillsboro,OR,06:00,24:00,2590
33029,151 Sw 184th Ave,Pembroke Pines,FL,00:00,24:00,2591
89032,1807 W Craig Rd,North Las Vegas,NV,06:00,24:00,2592
89123,2310 E Serene Ave,Las Vegas,NV,00:00,24:00,2593
98087,1400 164th St Sw,Lynnwood,WA,07:00,24:00,2594
98271,8924 Quilceda Blvd,Marysville,WA,00:00,24:00,2595
98273,2301 Freeway Dr,Mount Vernon,WA,00:00,24:00,2596
16319,10 Kimberly Ln,Cranberry,PA,00:00,24:00,2597
95834,3661 Truxel Rd,Sacramento,CA,06:00,23:00,2598
78249,5555 De Zavala Rd,San Antonio,TX,00:00,24:00,2599
63005,100 Thf Blvd,Chesterfield,MO,07:00,23:00,2600
15044,300 Walmart Dr,Gibsonia,PA,06:00,01:00,2603
7860,26 Hampton House Rd,Newton,NJ,07:00,22:00,2604
45631,2145 Eastern Ave,Gallipolis,OH,00:00,24:00,2605
59860,36318 Memory Lane,Polson,MT,06:00,24:00,2607
59301,3205 Stower St,Miles City,MT,06:00,24:00,2608
90712,2770 Carson St,Lakewood,CA,06:00,24:00,2609
25601,77 Norman Morgan Blvd,Logan,WV,00:00,24:00,2610
15666,2100 Summit Ridge Plz,Mount Pleasant,PA,00:00,24:00,2611
79936,1850 N Zaragoza Rd,El Paso,TX,00:00,24:00,2612
44820,1875 E Mansfield St,Bucyrus,OH,06:00,01:00,2613
19560,5370 Allentown Pike,Temple,PA,00:00,24:00,2614
31602,3274 Inner Perimeter Rd,Valdosta,GA,00:00,24:00,2615
63366,1307 Highway K,O Fallon,MO,00:00,24:00,2616
89445,3010 Potato Rd,Winnemucca,NV,00:00,24:00,2617
48390,3301 Pontiac Trail Road,Commerce,MI,06:00,01:00,2618
48642,910 Joe Mann Blvd,Midland,MI,00:00,24:00,2619
49058,1618 W M 43 Hwy,Hastings,MI,06:00,24:00,2620
93065,255 Cochran St,Simi Valley,CA,07:00,22:00,2621
75006,1025 West Trinity Mills Mail,Carrollton,TX,06:00,19:00,2625
32060,6868 Us Highway 129,Live Oak,FL,00:00,24:00,2626
33612,2701 E Fletcher Ave,Tampa,FL,00:00,24:00,2627
40503,4051 Nicholasville Rd,Lexington,KY,00:00,24:00,2628
1588,100 Valley Pkwy,Whitinsville,MA,06:00,24:00,2629
31545,1100 N 1st St,Jesup,GA,00:00,24:00,2630
48150,29555 Plymouth Rd,Livonia,MI,06:00,24:00,2631
85020,115 E Dunlap Ave,Phoenix,AZ,06:00,24:00,2632
8854,1303 Centennial Ave,Piscataway,NJ,07:00,24:00,2633
3581,561 Main St,Gorham,NH,06:00,22:00,2634
92646,8230 Talbert Ave,Huntington Beach,CA,07:00,22:00,2636
10950,288 Larkin Dr,Monroe,NY,00:00,24:00,2637
41102,12504 U.s. Route 60,Ashland,KY,00:00,24:00,2638
3249,1458 Lake Shore Rd,Gilford,NH,07:00,22:00,2639
1970,450 Highland Ave,Salem,MA,07:00,22:00,2640
55124,7835 150th St W,Apple Valley,MN,00:00,24:00,2642
55129,10240 Hudson Rd,Woodbury,MN,06:00,23:00,2643
48638,5825 Brockway Rd,Saginaw,MI,00:00,24:00,2644
23824,1451 S Main St,Blackstone,VA,06:00,23:00,2645
24134,160 Kinter Way,Pearisburg,VA,06:00,01:00,2646
22664,461 W Reservoir Rd,Woodstock,VA,00:00,24:00,2647
94577,1919 Davis St,San Leandro,CA,06:00,24:00,2648
75063,1635 Market Place Blvd.,Irving,TX,00:00,24:00,2649
19154,4301 Byberry Road,Philadelphia,PA,06:00,24:00,2650
8835,100 North Main Street,Manville,NJ,00:00,24:00,2651
87020,1000 Robert Rd,Grants,NM,07:00,24:00,2652
88130,1604 E Spruce St,Portales,NM,06:00,01:00,2653
42167,1650 Edmonton Rd,Tompkinsville,KY,06:00,24:00,2654
87532,1610 No. Riverside Drive,Espanola,NM,06:00,24:00,2656
53095,1515 W Paradise Dr,West Bend,WI,00:00,24:00,2658
4105,206 Us Rt 1,Falmouth,ME,07:00,24:00,2659
1864,72 Main St,North Reading,MA,07:00,22:00,2660
24426,313 Thacker Ave,Covington,VA,06:00,01:00,2662
15931,300 Walmart Dr,Ebensburg,PA,00:00,24:00,2663
15767,21920 Route #119,Punxsutawney,PA,06:00,01:00,2664
70460,167 Northshore Blvd,Slidell,LA,00:00,24:00,2665
43207,3579 S High St,Columbus,OH,06:00,23:00,2666
75228,7401 Samuell Blvd,Dallas,TX,06:00,24:00,2667
53177,3049 S Oakes Rd,Sturtevant,WI,00:00,24:00,2668
85286,1175 S Arizona Ave,Chandler,AZ,06:00,24:00,2671
81052,1432 E Olive St,Lamar,CO,06:00,24:00,2672
16125,45 Williamson Rd,Greenville,PA,00:00,24:00,2674
46545,316 Indian Ridge Blvd,Mishawaka,IN,00:00,24:00,2678
46514,175 Country Road #6 West,Elkhart,IN,00:00,24:00,2679
46628,3701 Portage Rd,South Bend,IN,00:00,24:00,2680
3561,615 Meadow St,Littleton,NH,06:00,22:00,2681
5602,282 Berlin Mall Rd,Berlin,VT,07:00,24:00,2682
1035,337 Russell St,Hadley,MA,07:00,22:00,2683
26155,1142 S Bridge St,New Martinsville,WV,06:00,01:00,2684
72712,3701 Se Dodson Rd,Bentonville,AR,07:00,21:00,2685
72712,1703 E. Central Ave,Bentonville,AR,06:00,24:00,2686
29651,14055 E Wade Hampton Blvd,Greer,SC,00:00,24:00,2687
75703,6801 S Broadway Ave,Tyler,TX,00:00,24:00,2688
93703,3131 N Cedar Ave,Fresno,CA,06:00,23:00,2689
35758,8650 Madison Blvd,Madison,AL,00:00,24:00,2690
47150,2910 Grant Line Rd,New Albany,IN,00:00,24:00,2691
48051,45400 Marketplace Blvd,Chesterfield,MI,00:00,24:00,2692
48430,3700 Owen Rd,Fenton,MI,06:00,24:00,2693
63122,1202 S Kirkwood Rd,Kirkwood,MO,00:00,24:00,2694
34711,1450 Johns Lake Rd,Clermont,FL,00:00,24:00,2695
26836,11 Harness Rd,Moorefield,WV,06:00,24:00,2696
94531,4893 Lone Tree Way,Antioch,CA,06:00,24:00,2697
30501,1435 Thompson Bridge Rd,Gainesville,GA,06:00,24:00,2699
48386,9190 Highland Rd,White Lake,MI,00:00,24:00,2700
65714,1102 N Massey Blvd,Nixa,MO,00:00,24:00,2702
29505,2014 S Irby St,Florence,SC,00:00,24:00,2703
27317,1021 High Point St,Randleman,NC,00:00,24:00,2704
23851,1500 Armory Dr,Franklin,VA,00:00,24:00,2705
70058,1501 Manhattan Blvd,Harvey,LA,06:00,23:00,2706
92592,32225 Temecula Pkwy,Temecula,CA,06:00,24:00,2708
99901,4230 Don King Rd,Ketchikan,AK,07:00,22:00,2710
99615,2911 Mill Bay Rd,Kodiak,AK,07:00,22:00,2711
29577,541 Seaboard St,Myrtle Beach,SC,00:00,24:00,2712
35235,5919 Trussville Crossings Pkwy,Trussville,AL,00:00,24:00,2713
51301,500 11th St Sw,Spencer,IA,00:00,24:00,2714
39540,3615 Sangani Blvd,Diberville,MS,00:00,24:00,2715
52404,3601 29th Ave Sw,Cedar Rapids,IA,00:00,24:00,2716
39402,5901 U S Highway 49,Hattiesburg,MS,00:00,24:00,2717
77096,9555 S Post Oak Rd,Houston,TX,06:00,24:00,2718
6010,1400 Farmington Ave,Bristol,CT,07:00,24:00,2719
39110,127 Grandview Blvd,Madison,MS,00:00,24:00,2720
736,Plaza Cayey 102 8000 Ave. Jesus T. Piero,Cayey,PR,08:00,20:00,2721
99701,537 Johansen Expy,Fairbanks,AK,00:00,24:00,2722
35148,690 Highway 78,Sumiton,AL,00:00,24:00,2723
77506,1107 Shaver St,Pasadena,TX,00:00,24:00,2724
43035,8659 Columbus Pike,Lewis Center,OH,00:00,24:00,2725
43068,2793 Taylor Road Ext,Reynoldsburg,OH,00:00,24:00,2726
33034,33501 S Dixie Hwy,Florida City,FL,00:00,24:00,2727
62521,4625 E Maryland St,Decatur,IL,00:00,24:00,2728
80524,1250 E Magnolia St,Fort Collins,CO,00:00,24:00,2729
27886,110 River Oaks Dr,Tarboro,NC,06:00,24:00,2730
30504,2892 Browns Bridge Rd,Gainesville,GA,06:00,24:00,2731
30180,600 Carrollton Villa Rica Hwy,Villa Rica,GA,00:00,24:00,2732
31069,1009 Saint Patricks Dr,Perry,GA,00:00,24:00,2733
73071,601 12th Ave Ne,Norman,OK,00:00,24:00,2734
95823,6051 Florin Rd,Sacramento,CA,06:00,24:00,2735
36507,701 Mcmeans Ave,Bay Minette,AL,00:00,24:00,2739
33647,19910 Bruce B Downs Blvd,Tampa,FL,00:00,24:00,2740
72712,3510 Se 14th St,Bentonville,AR,00:00,24:00,2741
72762,1375 Market Square Dr,Springdale,AR,06:00,24:00,2742
72120,8801 Highway 107,Sherwood,AR,06:00,24:00,2743
72903,4900 Rogers Ave Ste 101j,Fort Smith,AR,06:00,24:00,2744
72703,2690 E Citizens Dr,Fayetteville,AR,06:00,24:00,2745
2886,650 Bald Hill Rd,Warwick,RI,07:00,24:00,2747
36542,170 E Fort Morgan Rd,Gulf Shores,AL,00:00,24:00,2748
28777,2514 Halltown Rd,Spruce Pine,NC,06:00,24:00,2749
80110,601 Englewood Pkwy,Englewood,CO,06:00,24:00,2751
80022,5990 Dahlia St,Commerce City,CO,06:00,24:00,2752
30525,1455 Highway 441 S,Clayton,GA,06:00,01:00,2753
30830,1500 N Liberty St,Waynesboro,GA,06:00,24:00,2754
39232,5341 Highway 25,Flowood,MS,00:00,24:00,2755
21701,2421 Monocacy Blvd,Frederick,MD,00:00,24:00,2756
37129,2012 Memorial Blvd,Murfreesboro,TN,06:00,01:00,2757
3264,683 Tenney Mountain Hwy,Plymouth,NH,06:00,22:00,2758
36545,4206 N College Ave,Jackson,AL,06:00,23:00,2760
24637,13320 G.c. Peery Hwy,Pounding Mill,VA,00:00,24:00,2761
24141,7373 Peppers Ferry Blvd,Radford,VA,00:00,24:00,2762
78537,900 N. Salinas Boulevard,Donna,TX,00:00,24:00,2763
50009,3501 8th St Sw,Altoona,IA,00:00,24:00,2764
78566,1004 W. Ocean Boulevard,Los Fresnos,TX,06:00,24:00,2765
85260,15355 N Northsight Blvd,Scottsdale,AZ,00:00,24:00,2766
85215,4505 E Mckellips Rd,Mesa,AZ,00:00,24:00,2767
85204,1955 S Stapley Dr,Mesa,AZ,06:00,24:00,2768
78218,5626 Walzem Road,San Antonio,TX,05:00,24:00,2769
47960,1088 W Broadway St,Monticello,IN,06:00,01:00,2771
28461,1675 N Howe St,Southport,NC,06:00,23:00,2772
30241,955 Lafayette Parkway,Lagrange,GA,06:00,24:00,2773
43016,7730 Sawmill Road,Dublin,OH,06:00,01:00,2774
85374,13770 W Bell Rd,Surprise,AZ,00:00,24:00,2777
85128,1695 N Arizona Blvd,Coolidge,AZ,00:00,24:00,2778
83607,5108 Cleveland Blvd,Caldwell,ID,05:00,24:00,2780
83686,2100 12th Ave Rd,Nampa,ID,05:00,24:00,2781
83647,2745 American Legion Blvd,Mountain Home,ID,00:00,24:00,2782
40511,500 W New Circle Rd,Lexington,KY,00:00,24:00,2783
68310,3620 N 6th St,Beatrice,NE,06:00,01:00,2784
14564,441 Commerce Dr,Victor,NY,07:00,23:00,2785
46123,9500 E Us Highway 36,Avon,IN,00:00,24:00,2786
46240,7325 N Keystone Ave,Indianapolis,IN,06:00,24:00,2787
46112,400 W Northfield Dr,Brownsburg,IN,00:00,24:00,2788
33436,3200 Old Boynton Rd,Boynton Beach,FL,00:00,24:00,2789
21740,10420 Walmart Drive,Hagerstown,MD,00:00,24:00,2790
19947,4 College Park Ln,Georgetown,DE,06:00,24:00,2791
25570,100 Mcginnis Dr,Wayne,WV,06:00,24:00,2792
27284,1130 S Main St,Kernersville,NC,00:00,24:00,2793
84627,777 N Main St,Ephraim,UT,06:00,24:00,2794
23005,145 Hill Carter Pkwy,Ashland,VA,00:00,24:00,2795
34677,3801 Tampa Rd,Oldsmar,FL,00:00,24:00,2796
1566,100 Charlton Rd,Sturbridge,MA,07:00,22:00,2797
20735,8745 Branch Ave,Clinton,MD,06:00,24:00,2799
31707,108 S Westover Blvd,Albany,GA,06:00,24:00,2801
73003,2200 W Danforth Rd,Edmond,OK,00:00,24:00,2803
73118,1801 Belle Isle Blvd,Oklahoma City,OK,06:00,24:00,2804
23847,303 Market Dr,Emporia,VA,06:00,24:00,2805
29316,4000 Hwy #9,Boiling Springs,SC,00:00,24:00,2806
22801,2160 John Wayland Hwy,Harrisonburg,VA,00:00,24:00,2807
23112,12200 Chattanooga Plz,Midlothian,VA,00:00,24:00,2808
26201,100 Buckhannon Crossroads,Buckhannon,WV,00:00,24:00,2809
25276,97 Williams Dr,Spencer,WV,06:00,01:00,2810
30605,4375 Lexington Rd,Athens,GA,00:00,24:00,2811
55904,25 25th St Se,Rochester,MN,00:00,24:00,2812
54449,2001 N Central Ave,Marshfield,WI,00:00,24:00,2813
33016,9300 Nw 77th Ave,Hialeah,FL,00:00,24:00,2814
60008,1460 Golf Rd,Rolling Meadows,IL,06:00,24:00,2815
60714,5630 W Touhy Ave,Niles,IL,00:00,24:00,2816
60438,17625 Torrence Ave,Lansing,IL,06:00,24:00,2817
46324,7850 Cabela Dr,Hammond,IN,06:00,01:00,2818
46714,2100 N Main St,Bluffton,IN,00:00,24:00,2819
56187,1055 Ryans Rd,Worthington,MN,00:00,24:00,2820
23225,2410 Sheila Ln,Richmond,VA,00:00,24:00,2821
70785,28270 Walker Rd S,Walker,LA,00:00,24:00,2822
26101,2900 Pike St,Parkersburg,WV,00:00,24:00,2823
8857,1126 Us Highway 9,Old Bridge,NJ,07:00,24:00,2825
92236,83053 Avenue 48,Coachella,CA,06:00,24:00,2826
52241,2801 Commerce Dr,Coralville,IA,00:00,24:00,2827
53215,3355 S 27th St,Milwaukee,WI,06:00,24:00,2828
19022,1570 Chester Pike,Eddystone,PA,06:00,24:00,2830
83338,2680 S Lincoln Ave,Jerome,ID,06:00,24:00,2831
29927,4400 Highway 278,Hardeeville,SC,00:00,24:00,2832
26354,#1 Wal-mart Lane,Grafton,WV,06:00,24:00,2833
76244,5336 Golden Triangle Boulevard,Fort Worth,TX,06:00,24:00,2834
78250,9006 Guilbeau Road,San Antonio,TX,06:00,24:00,2835
27526,1051 E Broad St,Fuquay Varina,NC,00:00,24:00,2836
89014,540 Marks St,Henderson,NV,06:00,01:00,2838
65807,444 W Grand Street,Springfield,MO,06:00,23:00,2839
31520,11 Glynn Plaza,Brunswick,GA,06:00,24:00,2840
8048,1740 Route 38,Lumberton,NJ,07:00,24:00,2841
92881,1290 E Ontario Ave,Corona,CA,06:00,24:00,2842
34491,17961 S Us Highway 441,Summerfield,FL,00:00,24:00,2843
12065,1549 Route 9,Clifton Park,NY,00:00,24:00,2844
27344,14215. U.s. Highway 64 West,Siler City,NC,00:00,24:00,2845
38654,7950 Craft Goodman Frontage Rd,Olive Branch,MS,00:00,24:00,2846
68123,10504 S 15th St,Bellevue,NE,00:00,24:00,2847
25260,320 Mallard Lane,Mason,WV,06:00,01:00,2849
21074,2320 No. Hanover Pike,Hampstead,MD,00:00,24:00,2850
26041,10 Walmart Dr,Moundsville,WV,00:00,24:00,2852
20646,40 Drury Dr,La Plata,MD,06:00,24:00,2853
6351,180 River Rd,Lisbon,CT,00:00,24:00,2854
66217,16100 W 65th St,Shawnee,KS,00:00,24:00,2855
64075,201 Se Salem St,Oak Grove,MO,06:00,01:00,2856
64154,8551 N Boardwalk Ave,Kansas City,MO,00:00,24:00,2857
30458,349 Brampton Ave,Statesboro,GA,00:00,24:00,2858
14624,2150 Chili Ave,Rochester,NY,06:00,22:00,2859
31322,160 Pooler Pkwy,Pooler,GA,00:00,24:00,2860
83714,7319 W State St,Garden City,ID,05:00,24:00,2861
83642,4051 E Fairview Ave,Meridian,ID,05:00,24:00,2862
78254,6703 W Loop 1604 N,San Antonio,TX,00:00,24:00,2864
99205,2301 W Wellesley Ave,Spokane,WA,06:00,23:00,2865
48864,5110 Times Square Pl,Okemos,MI,07:00,22:00,2866
48912,3225 Towne Centre Blvd,Lansing,MI,06:00,01:00,2867
48917,409 N Marketplace Blvd,Lansing,MI,00:00,24:00,2869
29577,3915 N Kings Hwy,Myrtle Beach,SC,00:00,24:00,2870
8077,2501 Route 130 S,Cinnaminson,NJ,00:00,24:00,2871
48111,10562 Belleville Rd,Belleville,MI,00:00,24:00,2872
48084,2001 W Maple Rd,Troy,MI,00:00,24:00,2873
12302,200 Dutch Meadows Ln,Glenville,NY,00:00,24:00,2874
73132,6437 N. Macarthur Blvd,Warr Acres,OK,06:00,24:00,2875
73034,1301 E 2nd St,Edmond,OK,06:00,24:00,2876
73162,11101 N Rockwell Ave,Oklahoma City,OK,06:00,24:00,2877
73139,911 Sw 104th St,Oklahoma City,OK,06:00,24:00,2878
74133,6606 E 81st St,Tulsa,OK,06:00,24:00,2880
34744,1471 E Osceola Pkwy,Kissimmee,FL,00:00,24:00,2881
55311,9451 Dunkirk Ln N,Maple Grove,MN,00:00,24:00,2882
75024,8801 Ohio Dr,Plano,TX,00:00,24:00,2883
89149,8060 W Tropical Pkwy,Las Vegas,NV,06:00,24:00,2884
2840,199 Connell Hwy,Newport,RI,07:00,22:00,2885
90660,8500 Washington Blvd,Pico Rivera,CA,06:00,24:00,2886
29575,125 Maryport Drive,Myrtle Beach,SC,06:00,24:00,2887
17078,100 No Londonderry Square,Palmyra,PA,00:00,24:00,2888
52732,2715 S 25th St,Clinton,IA,00:00,24:00,2889
31210,5955 Zebulon Rd,Macon,GA,00:00,24:00,2890
79763,2450 Nw Loop 338,Odessa,TX,00:00,24:00,2891
80134,11101 S Parker Rd,Parker,CO,00:00,24:00,2892
67301,121 Peter Pan Rd,Independence,KS,00:00,24:00,2893
21550,13164 Garrett Hwy,Oakland,MD,00:00,24:00,2894
6489,235 Queen St,Southington,CT,07:00,22:00,2897
6475,665 Boston Post Rd,Old Saybrook,CT,07:00,22:00,2898
6001,255 W Main St,Avon,CT,07:00,22:00,2899
6067,80 Town Line Rd,Rocky Hill,CT,07:00,24:00,2900
1060,180 N King St,Northampton,MA,07:00,24:00,2901
1701,121 Worcester Rd,Framingham,MA,07:00,22:00,2902
1824,66 Parkhurst Rd,Chelmsford,MA,07:00,22:00,2903
2301,700 Oak St,Brockton,MA,07:00,22:00,2904
10901,250 Route 59,Suffern,NY,07:00,24:00,2905
11901,1890 Old Country Rd,Riverhead,NY,07:00,24:00,2906
33055,3791 Nw 167th Street,Miami Gardens,FL,06:00,24:00,2907
27209,201 Montgomery Xing,Biscoe,NC,00:00,24:00,2908
16407,961 E Columbus Ave,Corry,PA,06:00,01:00,2909
44460,2875 E State St,Salem,OH,00:00,24:00,2910
13036,3018 East Ave,Central Square,NY,00:00,24:00,2911
48180,7555 Telegraph Rd,Taylor,MI,00:00,24:00,2912
70039,13001 Highway 90,Boutte,LA,00:00,24:00,2913
44646,1 Massillon Marketplace Dr Sw,Massillon,OH,00:00,24:00,2914
11733,3990 Nesconset Hwy,East Setauket,NY,07:00,23:00,2915
11554,2465 Hempstead Tpke,East Meadow,NY,07:00,23:00,2916
11749,1850 Veterans Hwy,Islandia,NY,07:00,23:00,2917
75013,730 W Exchange Pkwy,Allen,TX,00:00,24:00,2918
71203,4430 Desiard Street,Monroe,LA,06:00,23:00,2919
32003,1505 County Road 220,Orange Park,FL,00:00,24:00,2920
84404,534 N Harrisville Rd,Harrisville,UT,00:00,24:00,2921
85741,7635 No. La Cholla B,Tucson,AZ,00:00,24:00,2922
59105,1649 Main St,Billings,MT,00:00,24:00,2923
87120,2550 Coors Bldv. Nw,Albuquerque,NM,06:00,24:00,2924
94558,681 Lincoln Ave,Napa,CA,06:00,24:00,2925
75023,6000 Coit Rd,Plano,TX,06:00,01:00,2926
97060,23500 Ne Sandy Blvd,Wood Village,OR,00:00,24:00,2927
29445,605 Saint James Ave,Goose Creek,SC,00:00,24:00,2928
28348,3030 N Main St,Hope Mills,NC,00:00,24:00,2929
33321,6931 Nw 88th Avenue,Tamarac,FL,06:00,24:00,2930
21801,409 N Fruitland Blvd,Fruitland,MD,00:00,24:00,2931
37934,10900 Parkside Dr,Knoxville,TN,00:00,24:00,2932
24739,201 Greasy Ridge Rd,Princeton,WV,00:00,24:00,2933
61944,15150 Us Highway 150,Paris,IL,00:00,24:00,2934
50138,814 W Bell Ave,Knoxville,IA,06:00,01:00,2935
53225,10330 W Silver Spring Dr,Milwaukee,WI,06:00,24:00,2936
55746,12080 Highway 169 W,Hibbing,MN,00:00,24:00,2937
70508,2428 W Pinhook Rd,Lafayette,LA,06:00,24:00,2938
39218,200 Marketplace Drive,Richland,MS,06:00,01:00,2939
71291,5251 Cypress Street,West Monroe,LA,06:00,23:00,2940
30004,5200 Windward Pkwy,Alpharetta,GA,05:00,24:00,2941
32724,955 S Woodland Boulevard,Deland,FL,06:00,24:00,2944
19365,100 Commons Dr,Parkesburg,PA,00:00,24:00,2945
33312,2500 W. Broward Boulevard,Fort Lauderdale,FL,06:00,24:00,2946
98665,9000 Ne Highway 99,Vancouver,WA,06:00,24:00,2947
90670,13310 Telegraph Rd,Santa Fe Springs,CA,06:00,24:00,2948
93552,37140 47th St E,Palmdale,CA,06:00,24:00,2950
93535,1731 E Avenue J,Lancaster,CA,06:00,24:00,2951
92562,41200 Murrieta Hot Springs Rd,Murrieta,CA,06:00,24:00,2952
2777,54 Cousineau Drive,Swansea,MA,07:00,23:00,2953
6851,650 Main Ave,Norwalk,CT,07:00,22:00,2954
64145,1701 W 133rd St,Kansas City,MO,06:00,24:00,2955
60431,1401 Il Route 59,Shorewood,IL,00:00,24:00,2956
56501,1583 Highway 10 W,Detroit Lakes,MN,00:00,24:00,2957
54915,3701 E Calumet St,Appleton,WI,00:00,24:00,2958
48066,28804 Gratiot Ave,Roseville,MI,06:00,24:00,2959
33069,2300 W Atlantic Blvd,Pompano Beach,FL,00:00,24:00,2962
33076,6001 Coral Ridge Dr,Coral Springs,FL,00:00,24:00,2963
1453,11 Jungle Rd,Leominster,MA,06:00,23:00,2964
6111,3164 Berlin Tpke,Newington,CT,07:00,22:00,2965
44281,222 Smokerise Dr,Wadsworth,OH,00:00,24:00,2966
41017,3450 Valley Plaza Pkwy,Ft Wright,KY,06:00,24:00,2967
41008,200 Floyd Dr,Carrollton,KY,06:00,01:00,2968
75094,115 West Fm 544,Murphy,TX,00:00,24:00,2973
75081,1501 Buckingham Rd,Richardson,TX,06:00,24:00,2974
75043,3959 Broadway Blvd,Garland,TX,06:00,23:00,2975
75150,915 N Town East Blvd,Mesquite,TX,00:00,24:00,2976
76017,735 W Sublett Rd,Arlington,TX,06:00,24:00,2977
76133,7451 Mccart Ave,Fort Worth,TX,00:00,24:00,2978
76137,7401 Park Vista Blvd,Fort Worth,TX,06:00,24:00,2979
76244,8520 N Beach St,Fort Worth,TX,00:00,24:00,2980
76248,2130 Rufe Snow Dr,Keller,TX,06:00,24:00,2981
73505,3745 Sw Lee Blvd,Lawton,OK,06:00,24:00,2984
93650,7065 N Ingram Ave,Fresno,CA,06:00,23:00,2985
54956,1155 W Winneconne Ave,Neenah,WI,00:00,24:00,2986
33328,4301 S University Dr,Davie,FL,07:00,23:00,2987
30728,2625 No. Hwy 27,La Fayette,GA,06:00,24:00,2988
94539,44009 Osgood Rd,Fremont,CA,06:00,22:00,2989
57301,1101 E Spruce St,Mitchell,SD,00:00,24:00,2990
78613,201 Walton Way,Cedar Park,TX,00:00,24:00,2991
14870,3217 Silverback Ln,Painted Post,NY,00:00,24:00,2992
77478,345 Highway 6,Sugar Land,TX,00:00,24:00,2993
64503,3022 S Belt Hwy,Saint Joseph,MO,00:00,24:00,2994
75025,8040 Independence Pkwy,Plano,TX,06:00,24:00,2995
75287,18121 Marsh Ln,Dallas,TX,00:00,24:00,2996
72701,616 N Garland Ave Ste 363,Fayetteville,AR,08:00,22:00,2997
92354,25755 Barton Rd,Loma Linda,CA,06:00,24:00,2998
60804,3320 South Cicero Avenue,Cicero,IL,06:00,23:00,3004
30314,835 Martin Luther King Jr Drive Nw,Atlanta,GA,07:00,22:00,3008
33436,9840 S Military Trl Ste G-1,Boynton Beach,FL,06:00,23:00,3011
33781,7500 66th St,Pinellas Park,FL,06:00,24:00,3013
75232,200 Short Blvd,Dallas,TX,06:00,24:00,3014
75227,2827 S. Buckner Blvd,Dallas,TX,06:00,24:00,3015
37174,4959 Main St,Spring Hill,TN,06:00,01:00,3017
80906,4425 Venetucci Boulevard,Fountain,CO,06:00,24:00,3018
80229,850 E 88th Ave,Thornton,CO,06:00,24:00,3019
95210,1189 E March Ln,Stockton,CA,06:00,23:00,3022
95135,4055 Evergreen Village Sq Ste 140,San Jose,CA,06:00,22:00,3023
92260,72314 Highway 111,Palm Desert,CA,06:00,24:00,3026
20011,310 Riggs Road Ne,Washington,DC,06:00,24:00,3035
70433,2800 N Hwy 190,Covington,LA,06:00,23:00,3042
76244,4536 Heritage Trace Parkway,Fort Worth,TX,06:00,24:00,3043
76105,2900 Renaissance Square,Fort Worth,TX,06:00,24:00,3044
95355,1421 Coffee Rd,Modesto,CA,06:00,23:00,3046
95380,2480 Geer Road,Turlock,CA,05:00,24:00,3047
85710,2550 S. Kolb Rd,Tucson,AZ,06:00,24:00,3049
97008,9055 Sw Murray Blvd,Beaverton,OR,05:00,24:00,3050
98208,1605 Se Everett Mall Way,Everett,WA,07:00,24:00,3053
74015,19801 Robson Rd,Catoosa,OK,00:00,24:00,3055
78070,305 Singing Oaks,Spring Branch,TX,06:00,24:00,3056
78023,12550 Leslie Rd,Helotes,TX,00:00,24:00,3057
78228,918 Bandera Rd,San Antonio,TX,06:00,24:00,3058
39046,244 Feather Lane,Canton,MS,06:00,01:00,3059
39194,2129 Grand Avenue,Yazoo City,MS,06:00,24:00,3060
63119,7437 Watson Road,Shrewsbury,MO,06:00,24:00,3061
65802,3536 W Mount Vernon St,Springfield,MO,06:00,24:00,3062
34234,3500 N Tamiami Trail,Sarasota,FL,06:00,22:00,3066
30093,4975 Jimmy Carter Blvd,Norcross,GA,06:00,24:00,3067
30062,3101 Roswell Road,Marietta,GA,06:00,24:00,3069
30360,5025 Winters Chapel Rd,Dunwoody,GA,06:00,24:00,3070
30084,3201 Tucker Norcross Rd,Tucker,GA,06:00,24:00,3071
30078,2912 W Main St,Snellville,GA,06:00,24:00,3072
30044,3059 Lawrenceville Hwy,Lawrenceville,GA,06:00,24:00,3074
32405,513 W 23rd St,Panama City,FL,00:00,24:00,3075
20169,6530 Trading Sq,Haymarket,VA,00:00,24:00,3077
8816,290 State Route 18,East Brunswick,NJ,00:00,24:00,3078
95829,8915 Gerber Road,Sacramento,CA,06:00,24:00,3081
80916,1622 S Academy Blvd,Colorado Springs,CO,05:00,24:00,3082
80915,665 N Murray Blvd,Colorado Springs,CO,06:00,24:00,3083
92027,1266 East Valley Parkway,Escondido,CA,06:00,23:00,3084
93033,2701 Saviers Rd,Oxnard,CA,06:00,23:00,3087
56301,3601 2nd St South,St Cloud,MN,00:00,24:00,3088
95677,5609 Pacific St,Rocklin,CA,06:00,24:00,3090
83642,795 West Overland Road,Meridian,ID,05:00,24:00,3093
83704,3233 N. Cole Rd.,Boise,ID,06:00,24:00,3094
98007,15063 Main St,Bellevue,WA,06:00,24:00,3098
90623,5420 Lapalma Ave,La Palma,CA,06:00,23:00,3099
92801,121 N Beach Blvd,Anaheim,CA,06:00,23:00,3101
55371,300 21st Ave N,Princeton,MN,06:00,24:00,3102
67052,18631 W Kellogg Dr,Goddard,KS,00:00,24:00,3103
33442,1101 S. Military Trl,Deerfield Beach,FL,06:00,24:00,3104
78211,8538 Ih-35 South,San Antonio,TX,00:00,24:00,3106
78257,24403 W Interstate 10,San Antonio,TX,06:00,24:00,3107
60620,7535 S. Ashland Ave.,Chicago,IL,07:00,22:00,3110
65802,545 El Camino Alto Dr,Springfield,MO,06:00,24:00,3111
78244,4096 N Foster Rd,San Antonio,TX,06:00,24:00,3112
1906,770 Broadway,Saugus,MA,06:00,24:00,3114
30033,2525 N Decatur Rd,Decatur,GA,06:00,24:00,3118
32413,15495 Panama City Beach Pkwy,Panama City Beach,FL,00:00,24:00,3119
95054,3255 Mission College Blvd,Santa Clara,CA,06:00,23:00,3123
80015,16746 E Smoky Hill Rd,Centennial,CO,06:00,24:00,3126
80239,5141 Chambers Rd,Denver,CO,06:00,23:00,3127
80231,1442 S Parker Rd,Denver,CO,06:00,24:00,3128
92376,300 West Baseline Rd,Rialto,CA,06:00,23:00,3131
91767,778 E Arrow Hwy,Pomona,CA,06:00,24:00,3132
91744,1425 N Hacienda Blvd,La Puente,CA,07:00,22:00,3133
76110,717 W. Berry St,Fort Worth,TX,06:00,24:00,3135
79928,13900 Horizon Blvd,Horizon City,TX,00:00,24:00,3136
37062,7100 Hopgood Rd,Fairview,TN,06:00,01:00,3137
93312,5625 Calloway Drive,Bakersfield,CA,06:00,24:00,3138
93312,1249 Allen Road,Bakersfield,CA,05:00,23:00,3139
93308,3111 North Chester,Bakersfield,CA,05:00,23:00,3140
93307,5037 East Brundage Lane,Bakersfield,CA,07:00,22:00,3141
85710,8640 E Broadway Blvd,Tucson,AZ,06:00,24:00,3143
97267,15600 Se Mcloughlin Blvd,Milwaukie,OR,06:00,24:00,3144
98661,2201 Grand Blvd,Vancouver,WA,06:00,23:00,3145
97330,1840 Nw 9th St,Corvallis,OR,06:00,24:00,3146
93063,2204 Tapo Street,Simi Valley,CA,06:00,24:00,3147
96813,1032 Fort Street Mall,Honolulu,HI,05:00,22:00,3149
51501,1800 N. 16th St.,Council Bluffs,IA,06:00,24:00,3150
68104,5018 Ames Ave,Omaha,NE,05:00,23:00,3151
68134,2451 North 90th Street,Omaha,NE,06:00,24:00,3152
68135,6710 S 167th St,Omaha,NE,06:00,24:00,3153
68123,2109 Towne Center Dr,Bellevue,NE,06:00,24:00,3154
67037,1106 S. Rock Rd,Derby,KS,06:00,24:00,3155
23666,117 Marketplace Drive,Hampton,VA,06:00,24:00,3156
23601,11214 Jefferson Ave,Newport News,VA,06:00,24:00,3157
7608,1 Teterboro Landing Drive,Teterboro,NJ,00:00,24:00,3159
33707,6850 Gulfport Blvd S,Pasadena,FL,06:00,24:00,3161
32806,2715 S Orange Ave,Orlando,FL,00:00,24:00,3162
33023,301 S State Road 7,Hollywood,FL,00:00,24:00,3163
72712,205 N. Main Street,Bentonville,AR,06:00,22:00,3164
60653,4720 S. Cottage Grove Avenue,Chicago,IL,07:00,22:00,3166
70126,4301 Chef Menteur Highway,New Orleans,LA,06:00,22:00,3167
72034,2550 Prince St,Conway,AR,06:00,24:00,3168
78653,11923 Us Hwy 290 E,Manor,TX,00:00,24:00,3169
78621,1320 W Hwy 290,Elgin,TX,00:00,24:00,3170
68117,5051 L St,Omaha,NE,06:00,24:00,3172
68128,9460 Giles Road,La Vista,NE,06:00,24:00,3173
80918,4142 Austin Bluffs Pkwy,Colorado Springs,CO,06:00,24:00,3175
80909,1725 N Union Blvd,Colorado Springs,CO,05:00,24:00,3176
80525,4625 S Mason St,Fort Collins,CO,06:00,24:00,3177
97080,2444 E Powell Blvd,Gresham,OR,06:00,24:00,3178
91320,512 North Ventu Park Road,Thousand Oaks,CA,07:00,23:00,3179
90280,4651 Firestone Blvd,South Gate,CA,06:00,24:00,3180
27517,12500 Us 15 501 N,Chapel Hill,NC,00:00,24:00,3182
33033,1499 South Dixie Hwy,Homestead,FL,06:00,24:00,3183
35216,3320 Lorna Rd,Hoover,AL,06:00,24:00,3184
35810,4226 Oakwood Ave Nw,Huntsville,AL,06:00,24:00,3185
30083,5935 Memorial Dr,Stone Mountain,GA,06:00,24:00,3188
29671,2637 Gentry Memorial Hwy,Pickens,SC,06:00,01:00,3191
29611,11410 Anderson Rd,Greenville,SC,00:00,24:00,3192
33613,15302 N. Nebraska Ave.,Tampa,FL,00:00,24:00,3197
75007,4025 Old Denton Rd,Carrollton,TX,06:00,24:00,3198
75074,3513 E Park Blvd,Plano,TX,06:00,24:00,3199
2188,740 Middle St,Weymouth,MA,07:00,22:00,3200
30253,135 Willow Ln,Mcdonough,GA,00:00,24:00,3201
73135,4900 S. Sooner Rd,Oklahoma City,OK,06:00,24:00,3202
75104,820 E Belt Line Rd,Cedar Hill,TX,06:00,24:00,3204
30122,1100 Thornton Rd,Lithia Springs,GA,00:00,24:00,3205
45804,2400 Harding Hwy,Lima,OH,00:00,24:00,3206
32771,1601 Rinehart Rd,Sanford,FL,00:00,24:00,3207
84663,660 S 1750 W,Springville,UT,00:00,24:00,3208
55330,18185 Zane St Nw,Elk River,MN,00:00,24:00,3209
62702,2760 No. Dirksen Pkwy,Springfield,IL,00:00,24:00,3210
8234,6801 Black Horse Pike,Egg Hbr Township,NJ,00:00,24:00,3212
77384,3040 College Park Dr,The Woodlands,TX,00:00,24:00,3213
23435,6259 College Dr,Suffolk,VA,06:00,24:00,3214
26501,5605 University Town Center Drive,Granville,WV,00:00,24:00,3215
23456,1149 Nimmo Pkwy,Virginia Beach,VA,00:00,24:00,3216
99344,1860 E Main St,Othello,WA,06:00,23:00,3217
98387,20307 Mountain Hwy E,Spanaway,WA,00:00,24:00,3218
23188,731 E Rochambeau Dr,Williamsburg,VA,00:00,24:00,3219
84790,2610 Pioneer Rd,St George,UT,00:00,24:00,3220
14891,515 E 4th St,Watkins Glen,NY,06:00,24:00,3221
29630,1286 Eighteen Mile Rd,Central,SC,00:00,24:00,3222
15010,#100 Chippewa Town Centre,Beaver Falls,PA,00:00,24:00,3223
75043,555 W Interstate 30,Garland,TX,00:00,24:00,3224
75088,2501 Lakeview Pkwy,Rowlett,TX,00:00,24:00,3225
77494,25108 Market Place Dr,Katy,TX,00:00,24:00,3226
80132,16218 Jackson Creek Pkwy,Monument,CO,00:00,24:00,3227
15626,6700 Hollywood Blvd,Delmont,PA,00:00,24:00,3228
76384,3800 Us Highway 287 W,Vernon,TX,06:00,24:00,3229
72022,400 Bryant Ave,Bryant,AR,00:00,24:00,3230
72936,551 Liberty Dr,Greenwood,AR,00:00,24:00,3231
84084,7671 S 3800 W,West Jordan,UT,05:00,24:00,3232
56601,2025 Paul Bunyan Dr Nw,Bemidji,MN,00:00,24:00,3233
37857,4331 Highway 66 S,Rogersville,TN,06:00,01:00,3234
33162,1425 Ne 163rd St,North Miami Beach,FL,06:00,01:00,3235
7728,326 W Main St,Freehold,NJ,00:00,24:00,3236
57110,5521 E Arrowhead Pkwy,Sioux Falls,SD,00:00,24:00,3237
65809,3720 East Sunshine Street,Springfield,MO,06:00,22:00,3238
97477,2659 Olympic St,Springfield,OR,00:00,24:00,3239
85308,18551 N 83rd Ave,Glendale,AZ,00:00,24:00,3241
24012,4524 Challenger Ave,Roanoke,VA,00:00,24:00,3243
54843,15594 State Highway 77,Hayward,WI,06:00,01:00,3245
53115,1819 E Geneva St,Delavan,WI,00:00,24:00,3247
90631,1340 S Beach Blvd,La Habra,CA,06:00,24:00,3248
44202,7235 Market Place Dr,Bainbridge,OH,00:00,24:00,3250
43160,1397 Leesburg Ave,Washington Court House,OH,00:00,24:00,3251
19061,605 Conchester Hwy,Boothwyn,PA,07:00,24:00,3252
16412,108 Washington Towne Blvd N,Edinboro,PA,00:00,24:00,3253
89523,5260 W 7th St,Reno,NV,06:00,24:00,3254
61874,505 S Dunlap Ave,Savoy,IL,00:00,24:00,3255
97402,4550 W 11th Ave,Eugene,OR,06:00,22:00,3258
59808,3555 Mullan Rd,Missoula,MT,00:00,24:00,3259
98823,1399 Nat Washington Way,Ephrata,WA,00:00,24:00,3260
99352,2801 Duportail St,Richland,WA,00:00,24:00,3261
43725,61205 Southgate Rd,Cambridge,OH,00:00,24:00,3262
23693,2601 Geo. Washington Mem. Hwy,Yorktown,VA,00:00,24:00,3265
8520,839 Us Highway 130,East Windsor,NJ,06:00,22:00,3266
68130,18201 Wright St,Omaha,NE,00:00,24:00,3267
54409,200 E State Highway 64,Antigo,WI,06:00,23:00,3268
4257,258 River Rd,Mexico,ME,06:00,22:00,3269
24382,345 Commonwealth Dr,Wytheville,VA,00:00,24:00,3270
35040,5100 Highway 31,Calera,AL,00:00,24:00,3271
66223,15700 Metcalf Ave,Overland Park,KS,06:00,24:00,3273
76182,9101 N Tarrant Pkwy,North Richland Hills,TX,00:00,24:00,3274
73013,1101 Nw 164th St,Oklahoma,OK,06:00,24:00,3275
92407,4001 Hallmark Pkwy,San Bernardino,CA,06:00,24:00,3276
89521,155 Damonte Ranch Pkwy,Reno,NV,00:00,24:00,3277
68526,8700 Andermatt Dr,Lincoln,NE,00:00,24:00,3278
78220,2100 Se Loop 410,San Antonio,TX,06:00,01:00,3279
14621,1490 Hudson Ave,Rochester,NY,07:00,23:00,3280
16421,5741 Buffalo Rd,Harborcreek,PA,00:00,24:00,3281
43138,12910 State Route 664 S,Logan,OH,00:00,24:00,3282
67205,10600 W 21st St N,Wichita,KS,00:00,24:00,3283
76017,4800 Us 287 Highway,Arlington,TX,00:00,24:00,3284
75104,621 Uptown Blvd,Cedar Hill,TX,00:00,24:00,3285
75065,1035 Hickory Creek Blvd,Hickory Creek,TX,00:00,24:00,3286
75077,1515 Justin Rd,Lewisville,TX,06:00,24:00,3287
70818,10200 Sullivan Rd,Baton Rouge,LA,00:00,24:00,3288
28694,1489 Mount Jefferson Rd,West Jefferson,NC,00:00,24:00,3289
96732,101 Pakaula St,Kahului,HI,06:00,24:00,3290
7836,40 International Dr S,Flanders,NJ,07:00,24:00,3291
7083,900 Springfield Rd,Union,NJ,07:00,24:00,3292
44024,223 Meadowlands Dr,Chardon,OH,00:00,24:00,3293
40291,7101 Cedar Springs Blvd,Louisville,KY,00:00,24:00,3294
74011,6310 S Elm Pl,Broken Arrow,OK,06:00,24:00,3295
77077,2700 S Kirkwood Rd,Houston,TX,06:00,24:00,3296
77065,12353 Fm 1960 Rd W,Houston,TX,06:00,24:00,3297
77565,255 Fm 518 Rd,Kemah,TX,00:00,24:00,3298
23320,475 Kempsville Road,Chesapeake,VA,06:00,24:00,3299
45895,1257 Bellefontaine St,Wapakoneta,OH,06:00,01:00,3300
2904,51 Silver Spring St,Providence,RI,07:00,22:00,3301
77099,9460 W Sam Houston Pkwy S,Houston,TX,00:00,24:00,3302
24614,1179 Riverview St,Grundy,VA,06:00,24:00,3303
27320,1624 Nc #14 Highway,Reidsville,NC,00:00,24:00,3304
27027,6711 Nc Highway 135,Mayodan,NC,00:00,24:00,3305
32327,35 Mike Stewart,Crawfordville,FL,00:00,24:00,3307
32068,1580 Branan Field Rd,Middleburg,FL,00:00,24:00,3308
32207,4250 Phillips Hwy,Jacksonville,FL,06:00,23:00,3309
32738,101 Howland Blvd,Deltona,FL,00:00,24:00,3310
33056,19501 Nw 27th Ave,Miami Gardens,FL,06:00,24:00,3311
80112,10900 E Briarwood Ave,Centennial,CO,00:00,24:00,3313
85303,7450 W Glendale Ave,Glendale,AZ,06:00,24:00,3314
85308,4230 W Union Hills Dr,Glendale,AZ,00:00,24:00,3315
87114,8511 Golf Course Rd Nw,Albuquerque,NM,06:00,24:00,3317
76548,2020 Heights Dr,Harker Heights,TX,00:00,24:00,3319
78573,215 E Mile 3 Rd,Palmhurst,TX,00:00,24:00,3320
53072,411 Pewaukee Rd,Pewaukee,WI,07:00,22:00,3322
53083,4433 Vanguard Dr,Sheboygan,WI,00:00,24:00,3324
73170,2900 Sw 134th Street,Oklahoma City,OK,06:00,24:00,3327
48838,10772 W Carson City Rd,Greenville,MI,00:00,24:00,3328
13676,7494 Us Highway 11,Potsdam,NY,00:00,24:00,3329
23322,673 Cedar Road,Chesapeake,VA,06:00,24:00,3330
71603,5501 S Olive St,Pine Bluff,AR,00:00,24:00,3331
13069,1818 State Route #3,Fulton,NY,00:00,24:00,3332
12953,3222 State Route 11,Malone,NY,00:00,24:00,3334
44011,35901 Chester Road,Avon,OH,05:00,23:00,3335
48183,23800 Allen Rd,Woodhaven,MI,00:00,24:00,3336
8242,3159 Route 9 South,Rio Grande,NJ,00:00,24:00,3337
29302,203 Cedar Springs Road,Spartanburg,SC,06:00,24:00,3338
8360,1070 W Landis Ave,Vineland,NJ,00:00,24:00,3339
74114,4720 E 21st St,Tulsa,OK,06:00,24:00,3340
75204,2305 N Central Expy,Dallas,TX,00:00,24:00,3341
45102,1815 E Ohio Pike,Amelia,OH,00:00,24:00,3342
22603,501 Wal Mart Dr,Winchester,VA,00:00,24:00,3344
33884,7450 Cypress Gardens Blvd,Winter Haven,FL,00:00,24:00,3347
33403,101 N Congress Ave,Lake Park,FL,06:00,24:00,3348
33983,375 Kings Hwy,Port Charlotte,FL,00:00,24:00,3349
89122,5198 Boulder Hwy,Las Vegas,NV,06:00,24:00,3350
89131,6464 N Decatur Blvd,Las Vegas,NV,06:00,24:00,3351
95219,10355 Trinity Pkwy,Stockton,CA,06:00,24:00,3352
89074,1401 American Pacific Dr,Henderson,NV,06:00,24:00,3354
89104,1400 S Lamb Blvd,Las Vegas,NV,06:00,24:00,3355
89123,7445 S Eastern Ave,Las Vegas,NV,06:00,24:00,3356
85712,3925 E Grant Rd,Tucson,AZ,06:00,24:00,3357
29715,500 N. Dobys Bridge Road,Fort Mill,SC,06:00,24:00,3359
85286,2750 E Germann Rd,Chandler,AZ,00:00,24:00,3360
42262,14800 Fort Campbell Blvd,Oak Grove,KY,00:00,24:00,3362
42303,3151 Leitchfield Rd,Owensboro,KY,00:00,24:00,3363
55118,1644 Robert St S,Saint Paul,MN,07:00,23:00,3364
84014,221 W Parrish Ln,Centerville,UT,00:00,24:00,3366
29418,4920 Centre Pointe Dr,North Charleston,SC,00:00,24:00,3367
34221,508 10th St E,Palmetto,FL,00:00,24:00,3370
28208,3240 Wilkinson Blvd,Charlotte,NC,06:00,23:00,3371
33760,2677 Roosevelt Boulevard,Largo,FL,00:00,24:00,3372
85746,2823 W Valencia Rd,Tucson,AZ,00:00,24:00,3377
85755,2150 E Tangerine Rd,Oro Valley,AZ,00:00,24:00,3379
99301,4820 N Road 68,Pasco,WA,00:00,24:00,3380
79556,407 Ne Georgia Ave,Sweetwater,TX,00:00,24:00,3381
81007,78 N Mcculloch Blvd,Pueblo West,CO,06:00,24:00,3382
79110,4215 Canyon Dr,Amarillo,TX,06:00,24:00,3383
79045,300 W 15th St,Hereford,TX,06:00,24:00,3384
87121,9600 Sage Rd Sw,Albuquerque,NM,06:00,24:00,3385
35146,160 Springville Station Blvd,Springville,AL,00:00,24:00,3386
34287,17000 Tamiami Trl,North Port,FL,00:00,24:00,3387
30044,1400 Lawrenceville Hwy,Lawrenceville,GA,00:00,24:00,3388
30039,3435 Centerville Hwy,Snellville,GA,00:00,24:00,3389
77382,10001 Woodlands Pkwy,Woodlands,TX,00:00,24:00,3390
78154,6102 Fm 3009,Schertz,TX,00:00,24:00,3391
76021,2108 Bedford Rd,Bedford,TX,06:00,24:00,3392
50022,1905 E 7th St,Atlantic,IA,06:00,01:00,3394
68801,3501 S Locust St,Grand Island,NE,00:00,24:00,3395
33169,17650 Nw 2nd Ave,Miami Gardens,FL,06:30,01:30,3397
646,Centro Com Paseo Del Plata,Dorado,PR,09:00,19:00,3399
60543,2300 Us Highway 34,Oswego,IL,00:00,24:00,3400
30349,6149 Old National Hwy,College Park,GA,07:00,24:00,3401
30281,1400 Hudson Bridge Rd,Stockbridge,GA,00:00,24:00,3402
30157,3615 Marietta Hwy,Dallas,GA,00:00,24:00,3403
55113,1960 Twin Lakes Parkway,Roseville,MN,06:00,24:00,3404
75248,15220 Montfort Rd,Dallas,TX,00:00,24:00,3406
85326,1060 S Watson Rd,Buckeye,AZ,05:00,24:00,3407
89706,3200 Market St,Carson City,NV,00:00,24:00,3408
1524,20 Soojian Dr,Leicester,MA,06:00,24:00,3409
28314,8660 Cliffdale Road,Fayetteville,NC,06:00,24:00,3411
17023,200 Kocher Ln,Elizabethville,PA,00:00,24:00,3412
34685,3400 East Lake Rd,Palm Harbor,FL,06:00,24:00,3414
34689,41232 Us Hwy 19 N,Tarpon Springs,FL,00:00,24:00,3415
34114,6650 Collier Blvd,Naples,FL,06:00,23:00,3417
33543,28500 State Road 54,Wesley Chapel,FL,00:00,24:00,3418
76116,6756 W Vickery Blvd,Fort Worth,TX,06:00,24:00,3419
11590,1220 Old Country Rd,Westbury,NY,07:00,24:00,3420
8096,2000 Clements Bridge Rd Ste 100,Deptford,NJ,00:00,24:00,3422
87507,5701 Herrera Drive,Santa Fe,NM,00:00,24:00,3423
35244,2653 Valleydale Road,Birmingham,AL,06:00,24:00,3424
77075,9598 Rowlett Rd,Houston,TX,06:00,24:00,3425
88210,604 N 26th St,Artesia,NM,00:00,24:00,3427
87401,1400 W Main St,Farmington,NM,00:00,24:00,3428
16365,2901 Market St,Warren,PA,00:00,24:00,3429
73141,9011 Ne 23rd St,Midwest City,OK,06:00,24:00,3430
76087,2801 E Interstate 20,Hudson Oaks,TX,00:00,24:00,3431
75115,951 W Belt Line Rd,Desoto,TX,00:00,24:00,3432
75154,100 Ryan Drive,Red Oak,TX,00:00,24:00,3433
60098,1275 Lake Ave,Woodstock,IL,00:00,24:00,3434
46143,1133 No. Emerson Road,Greenwood,IN,00:00,24:00,3435
46614,700 W Ireland Rd,South Bend,IN,06:00,24:00,3436
32566,9360 Navarre Pkwy,Navarre,FL,00:00,24:00,3439
29576,11980 Highway 17 Bypass,Murrells Inlet,SC,00:00,24:00,3442
7457,48 State Rt 23,Riverdale,NJ,07:00,24:00,3443
43528,1355 S Mccord Rd,Holland,OH,00:00,24:00,3445
43213,3657 E Main St,Whitehall,OH,06:00,24:00,3447
76542,3801 East Stan Schlueter Loop,Killeen,TX,06:00,24:00,3449
76549,2900 Clear Creek Road,Killeen,TX,06:00,24:00,3450
77084,4810 Highway 6 N,Houston,TX,06:00,23:00,3452
49548,355 54th Street Sw,Wyoming,MI,00:00,24:00,3453
84302,1200 S Commerce Way,Perry,UT,06:00,24:00,3454
94806,1400 Hilltop Mall Rd,Richmond,CA,06:00,23:00,3455
28348,4220 Legion Road,Hope Mills,NC,06:00,24:00,3456
74146,3116 S Garnett Rd,Tulsa,OK,06:00,24:00,3457
49461,2755 Holton-whitehall Road,Whitehall,MI,06:00,01:00,3458
61705,2225 W Market St,Bloomington,IL,00:00,24:00,3459
61615,8915 N Allen Rd,Peoria,IL,00:00,24:00,3460
30269,2717 Highway 54,Peachtree City,GA,00:00,24:00,3461
30024,3245 Lawrenceville Suwanee Rd,Suwanee,GA,00:00,24:00,3462
33511,1208 E Brandon Blvd,Brandon,FL,00:00,24:00,3463
91710,3943 Grand Ave,Chino,CA,06:00,24:00,3464
85305,5010 N 95th Ave,Glendale,AZ,06:00,24:00,3465
7036,1601 W Edgar Rd,Linden,NJ,07:00,24:00,3469
30152,3105 Cobb Pkwy Nw,Acworth,GA,06:00,24:00,3471
83854,3050 E Mullan Ave,Post Falls,ID,00:00,24:00,3472
89102,4505 W Charleston Blvd,Las Vegas,NV,06:00,24:00,3473
34208,6225 E State Road 64,Bradenton,FL,00:00,24:00,3474
19403,650 S Trooper Rd,Norristown,PA,00:00,24:00,3475
48187,39500 Ford Rd,Canton,MI,00:00,24:00,3476
90808,7250 Carson Blvd,Long Beach,CA,06:00,24:00,3477
96814,700 Keeaumoku St,Honolulu,HI,00:00,24:00,3478
72756,1819 S 8th St,Rogers,AR,05:00,24:00,3479
24266,1050 Regional Park Rd,Lebanon,VA,06:00,01:00,3480
21220,112 Carroll Island Rd,Baltimore,MD,06:00,24:00,3481
75075,425 Coit Rd,Plano,TX,00:00,24:00,3482
70363,933 Grand Caillou Rd,Houma,LA,00:00,24:00,3483
32506,2951 S Blue Angel Pkwy,Pensacola,FL,00:00,24:00,3484
30512,2257 Hwy 515,Blairsville,GA,00:00,24:00,3485
45701,929 E State St,Athens,OH,00:00,24:00,3486
48315,51450 Shelby Pkwy,Shelby Township,MI,00:00,24:00,3487
53105,1901 Milwaukee Ave,Burlington,WI,00:00,24:00,3488
21237,6420 Petrie Way Rd,Baltimore,MD,06:00,24:00,3489
21076,7081 Arundel Mills Cir,Hanover,MD,06:00,24:00,3490
1844,70 Pleasant Valley St,Methuen,MA,07:00,22:00,3491
67207,11411 E Kellogg Dr,Wichita,KS,06:00,01:00,3492
94553,1021 Arnold Dr,Martinez,CA,07:00,23:00,3493
92069,732 Center Dr,San Marcos,CA,07:00,23:00,3494
37043,2315 Madison St,Clarksville,TN,00:00,24:00,3495
53073,428 Walton Dr,Plymouth,WI,00:00,24:00,3497
55014,4369 Ball Road Ne,Blaine,MN,00:00,24:00,3498
53549,1520 South Main Street,Jefferson,WI,06:00,24:00,3499
77015,5655 E Sam Houston Pkwy N,Houston,TX,00:00,24:00,3500
19520,100 Crossings Blvd,Elverson,PA,00:00,24:00,3501
45011,3201 Princeton Rd,Hamilton,OH,06:00,24:00,3502
27360,1585 Liberty Dr Ste 1,Thomasville,NC,00:00,24:00,3503
28601,2415 Springs Road Ne,Hickory,NC,06:00,24:00,3504
53965,130 Commerce St,Wisconsin Dells,WI,00:00,24:00,3505
74012,1770 S Elm Pl,Broken Arrow,OK,06:00,24:00,3508
77072,11755 Beechnut St,Houston,TX,06:00,23:00,3509
77581,1710 Broadway St,Pearland,TX,00:00,24:00,3510
83835,550 W Honeysuckle Ave,Hayden,ID,00:00,24:00,3511
87111,11018 Montgomery Blvd Ne,Albuquerque,NM,06:00,24:00,3512
55379,8101 Old Carriage Ct,Shakopee,MN,00:00,24:00,3513
16701,50 Foster Brook Blvd,Bradford,PA,00:00,24:00,3514
45133,540 Harry Sauner Rd,Hillsboro,OH,00:00,24:00,3515
91915,1360 Eastlake Pkwy,Chula Vista,CA,06:00,01:00,3516
87124,1115 Nm Highway 528 Se,Rio Rancho,NM,06:00,24:00,3517
78043,2320 Bob Bullock Loop,Laredo,TX,00:00,24:00,3518
7094,400 Park Pl,Secaucus,NJ,00:00,24:00,3520
75092,2210 N.f.m 1417,Sherman,TX,06:00,24:00,3521
91706,3250 Big Dalton Ave,Baldwin Park,CA,06:00,24:00,3522
91350,26471 Carl Boyer Dr,Santa Clarita,CA,06:00,24:00,3523
92020,605 Fletcher Pkwy,El Cajon,CA,06:00,24:00,3524
98375,16502 Meridian E,Puyallup,WA,00:00,24:00,3525
34601,7305 Broad St,Brooksville,FL,00:00,24:00,3526
34986,1675 Nw Saint Lucie West Blvd,Port St Lucie,FL,00:00,24:00,3527
39577,1053 Frontage Dr E,Wiggins,MS,00:00,24:00,3528
46236,10735 Pendleton Pike,Indianapolis,IN,06:00,24:00,3529
75087,850 W Rusk St,Rockwall,TX,06:00,24:00,3530
98516,1401 Galaxy Dr Ne,Lacey,WA,00:00,24:00,3531
80207,7800 Smith Rd,Denver,CO,06:00,24:00,3533
55066,295 Tyler Rd S,Red Wing,MN,00:00,24:00,3534
3042,35 Fresh River Rd,Epping,NH,07:00,23:00,3535
98499,7001 Bridgeport Way W,Lakewood,WA,00:00,24:00,3537
32940,8500 N Wickham Rd,Melbourne,FL,00:00,24:00,3538
77071,11242 S Gessner Dr,Houston,TX,06:00,23:00,3542
6810,67 Newtown Rd,Danbury,CT,07:00,23:00,3543
6437,900 Boston Post Rd,Guilford,CT,07:00,22:00,3544
6514,2300 Dixwell Ave,Hamden,CT,07:00,24:00,3545
6776,164 Danbury Rd,New Milford,CT,07:00,22:00,3546
6854,680 Connecticut Ave,Norwalk,CT,07:00,22:00,3547
6705,910 Wolcott St,Waterbury,CT,07:00,23:00,3548
3431,350 Winchester St,Keene,NH,07:00,23:00,3549
2721,638 Quequechan Street,Fall River,MA,07:00,23:00,3560
2536,137 Teaticket Hwy,Teaticket,MA,07:00,22:00,3561
7663,189 Us Highway 46,Saddle Brook,NJ,07:00,24:00,3562
18020,3926 Linden St,Bethlehem,PA,06:00,01:00,3563
19090,2101 Blair Mill Rd,Willow Grove,PA,00:00,24:00,3564
80231,9400 E Hampden Ave,Denver,CO,06:00,24:00,3566
78557,3000 S Jackson Rd,Hidalgo,TX,00:00,24:00,3567
84120,3180 S 5600 W,West Valley City,UT,06:00,23:30,3568
78753,12900 No. I-35 Svc Rd Sb,Austin,TX,00:00,24:00,3569
30809,4469 Washington Rd,Evans,GA,00:00,24:00,3570
45044,2900 Towne Blvd,Middletown,OH,00:00,24:00,3571
77584,10505 Broadway St,Pearland,TX,06:00,24:00,3572
20110,9401 Liberia Ave,Manassas,VA,00:00,24:00,3573
75002,1520 E Exchange Pkwy,Allen,TX,06:00,24:00,3574
77339,2165 Northpark Dr,Kingwood,TX,06:00,23:00,3579
43055,1315 N 21st St,Newark,OH,00:00,24:00,3580
43701,2850 Maysville Pike,Zanesville,OH,00:00,24:00,3581
80915,1575 Space Center Dr,Colorado Springs,CO,00:00,24:00,3582
12077,311 Route 9w,Glenmont,NY,06:00,23:00,3583
77081,5405 South Rice Avenue,Houston,TX,06:00,24:00,3584
77386,2901 Riley Fuzzel Rd,Spring,TX,06:00,24:00,3585
95677,5454 Crossings Drive,Rocklin,CA,06:00,24:00,3587
22026,17041 Jefferson Davis Hwy,Dumfries,VA,06:00,24:00,3588
84115,350 Hope Ave,Salt Lake City,UT,06:00,23:30,3589
51108,3101 Floyd Blvd,Sioux City,IA,00:00,24:00,3590
77356,18700 Highway 105 W,Conroe,TX,00:00,24:00,3591
38637,2401 Goodman Rd W,Horn Lake,MS,06:00,24:00,3593
76013,2610 W Pioneer Pkwy,Pantego,TX,06:00,24:00,3594
28304,7701 S Raeford Rd,Fayetteville,NC,00:00,24:00,3595
87031,2250 Main St Nw,Los Lunas,NM,00:00,24:00,3596
61008,2101 Gateway Center Dr,Belvidere,IL,00:00,24:00,3597
7927,235 Ridgedale Ave,Cedar Knolls,NJ,07:00,24:00,3598
38135,6520 Memphis Arlington Rd,Bartlett,TN,06:00,24:00,3599
28304,970 Strickland Bridge Road,Fayetteville,NC,06:00,24:00,3600
60445,4700 135th St,Crestwood,IL,00:00,24:00,3601
62703,1100 Lejune Dr,Springfield,IL,00:00,24:00,3602
24551,16807 Forest Rd,Forest,VA,06:00,24:00,3603
85395,14200 W Indian School Rd,Goodyear,AZ,06:00,24:00,3604
24502,22088 Timberlake Rd,Lynchburg,VA,06:00,24:00,3605
32713,185 N Charles Richard Beall Boulevard,Debary,FL,06:00,24:00,3606
14411,13858 State Route 31,Albion,NY,05:00,24:00,3607
44057,6067 N Ridge Rd,Madison,OH,00:00,24:00,3608
30294,2940 Anvil Block Rd,Ellenwood,GA,06:00,24:00,3609
40216,7100 Raggard Rd,Louisville,KY,06:00,24:00,3610
30064,6520 Earnest Barrett Parkway,Marietta,GA,00:00,24:00,3611
27217,530 S Graham Hopedale Rd,Burlington,NC,00:00,24:00,3612
24013,2141 Dale Ave,Roanoke,VA,06:00,24:00,3614
73107,2217 Nw 23rd St,Oklahoma City,OK,06:00,24:00,3615
70422,1200 W Oak St,Amite,LA,06:00,24:00,3616
32828,600 S Alafaya Trl,Orlando,FL,06:00,24:00,3617
37415,3901 Hixson Pike Suite 181,Chattanooga,TN,00:00,24:00,3619
84065,13502 Hamilton View Rd,Riverton,UT,00:00,24:00,3620
30341,1871 Chamblee Tucker Rd,Chamblee,GA,06:00,24:00,3621
24019,4950 Plantation Rd.,Roanoke,VA,06:00,24:00,3622
78046,4401 Highway 83 South,Laredo,TX,00:00,24:00,3623
55362,9320 Cedar St,Monticello,MN,00:00,24:00,3624
33313,3001 North State Road #7,Lauderdale Lakes,FL,06:00,24:00,3625
27127,3475 Parkway Village Ct,Winston Salem,NC,00:00,24:00,3626
30566,3875 Mundy Mill Rd,Oakwood,GA,00:00,24:00,3627
29681,115 Highway 14,Simpsonville,SC,06:00,24:00,3628
32129,3811 Clyde Morris Blvd,Port Orange,FL,06:00,24:00,3629
52302,5491 Highway 151,Marion,IA,00:00,24:00,3630
76036,1221 Fm 1187,Crowley,TX,00:00,24:00,3631
48471,655 W Sanilac Rd,Sandusky,MI,06:00,24:00,3632
17268,12751 Washington Township Blvd,Waynesboro,PA,00:00,24:00,3633
18252,35 Plaza Dr,Tamaqua,PA,06:00,01:00,3634
30742,1155 Battlefield Pkwy,Fort Oglethorpe,GA,00:00,24:00,3635
73099,1001 E Main Street,Yukon,OK,06:00,24:00,3637
29501,804 S. Cashua Drive,Florence,SC,06:00,24:00,3638
20166,24635 Dulles Landing Drive,Dulles,VA,00:00,24:00,3639
77055,1118 Silber Rd,Houston,TX,06:00,24:00,3640
45505,200 S Tuttle Rd,Springfield,OH,00:00,24:00,3641
54451,1010 N 8th St,Medford,WI,06:00,23:00,3643
23322,201 Hillcrest Pkwy,Chesapeake,VA,00:00,24:00,3644
79701,200 W Interstate 20,Midland,TX,00:00,24:00,3645
29445,1635 Red Bank Road,Goose Creek,SC,00:00,24:00,3646
58503,1400 Skyline Blvd,Bismarck,ND,00:00,24:00,3648
93003,1739 S Victoria Ave,Ventura,CA,07:00,23:00,3650
95605,755 Riverpoint Ct,West Sacramento,CA,06:00,24:00,3652
76028,965 Nw John Jones Dr,Burleson,TX,06:00,23:00,3653
72756,808 W. Walnut,Rogers,AR,00:00,24:00,3654
89129,10440 W Cheyenne Ave,Las Vegas,NV,06:00,24:00,3655
45240,1143 Smiley Ave,Cincinnati,OH,06:00,24:00,3656
27405,2107 Pyramid Village Blvd,Greensboro,NC,06:00,24:00,3658
37405,501 Signal Mountain Rd,Chattanooga,TN,00:00,24:00,3659
37419,3550 Cummings Hwy,Chattanooga,TN,00:00,24:00,3660
79936,1551 N Zaragoza Rd,El Paso,TX,06:00,24:00,3661
956,Int Carr 174 Y Carr 177,Bayamon,PR,00:00,24:00,3669
949,Los Dominicos Esq Sabana Seca,Toa Baja,PR,08:00,20:00,3670
956,Carr 167 Km 17.6 Bo Pajaros,Bayamon,PR,00:00,24:00,3680
725,Carr Pr 52 And Pr 156,Caguas,PR,00:00,24:00,3681
773,Calle 2 Urb. Brisas Del Mar,Luquillo,PR,09:00,19:00,3682
926,Las Cumbres Esq Gran Bulevar,Los Paseos,PR,00:00,24:00,3683
777,Carr Pr 31 Km 24,Juncos,PR,00:00,24:00,3687
965,Plaza Guaynabo Shopping Center,Guaynabo,PR,00:00,24:00,3690
784,La Fuente Shopping Center,Guayama,PR,00:00,24:00,3691
738,Local #1 Montesol Shopping Center Carr. Estatal #3 Km 49.7,Fajardo,PR,00:00,24:00,3692
757,Carr Estatal #153 Km 7.2,Santa Isabel,PR,08:00,20:00,3693
754,Carr Estatal 183,San Lorenzo,PR,00:00,24:00,3694
28079,2101 Younts Rd,Indian Trail,NC,00:00,24:00,3700
28365,308 Nc Highway 55 W,Mount Olive,NC,06:00,24:00,3701
32218,13227 City Square Dr,Jacksonville,FL,06:00,24:00,3702
70065,3520 Williams Blvd,Kenner,LA,00:00,24:00,3703
98597,17100 State Route 507 Se,Yelm,WA,00:00,24:00,3705
94585,350 Walters Road,Suisun City,CA,06:00,01:00,3708
30316,2427 Gresham Rd Se,Atlanta,GA,06:00,24:00,3709
30032,3580 Memorial Dr,Decatur,GA,06:00,24:00,3710
95621,7010 Auburn Blvd,Citrus Heights,CA,05:30,22:30,3712
29456,3685 Ladson Road,Ladson,SC,00:00,24:00,3713
674,Plaza Monte Real,Manati,PR,08:00,20:00,3716
37211,4040 Nolensville Pike,Nashville,TN,06:00,23:00,3717
21227,3601 Washington Blvd,Arbutus,MD,06:00,24:00,3720
44240,250 Tallmadge Rd,Kent,OH,00:00,24:00,3722
74352,800 E Main,Locust Grove,OK,06:00,24:00,3723
29115,332 Stone Wall Jackson Blvd,Orangeburg,SC,06:00,24:00,3724
60714,8500 W Golf Rd,Niles,IL,00:00,24:00,3725
48439,6170 S Saginaw Rd,Grand Blanc,MI,00:00,24:00,3726
71301,812 Belleau Wood,Alexandria,LA,06:00,23:00,3727
89032,3950 W Lake Mead Blvd,North Las Vegas,NV,06:00,24:00,3728
89436,5065 Pyramid Way,Sparks,NV,00:00,24:00,3729
86314,3450 N Glassford Hill Rd,Prescott Valley,AZ,00:00,24:00,3730
87004,460 Nm Highway #528,Bernalillo,NM,00:00,24:00,3731
87124,901 Unser Blvd Se,Rio Rancho,NM,00:00,24:00,3732
29708,1151 Stonecrest Blvd,Tega Cay,SC,00:00,24:00,3733
57069,1207 Princeton Ave,Vermillion,SD,06:00,24:00,3734
71360,2750 Hwy 28 East,Pineville,LA,06:00,23:00,3736
15065,100 Highlands Mall,Natrona Heights,PA,00:00,24:00,3738
83687,5875 E Franklin Rd,Nampa,ID,05:00,24:00,3739
80015,21475 E Quincy Ave,Aurora,CO,06:00,24:00,3740
30331,1105 Research Center Atlanta Drive Sw,Atlanta,GA,06:00,24:00,3741
98674,1486 Dike Access Rd,Woodland,WA,06:00,24:00,3742
71291,2400 Cypress Street,West Monroe,LA,06:00,23:00,3743
71201,1840 Mckeen Place,Monroe,LA,06:00,23:00,3745
71106,412 Bert Kouns Industrial Loop,Shreveport,LA,06:00,23:00,3746
47302,1501 E 29th St,Muncie,IN,06:00,24:00,3747
30101,3826 Cobb Pkwy Nw,Acworth,GA,00:00,24:00,3748
45241,2801 Cunningham Rd,Cincinnati,OH,00:00,24:00,3749
31088,502 Booth Rd,Warner Robins,GA,00:00,24:00,3750
85143,1725 W Hunt Hwy,San Tan Valley,AZ,00:00,24:00,3751
71111,5700 Shed Road,Bossier City,LA,06:00,23:00,3752
98816,108 Apple Blossom Dr,Chelan,WA,06:00,01:00,3754
98223,4010 172nd St Ne,Arlington,WA,00:00,24:00,3757
56716,1930 Sahlstrom Dr,Crookston,MN,06:00,01:00,3758
56073,1720 Westridge Rd,New Ulm,MN,06:00,23:00,3760
56701,1755 Highway 59 S,Thief River Falls,MN,06:00,01:00,3761
50266,6365 Stagecoach Dr,West Des Moines,IA,06:00,24:00,3762
79938,12236 Montana Ave,El Paso,TX,00:00,24:00,3763
75771,105 Centennial Blvd,Lindale,TX,00:00,24:00,3764
45356,1300 E Ash St,Piqua,OH,06:00,01:00,3765
24517,125 Clarion Rd,Altavista,VA,06:00,01:00,3768
24171,19265 Jeb Stuart Hwy,Stuart,VA,06:00,01:00,3770
85041,6150 S 35th Ave,Phoenix,AZ,06:00,24:00,3771
24263,468 Trade Center Ln,Jonesville,VA,06:00,01:00,3772
76108,9500 Clifford St,Fort Worth,TX,00:00,24:00,3773
8094,1840 S Black Horse Pike,Williamstown,NJ,00:00,24:00,3774
30318,1801 Howell Mill Rd Nw,Atlanta,GA,06:00,24:00,3775
75033,12220 Fm 423,Frisco,TX,00:00,24:00,3777
82604,4255 Cy Ave,Casper,WY,00:00,24:00,3778
21047,303 Fallston Blvd,Fallston,MD,00:00,24:00,3780
46254,4545 Lafayette Rd,Indianapolis,IN,06:00,24:00,3781
32822,5991 S Goldenrod Rd,Orlando,FL,00:00,24:00,3782
45414,3465 York Commons Blvd,Dayton,OH,00:00,24:00,3783
45005,1275 E 2nd St,Franklin,OH,00:00,24:00,3784
32507,501 N Navy Blvd,Pensacola,FL,06:00,24:00,3785
30519,3250 Sardis Church Rd,Buford,GA,00:00,24:00,3786
89146,6310 W Charleston Blvd,Las Vegas,NV,06:00,24:00,3788
84401,1959 Wall Ave,Ogden,UT,06:00,24:00,3789
60441,16241 S Farrell Rd,Lockport,IL,00:00,24:00,3790
49093,101 S Tolbert Dr,Three Rivers,MI,06:00,01:00,3791
43130,2687 N Memorial Dr,Lancaster,OH,00:00,24:00,3792
98003,34520 16th Ave S,Federal Way,WA,06:00,24:00,3794
7047,2100 88th St,North Bergen,NJ,00:00,24:00,3795
91762,1333 North Mountain Avenue,Ontario,CA,06:00,24:00,3796
85210,240 W Baseline Rd,Mesa,AZ,06:00,24:00,3799
98270,8713 64th St Ne,Marysville,WA,00:00,24:00,3801
19709,705 Middletown Warwick Rd,Middletown,DE,00:00,24:00,3802
6516,515 Saw Mill Rd,West Haven,CT,07:00,22:00,3803
21133,8730 Liberty Rd,Randallstown,MD,06:00,24:00,3804
80863,19600 E Us Highway 24,Woodland Park,CO,00:00,24:00,3805
56031,1250 Goemann Rd,Fairmont,MN,06:00,01:00,3806
85602,201 S Prickly Pear Ave,Benson,AZ,06:00,01:00,3807
43351,1855 E Wyandot Ave,Upper Sandusky,OH,06:00,01:00,3809
18041,620 Gravel Pike,East Greenville,PA,06:00,01:00,3810
43220,2700 Bethel Rd,Columbus,OH,00:00,24:00,3812
76542,1380 Lowes Boulevard,Killeen,TX,05:00,24:00,3816
32828,433 Avalon Park South Blvd,Orlando,FL,06:00,24:00,3817
68507,3400 N 85th St,Lincoln,NE,00:00,24:00,3823
80003,7155 Sheridan Blvd,Westminster,CO,06:00,24:00,3824
28532,566 Us Highway 70 W,Havelock,NC,00:00,24:00,3825
79415,1911 Marsha Sharp Fwy,Lubbock,TX,06:00,24:00,3826
77406,5660 W Grand Pkwy S,Richmond,TX,00:00,24:00,3827
75603,4006 Estes Pkwy,Longview,TX,00:00,24:00,3828
37604,2915 W Market St,Johnson City,TN,00:00,24:00,3829
8087,631 Rt. 9 South,Little Egg Harbor,NJ,00:00,24:00,3830
23707,1098 Fredrick Blvd,Portsmouth,VA,07:00,24:00,3831
85209,1606 S Signal Butte Rd,Mesa,AZ,00:00,24:00,3833
37363,5588 Little Debbie Pkwy,Collegedale,TN,00:00,24:00,3835
61073,4781 E Rockton Rd,Roscoe,IL,00:00,24:00,3837
15084,2010 Village Center Dr,Tarentum,PA,00:00,24:00,3838
45840,1161 Trenton Ave,Findlay,OH,00:00,24:00,3840
14502,425 State Route 31,Macedon,NY,00:00,24:00,3842
21629,610 Legion Rd,Denton,MD,06:00,24:00,3843
85302,5137 W Olive Ave,Glendale,AZ,06:00,24:00,3844
85302,6645 W Peoria Ave,Glendale,AZ,06:00,24:00,3845
85213,2725 E Mckellips Rd,Mesa,AZ,06:00,24:00,3846
89027,1120 W Pioneer Blvd,Mesquite,NV,00:00,24:00,3847
84075,2228 W 1700 S,Syracuse,UT,00:00,24:00,3848
98512,5900 Littlerock Rd Sw,Tumwater,WA,00:00,24:00,3850
47909,2347 Veterans Memorial Pkwy S,Lafayette,IN,00:00,24:00,3851
37692,110 Rocky Bottom Dr,Unicoi,TN,06:00,24:00,3852
57350,2791 Dakota Ave S,Huron,SD,06:00,01:00,3853
53713,2151 Royal Ave,Monona,WI,00:00,24:00,3857
33428,22100 S State Road 7,Boca Raton,FL,07:00,22:00,3858
44505,200 Goldie Rd,Youngstown,OH,00:00,24:00,3860
85295,5290 S Power Rd,Gilbert,AZ,00:00,24:00,3861
32117,1905 N Nova Rd,Holly Hill,FL,06:00,24:00,3862
28540,561 Yopp Rd,Jacksonville,NC,00:00,24:00,3864
80234,200 W 136th Ave,Westminster,CO,00:00,24:00,3867
71105,1125 Shreveport Barksdale Hwy,Shreveport,LA,00:00,24:00,3868
23229,1504 N Parham Rd,Richmond,VA,06:00,24:00,3869
76017,5401 Park Springs Blvd,Arlington,TX,06:00,24:00,3870
57701,100 Stumer Rd,Rapid City,SD,00:00,24:00,3872
30534,98 Power Center Dr,Dawsonville,GA,00:00,24:00,3874
58075,1625 Commerce Dr,Wahpeton,ND,06:00,01:00,3875
49441,3285 Henry St,Muskegon,MI,00:00,24:00,3876
32641,1800 Ne 12th Ave,Gainesville,FL,00:00,24:00,3877
23005,9714 Sliding Hill Rd,Ashland,VA,06:00,24:00,3880
96707,91-600 Farrington Hwy,Kapolei,HI,06:00,01:00,3883
85716,3435 East Broadway Blvd,Tucson,AZ,06:00,23:00,3884
23227,5221 Brook Road,Richmond,VA,06:00,24:00,3885
78539,4101 S Mccoll Rd,Edinburg,TX,00:00,24:00,3886
33825,1041 Us Highway 27 N,Avon Park,FL,00:00,24:00,3887
78253,11210 Potranco Rd,San Antonio,TX,00:00,24:00,3888
27502,3151 Apex Peakway,Apex,NC,06:00,24:00,3889
60085,3900 Fountain Square Pl,Waukegan,IL,00:00,24:00,3891
60099,4000 Route #173,Zion,IL,00:00,24:00,3893
40509,2350 Grey Lag Way Road,Lexington,KY,06:00,24:00,3894
85382,21655 N Lake Pleasant Pkwy,Peoria,AZ,00:00,24:00,3896
83301,252 Cheney Dr W,Twin Falls,ID,06:00,24:00,3897
29445,215 St James Avenue,Goose Creek,SC,06:00,24:00,3899
33032,14325 Sw 268th,Miami,FL,06:00,24:00,3935
91910,875 E. H St.,Chula Vista,CA,06:00,24:00,3947
37921,3120 Mckamey Road,Knoxville,TN,06:00,24:00,3959
84660,898 S 2550 E,Spanish Fork,UT,06:00,24:00,3988
39301,3310-a Highway 39 North,Meridian,MS,06:00,24:00,3990
75040,1855 S Garland Ave,Garland,TX,06:00,24:00,4046
70769,40567 La Hwy 42,Prairieville,LA,06:00,23:00,4048
60461,21000 Western Ave,Olympia Fields,IL,06:00,24:00,4049
46228,5555 Michigan Road,Indianapolis,IN,06:00,24:00,4053
46221,4837 Kentucky Avenue,Indianapolis,IN,06:00,24:00,4054
78148,510 Kitty Hawk Rd.,Universal City,TX,06:00,24:00,4055
78109,10781 Toepperwein Road,Converse,TX,06:00,24:00,4056
64801,1600 East 7th St,Joplin,MO,06:00,24:00,4057
33931,17105 San Carlos Blvd,Fort Myers Beach,FL,00:00,24:00,4063
23462,4821 Virginia Beach Blvd.,Virginia Beach,VA,00:00,24:00,4064
28411,8035 Market Street,Wilmington,NC,00:00,24:00,4065
84660,1206 N. Canyon Creek Parkway,Spanish Fork,UT,00:00,24:00,4068
84604,2255 N University Parkway,Provo,UT,06:00,24:00,4100
90805,3705 E South St,Long Beach,CA,06:00,24:00,4101
78009,1151 Us Hwy 90 E,Castroville,TX,06:00,24:00,4102
78016,175 Interstate 35 N,Devine,TX,06:00,24:00,4103
76210,3930 Teasley Ln,Denton,TX,06:00,24:00,4104
79932,101 E. Redd Rd,El Paso,TX,06:00,24:00,4105
72762,4870 Elm Springs Road,Springdale,AR,00:00,24:00,4108
77406,26824 F.m. 1093,Richmond,TX,00:00,24:00,4111
78526,2205 E. Ruben Torres Sr. Blvd,Brownsville,TX,00:00,24:00,4112
75604,3812 Gilmer Rd,Longview,TX,06:00,23:00,4114
78108,602 Cibolo Valley Drive,Cibolo,TX,06:00,24:00,4115
40165,545 Conestoga Parkway Lot 1,Shepherdsville,KY,00:00,24:00,4118
95695,215 California St,Woodland,CA,06:00,24:00,4127
72801,2109 W Main St,Russellville,AR,06:00,24:00,4128
70454,1331 Hwy 51,Ponchatoula,LA,00:00,24:00,4129
78640,5754 Kyle Parkway,Kyle,TX,00:00,24:00,4130
78251,9427 Culebra Rd,San Antonio,TX,00:00,24:00,4131
90242,9001 Apollo Way,Downey,CA,06:00,24:00,4132
90680,12840 Beach Blvd,Stanton,CA,06:00,24:00,4134
98405,1965 S. Union Ave,Tacoma,WA,06:00,24:00,4137
68164,13105 Birch Dr,Omaha,NE,06:00,24:00,4138
68131,360 North Saddlecreek Road,Omaha,NE,06:00,24:00,4139
33144,6991 Sw 8th St,Miami,FL,00:00,24:00,4140
33771,9020 Ulmerton Road,Largo,FL,06:00,24:00,4141
32822,4520 S Semoran Blvd,Orlando,FL,00:00,24:00,4142
30909,3338 Wrightsboro Road,Augusta,GA,00:00,24:00,4144
29650,805 W Wade Hampton Blvd Ste B,Greer,SC,06:00,24:00,4145
27560,3560 Davis Dr,Morrisville,NC,06:00,24:00,4147
28227,8800 East W T Harris Blvd,Charlotte,NC,06:00,22:00,4148
8857,2825 Highway Route 18,Old Bridge,NJ,00:00,24:00,4153
5829,115 Seymour Drive,Derby,VT,07:00,22:00,4156
27519,2750 Nc 55 Hwy,Cary,NC,06:00,24:00,4157
34743,2850 E Osceola Parkway,Kissimmee,FL,06:00,24:00,4159
32805,1101 S. Goldwyn,Orlando,FL,06:00,23:00,4160
33174,9191 W. Flagler St,Miami,FL,06:00,02:00,4161
78231,12639 Blanco Rd,San Antonio,TX,06:00,24:00,4162
78613,2801 East Whitestone Boulevard,Cedar Park,TX,00:00,24:00,4163
75142,300 Kings Fort Parkway,Kaufman,TX,00:00,24:00,4164
76114,2245 Jacksboro Hwy,Fort Worth,TX,06:00,24:00,4165
37874,935 State Hwy 11 South,Sweetwater,TN,06:00,01:00,4166
72012,2003 W. Center St,Beebe,AR,00:00,24:00,4168
92021,300 North Second Street,El Cajon,CA,06:00,24:00,4169
92841,11822 Gilbert St,Garden Grove,CA,06:00,23:00,4171
95112,1450 Monterey Rd,San Jose,CA,06:00,22:00,4174
97140,21320 Sw Langer Farms Pkwy,Sherwood,OR,05:00,01:00,4176
60712,6840 N Mccormick Blvd,Lincolnwood,IL,08:00,20:00,4177
97477,2730 Gateway Street,Springfield,OR,06:00,24:00,4178
83651,175 S Middleton Rd,Nampa,ID,06:00,24:00,4180
75093,3312 Preston Road,Plano,TX,06:00,24:00,4182
77807,643 N Harvey Mitchell Parkway,Bryan,TX,00:00,24:00,4183
11756,3335 Hempstead Tpke,Levittown,NY,06:00,24:00,4184
30041,2395 Peachtree Pkwy,Cumming,GA,06:00,24:00,4185
35633,2701 Cloverdale Road,Florence,AL,00:00,24:00,4187
35630,1410 Florence Blvd,Florence,AL,06:00,24:00,4188
35080,335 Helena Marketplace,Helena,AL,06:00,24:00,4189
23230,6920 Forest Avenue,Richmond,VA,06:00,24:00,4191
75703,1900 Ese Loop 323,Tyler,TX,06:00,23:00,4193
77901,4001 Houston Highway,Victoria,TX,00:00,24:00,4194
73020,14185 Mack Harrington Drive,Choctaw,OK,00:00,24:00,4195
80014,15240 E Iliff Avenue,Aurora,CO,06:00,24:00,4196
32810,902 Lee Rd,Orlando,FL,06:00,23:00,4197
66062,18555 W. 151st St,Olathe,KS,06:00,24:00,4198
31909,6475 Gateway Road,Columbus,GA,00:00,24:00,4200
87015,66 State Road #344,Edgewood,NM,00:00,24:00,4201
95661,1400 Lead Hill Blvd,Roseville,CA,06:00,24:00,4202
86426,5210 S. Hwy 95,Fort Mohave,AZ,00:00,24:00,4203
30907,300 South Belair Rd,Augusta,GA,06:00,24:00,4206
84109,2705 E Parleys Way,Salt Lake City,UT,00:00,24:00,4208
68410,2101 S 11th St,Nebraska City,NE,06:00,01:00,4209
36618,1300 North University,Mobile,AL,06:00,24:00,4210
32810,5559 Clarcona Ocoee Rd,Orlando,FL,06:00,23:00,4211
75474,8801 State Highway 34 S,Quinlan,TX,00:00,24:00,4215
47201,2025 Merchant Mile,Columbus,IN,00:00,24:00,4216
85374,15431 W Greenway Rd,Surprise,AZ,06:00,24:00,4218
78610,690 Old San Antonio Rd,Buda,TX,00:00,24:00,4219
23453,3201 Holland Rd,Virginia Beach,VA,06:00,24:00,4220
97113,220 N Adair St,Cornelius,OR,06:00,01:00,4221
37801,2410 Us Highway 411 S,Maryville,TN,00:00,24:00,4223
28613,201 Zelkova Ct Nw,Conover,NC,00:00,24:00,4224
37327,16773 Rankin Ave,Dunlap,TN,06:00,01:00,4226
46818,10105 Lima Rd,Fort Wayne,IN,00:00,24:00,4230
46816,7502 Southtown Crossing Blvd,Fort Wayne,IN,06:00,24:00,4231
85032,4747 E Cactus Rd,Phoenix,AZ,06:00,24:00,4232
85310,6550 West Happy Valley Rd,Phoenix,AZ,06:00,24:00,4233
47803,2399 S State Road 46,Terre Haute,IN,00:00,24:00,4235
29707,10048 Charlotte Hwy,Indian Land,SC,06:00,24:00,4237
93657,2761 Jensen Ave,Sanger,CA,06:00,01:00,4238
89506,250 Vista Knoll Parkway,Reno,NV,00:00,24:00,4239
75077,3060 Justin Rd,Highland Village,TX,00:00,24:00,4240
74074,4545 W 6th Ave,Stillwater,OK,00:00,24:00,4241
48420,11493 N Linden Rd,Clio,MI,00:00,24:00,4243
56470,1303 Charles St,Park Rapids,MN,06:00,01:00,4244
56482,100 Juniper Ave,Wadena,MN,06:00,24:00,4246
59501,3510 Us Highway 2 W,Havre,MT,07:00,24:00,4247
83868,583 Commerce Drive,Smelterville,ID,06:00,01:00,4249
27560,1001 Shiloh Glenn Dr,Morrisville,NC,00:00,24:00,4250
86004,2601 E Huntington Dr,Flagstaff,AZ,00:00,24:00,4252
56378,205 12th St S,Sauk Centre,MN,06:00,01:00,4253
44035,1000 Chestnut Commons Dr,Elyria,OH,00:00,24:00,4255
50010,534 S Duff Ave,Ames,IA,00:00,24:00,4256
55912,1000 18th Ave Nw,Austin,MN,06:00,01:00,4257
22406,11 Village Pkwy,Fredericksburg,VA,00:00,24:00,4258
62565,2607 W. Main St.,Shelbyville,IL,06:00,24:00,4259
34953,1850 Sw Gatlin Blvd,Port St Lucie,FL,00:00,24:00,4260
32162,4085 Wedgewood Ln,The Villages,FL,00:00,24:00,4262
85704,7951 N Oracle Rd,Oro Valley,AZ,06:00,24:00,4264
84321,1150 S 100 W,Logan,UT,00:00,24:00,4272
28451,1112 New Pointe Blvd,Leland,NC,00:00,24:00,4273
28037,7131 Highway #73,Denver,NC,00:00,24:00,4274
85381,7421 West Thunderbird Road,Peoria,AZ,06:00,24:00,4275
18517,1325 Main,Taylor,PA,00:00,24:00,4276
25526,167 Progress Way,Hurricane,WV,00:00,24:00,4277
25015,1001 Warrior Way,Quincy,WV,00:00,24:00,4278
76065,400 N Highway 67,Midlothian,TX,00:00,24:00,4279
76645,401 Coke Ave,Hillsboro,TX,00:00,24:00,211
76135,6364 Lake Worth Blvd,Lake Worth,TX,00:00,24:00,717
